<?xml version="1.0" encoding="UTF-8"?>
<gpx version="1.1" creator="vitai-demo" xmlns="http://www.topografix.com/GPX/1/1">
 <trk><name>canal-loop</name><trkseg>
   <trkpt lat="51.21000" lon="3.22000"><ele>4.0</ele><time>2030-06-16T14:05:00Z</time></trkpt>
   <trkpt lat="51.21010" lon="3.22004"><ele>4.5</ele><time>2030-06-16T14:05:10Z</time></trkpt>
   <trkpt lat="51.21020" lon="3.22008"><ele>5.1</ele><time>2030-06-16T14:05:20Z</time></trkpt>
   <trkpt lat="51.21030" lon="3.22013"><ele>5.7</ele><time>2030-06-16T14:05:30Z</time></trkpt>
   <trkpt lat="51.21040" lon="3.22017"><ele>6.2</ele><time>2030-06-16T14:05:40Z</time></trkpt>
   <trkpt lat="51.21050" lon="3.22021"><ele>6.8</ele><time>2030-06-16T14:05:50Z</time></trkpt>
   <trkpt lat="51.21060" lon="3.22025"><ele>7.3</ele><time>2030-06-16T14:06:00Z</time></trkpt>
   <trkpt lat="51.21070" lon="3.22029"><ele>7.9</ele><time>2030-06-16T14:06:10Z</time></trkpt>
   <trkpt lat="51.21080" lon="3.22033"><ele>8.4</ele><time>2030-06-16T14:06:20Z</time></trkpt>
   <trkpt lat="51.21090" lon="3.22037"><ele>8.9</ele><time>2030-06-16T14:06:30Z</time></trkpt>
   <trkpt lat="51.21100" lon="3.22041"><ele>9.5</ele><time>2030-06-16T14:06:40Z</time></trkpt>
   <trkpt lat="51.21110" lon="3.22045"><ele>10.1</ele><time>2030-06-16T14:06:50Z</time></trkpt>
   <trkpt lat="51.21120" lon="3.22049"><ele>10.6</ele><time>2030-06-16T14:07:00Z</time></trkpt>
   <trkpt lat="51.21130" lon="3.22053"><ele>11.2</ele><time>2030-06-16T14:07:10Z</time></trkpt>
   <trkpt lat="51.21140" lon="3.22057"><ele>11.7</ele><time>2030-06-16T14:07:20Z</time></trkpt>
   <trkpt lat="51.21150" lon="3.22061"><ele>12.2</ele><time>2030-06-16T14:07:30Z</time></trkpt>
   <trkpt lat="51.21160" lon="3.22065"><ele>12.8</ele><time>2030-06-16T14:07:40Z</time></trkpt>
   <trkpt lat="51.21170" lon="3.22069"><ele>13.4</ele><time>2030-06-16T14:07:50Z</time></trkpt>
   <trkpt lat="51.21180" lon="3.22073"><ele>13.9</ele><time>2030-06-16T14:08:00Z</time></trkpt>
   <trkpt lat="51.21190" lon="3.22076"><ele>14.5</ele><time>2030-06-16T14:08:10Z</time></trkpt>
   <trkpt lat="51.21200" lon="3.22080"><ele>15.0</ele><time>2030-06-16T14:08:20Z</time></trkpt>
   <trkpt lat="51.21210" lon="3.22084"><ele>15.6</ele><time>2030-06-16T14:08:30Z</time></trkpt>
   <trkpt lat="51.21220" lon="3.22087"><ele>16.1</ele><time>2030-06-16T14:08:40Z</time></trkpt>
   <trkpt lat="51.21230" lon="3.22091"><ele>16.6</ele><time>2030-06-16T14:08:50Z</time></trkpt>
   <trkpt lat="51.21240" lon="3.22094"><ele>17.2</ele><time>2030-06-16T14:09:00Z</time></trkpt>
   <trkpt lat="51.21250" lon="3.22097"><ele>17.8</ele><time>2030-06-16T14:09:10Z</time></trkpt>
   <trkpt lat="51.21260" lon="3.22101"><ele>18.3</ele><time>2030-06-16T14:09:20Z</time></trkpt>
   <trkpt lat="51.21270" lon="3.22104"><ele>18.9</ele><time>2030-06-16T14:09:30Z</time></trkpt>
   <trkpt lat="51.21280" lon="3.22107"><ele>19.4</ele><time>2030-06-16T14:09:40Z</time></trkpt>
   <trkpt lat="51.21290" lon="3.22110"><ele>20.0</ele><time>2030-06-16T14:09:50Z</time></trkpt>
   <trkpt lat="51.21300" lon="3.22113"><ele>20.5</ele><time>2030-06-16T14:10:00Z</time></trkpt>
   <trkpt lat="51.21310" lon="3.22116"><ele>21.1</ele><time>2030-06-16T14:10:10Z</time></trkpt>
   <trkpt lat="51.21320" lon="3.22119"><ele>21.6</ele><time>2030-06-16T14:10:20Z</time></trkpt>
   <trkpt lat="51.21330" lon="3.22122"><ele>22.2</ele><time>2030-06-16T14:10:30Z</time></trkpt>
   <trkpt lat="51.21340" lon="3.22124"><ele>22.7</ele><time>2030-06-16T14:10:40Z</time></trkpt>
   <trkpt lat="51.21350" lon="3.22127"><ele>23.2</ele><time>2030-06-16T14:10:50Z</time></trkpt>
   <trkpt lat="51.21360" lon="3.22129"><ele>23.8</ele><time>2030-06-16T14:11:00Z</time></trkpt>
   <trkpt lat="51.21370" lon="3.22132"><ele>24.4</ele><time>2030-06-16T14:11:10Z</time></trkpt>
   <trkpt lat="51.21380" lon="3.22134"><ele>24.9</ele><time>2030-06-16T14:11:20Z</time></trkpt>
   <trkpt lat="51.21390" lon="3.22136"><ele>25.5</ele><time>2030-06-16T14:11:30Z</time></trkpt>
   <trkpt lat="51.21400" lon="3.22139"><ele>26.0</ele><time>2030-06-16T14:11:40Z</time></trkpt>
   <trkpt lat="51.21410" lon="3.22141"><ele>26.6</ele><time>2030-06-16T14:11:50Z</time></trkpt>
   <trkpt lat="51.21420" lon="3.22143"><ele>27.1</ele><time>2030-06-16T14:12:00Z</time></trkpt>
   <trkpt lat="51.21430" lon="3.22144"><ele>27.7</ele><time>2030-06-16T14:12:10Z</time></trkpt>
   <trkpt lat="51.21440" lon="3.22146"><ele>28.2</ele><time>2030-06-16T14:12:20Z</time></trkpt>
   <trkpt lat="51.21450" lon="3.22148"><ele>28.8</ele><time>2030-06-16T14:12:30Z</time></trkpt>
   <trkpt lat="51.21460" lon="3.22149"><ele>29.3</ele><time>2030-06-16T14:12:40Z</time></trkpt>
   <trkpt lat="51.21470" lon="3.22151"><ele>29.9</ele><time>2030-06-16T14:12:50Z</time></trkpt>
   <trkpt lat="51.21480" lon="3.22152"><ele>30.4</ele><time>2030-06-16T14:13:00Z</time></trkpt>
   <trkpt lat="51.21490" lon="3.22153"><ele>31.0</ele><time>2030-06-16T14:13:10Z</time></trkpt>
   <trkpt lat="51.21500" lon="3.22155"><ele>31.5</ele><time>2030-06-16T14:13:20Z</time></trkpt>
   <trkpt lat="51.21510" lon="3.22156"><ele>32.0</ele><time>2030-06-16T14:13:30Z</time></trkpt>
   <trkpt lat="51.21520" lon="3.22157"><ele>32.6</ele><time>2030-06-16T14:13:40Z</time></trkpt>
   <trkpt lat="51.21530" lon="3.22157"><ele>33.2</ele><time>2030-06-16T14:13:50Z</time></trkpt>
   <trkpt lat="51.21540" lon="3.22158"><ele>33.7</ele><time>2030-06-16T14:14:00Z</time></trkpt>
   <trkpt lat="51.21550" lon="3.22159"><ele>34.2</ele><time>2030-06-16T14:14:10Z</time></trkpt>
   <trkpt lat="51.21560" lon="3.22159"><ele>34.8</ele><time>2030-06-16T14:14:20Z</time></trkpt>
   <trkpt lat="51.21570" lon="3.22160"><ele>35.4</ele><time>2030-06-16T14:14:30Z</time></trkpt>
   <trkpt lat="51.21580" lon="3.22160"><ele>35.9</ele><time>2030-06-16T14:14:40Z</time></trkpt>
   <trkpt lat="51.21590" lon="3.22160"><ele>36.5</ele><time>2030-06-16T14:14:50Z</time></trkpt>
   <trkpt lat="51.21600" lon="3.22160"><ele>37.0</ele><time>2030-06-16T14:15:00Z</time></trkpt>
   <trkpt lat="51.21610" lon="3.22160"><ele>37.6</ele><time>2030-06-16T14:15:10Z</time></trkpt>
   <trkpt lat="51.21620" lon="3.22160"><ele>38.1</ele><time>2030-06-16T14:15:20Z</time></trkpt>
   <trkpt lat="51.21630" lon="3.22160"><ele>38.7</ele><time>2030-06-16T14:15:30Z</time></trkpt>
   <trkpt lat="51.21640" lon="3.22159"><ele>39.2</ele><time>2030-06-16T14:15:40Z</time></trkpt>
   <trkpt lat="51.21650" lon="3.22159"><ele>39.8</ele><time>2030-06-16T14:15:50Z</time></trkpt>
   <trkpt lat="51.21660" lon="3.22158"><ele>40.3</ele><time>2030-06-16T14:16:00Z</time></trkpt>
   <trkpt lat="51.21670" lon="3.22157"><ele>40.9</ele><time>2030-06-16T14:16:10Z</time></trkpt>
   <trkpt lat="51.21680" lon="3.22157"><ele>41.4</ele><time>2030-06-16T14:16:20Z</time></trkpt>
   <trkpt lat="51.21690" lon="3.22156"><ele>42.0</ele><time>2030-06-16T14:16:30Z</time></trkpt>
   <trkpt lat="51.21700" lon="3.22155"><ele>42.5</ele><time>2030-06-16T14:16:40Z</time></trkpt>
   <trkpt lat="51.21710" lon="3.22153"><ele>43.1</ele><time>2030-06-16T14:16:50Z</time></trkpt>
   <trkpt lat="51.21720" lon="3.22152"><ele>43.6</ele><time>2030-06-16T14:17:00Z</time></trkpt>
   <trkpt lat="51.21730" lon="3.22151"><ele>44.2</ele><time>2030-06-16T14:17:10Z</time></trkpt>
   <trkpt lat="51.21740" lon="3.22149"><ele>44.7</ele><time>2030-06-16T14:17:20Z</time></trkpt>
   <trkpt lat="51.21750" lon="3.22148"><ele>45.2</ele><time>2030-06-16T14:17:30Z</time></trkpt>
   <trkpt lat="51.21760" lon="3.22146"><ele>45.8</ele><time>2030-06-16T14:17:40Z</time></trkpt>
   <trkpt lat="51.21770" lon="3.22144"><ele>46.4</ele><time>2030-06-16T14:17:50Z</time></trkpt>
   <trkpt lat="51.21780" lon="3.22143"><ele>46.9</ele><time>2030-06-16T14:18:00Z</time></trkpt>
   <trkpt lat="51.21790" lon="3.22141"><ele>47.5</ele><time>2030-06-16T14:18:10Z</time></trkpt>
   <trkpt lat="51.21800" lon="3.22139"><ele>48.0</ele><time>2030-06-16T14:18:20Z</time></trkpt>
   <trkpt lat="51.21810" lon="3.22136"><ele>48.6</ele><time>2030-06-16T14:18:30Z</time></trkpt>
   <trkpt lat="51.21820" lon="3.22134"><ele>49.1</ele><time>2030-06-16T14:18:40Z</time></trkpt>
   <trkpt lat="51.21830" lon="3.22132"><ele>49.7</ele><time>2030-06-16T14:18:50Z</time></trkpt>
   <trkpt lat="51.21840" lon="3.22129"><ele>50.2</ele><time>2030-06-16T14:19:00Z</time></trkpt>
   <trkpt lat="51.21850" lon="3.22127"><ele>50.8</ele><time>2030-06-16T14:19:10Z</time></trkpt>
   <trkpt lat="51.21860" lon="3.22124"><ele>51.3</ele><time>2030-06-16T14:19:20Z</time></trkpt>
   <trkpt lat="51.21870" lon="3.22122"><ele>51.9</ele><time>2030-06-16T14:19:30Z</time></trkpt>
   <trkpt lat="51.21880" lon="3.22119"><ele>52.4</ele><time>2030-06-16T14:19:40Z</time></trkpt>
   <trkpt lat="51.21890" lon="3.22116"><ele>53.0</ele><time>2030-06-16T14:19:50Z</time></trkpt>
   <trkpt lat="51.21900" lon="3.22113"><ele>53.5</ele><time>2030-06-16T14:20:00Z</time></trkpt>
   <trkpt lat="51.21910" lon="3.22110"><ele>54.1</ele><time>2030-06-16T14:20:10Z</time></trkpt>
   <trkpt lat="51.21920" lon="3.22107"><ele>54.6</ele><time>2030-06-16T14:20:20Z</time></trkpt>
   <trkpt lat="51.21930" lon="3.22104"><ele>55.2</ele><time>2030-06-16T14:20:30Z</time></trkpt>
   <trkpt lat="51.21940" lon="3.22101"><ele>55.7</ele><time>2030-06-16T14:20:40Z</time></trkpt>
   <trkpt lat="51.21950" lon="3.22097"><ele>56.3</ele><time>2030-06-16T14:20:50Z</time></trkpt>
   <trkpt lat="51.21960" lon="3.22094"><ele>56.8</ele><time>2030-06-16T14:21:00Z</time></trkpt>
   <trkpt lat="51.21970" lon="3.22091"><ele>57.4</ele><time>2030-06-16T14:21:10Z</time></trkpt>
   <trkpt lat="51.21980" lon="3.22087"><ele>57.9</ele><time>2030-06-16T14:21:20Z</time></trkpt>
   <trkpt lat="51.21990" lon="3.22084"><ele>58.5</ele><time>2030-06-16T14:21:30Z</time></trkpt>
   <trkpt lat="51.22000" lon="3.22080"><ele>59.0</ele><time>2030-06-16T14:21:40Z</time></trkpt>
   <trkpt lat="51.22010" lon="3.22076"><ele>59.6</ele><time>2030-06-16T14:21:50Z</time></trkpt>
   <trkpt lat="51.22020" lon="3.22073"><ele>60.1</ele><time>2030-06-16T14:22:00Z</time></trkpt>
   <trkpt lat="51.22030" lon="3.22069"><ele>60.7</ele><time>2030-06-16T14:22:10Z</time></trkpt>
   <trkpt lat="51.22040" lon="3.22065"><ele>61.2</ele><time>2030-06-16T14:22:20Z</time></trkpt>
   <trkpt lat="51.22050" lon="3.22061"><ele>61.8</ele><time>2030-06-16T14:22:30Z</time></trkpt>
   <trkpt lat="51.22060" lon="3.22057"><ele>62.3</ele><time>2030-06-16T14:22:40Z</time></trkpt>
   <trkpt lat="51.22070" lon="3.22053"><ele>62.9</ele><time>2030-06-16T14:22:50Z</time></trkpt>
   <trkpt lat="51.22080" lon="3.22049"><ele>63.4</ele><time>2030-06-16T14:23:00Z</time></trkpt>
   <trkpt lat="51.22090" lon="3.22045"><ele>64.0</ele><time>2030-06-16T14:23:10Z</time></trkpt>
   <trkpt lat="51.22100" lon="3.22041"><ele>64.5</ele><time>2030-06-16T14:23:20Z</time></trkpt>
   <trkpt lat="51.22110" lon="3.22037"><ele>65.1</ele><time>2030-06-16T14:23:30Z</time></trkpt>
   <trkpt lat="51.22120" lon="3.22033"><ele>65.6</ele><time>2030-06-16T14:23:40Z</time></trkpt>
   <trkpt lat="51.22130" lon="3.22029"><ele>66.2</ele><time>2030-06-16T14:23:50Z</time></trkpt>
   <trkpt lat="51.22140" lon="3.22025"><ele>66.7</ele><time>2030-06-16T14:24:00Z</time></trkpt>
   <trkpt lat="51.22150" lon="3.22021"><ele>67.2</ele><time>2030-06-16T14:24:10Z</time></trkpt>
   <trkpt lat="51.22160" lon="3.22017"><ele>67.8</ele><time>2030-06-16T14:24:20Z</time></trkpt>
   <trkpt lat="51.22170" lon="3.22013"><ele>68.4</ele><time>2030-06-16T14:24:30Z</time></trkpt>
   <trkpt lat="51.22180" lon="3.22008"><ele>68.9</ele><time>2030-06-16T14:24:40Z</time></trkpt>
   <trkpt lat="51.22190" lon="3.22004"><ele>69.5</ele><time>2030-06-16T14:24:50Z</time></trkpt>
   <trkpt lat="51.22190" lon="3.22004"><ele>69.5</ele><time>2030-06-16T14:25:00Z</time></trkpt>
   <trkpt lat="51.22180" lon="3.22008"><ele>68.9</ele><time>2030-06-16T14:25:10Z</time></trkpt>
   <trkpt lat="51.22170" lon="3.22013"><ele>68.4</ele><time>2030-06-16T14:25:20Z</time></trkpt>
   <trkpt lat="51.22160" lon="3.22017"><ele>67.8</ele><time>2030-06-16T14:25:30Z</time></trkpt>
   <trkpt lat="51.22150" lon="3.22021"><ele>67.2</ele><time>2030-06-16T14:25:40Z</time></trkpt>
   <trkpt lat="51.22140" lon="3.22025"><ele>66.7</ele><time>2030-06-16T14:25:50Z</time></trkpt>
   <trkpt lat="51.22130" lon="3.22029"><ele>66.2</ele><time>2030-06-16T14:26:00Z</time></trkpt>
   <trkpt lat="51.22120" lon="3.22033"><ele>65.6</ele><time>2030-06-16T14:26:10Z</time></trkpt>
   <trkpt lat="51.22110" lon="3.22037"><ele>65.1</ele><time>2030-06-16T14:26:20Z</time></trkpt>
   <trkpt lat="51.22100" lon="3.22041"><ele>64.5</ele><time>2030-06-16T14:26:30Z</time></trkpt>
   <trkpt lat="51.22090" lon="3.22045"><ele>64.0</ele><time>2030-06-16T14:26:40Z</time></trkpt>
   <trkpt lat="51.22080" lon="3.22049"><ele>63.4</ele><time>2030-06-16T14:26:50Z</time></trkpt>
   <trkpt lat="51.22070" lon="3.22053"><ele>62.9</ele><time>2030-06-16T14:27:00Z</time></trkpt>
   <trkpt lat="51.22060" lon="3.22057"><ele>62.3</ele><time>2030-06-16T14:27:10Z</time></trkpt>
   <trkpt lat="51.22050" lon="3.22061"><ele>61.8</ele><time>2030-06-16T14:27:20Z</time></trkpt>
   <trkpt lat="51.22040" lon="3.22065"><ele>61.2</ele><time>2030-06-16T14:27:30Z</time></trkpt>
   <trkpt lat="51.22030" lon="3.22069"><ele>60.7</ele><time>2030-06-16T14:27:40Z</time></trkpt>
   <trkpt lat="51.22020" lon="3.22073"><ele>60.1</ele><time>2030-06-16T14:27:50Z</time></trkpt>
   <trkpt lat="51.22010" lon="3.22076"><ele>59.6</ele><time>2030-06-16T14:28:00Z</time></trkpt>
   <trkpt lat="51.22000" lon="3.22080"><ele>59.0</ele><time>2030-06-16T14:28:10Z</time></trkpt>
   <trkpt lat="51.21990" lon="3.22084"><ele>58.5</ele><time>2030-06-16T14:28:20Z</time></trkpt>
   <trkpt lat="51.21980" lon="3.22087"><ele>57.9</ele><time>2030-06-16T14:28:30Z</time></trkpt>
   <trkpt lat="51.21970" lon="3.22091"><ele>57.4</ele><time>2030-06-16T14:28:40Z</time></trkpt>
   <trkpt lat="51.21960" lon="3.22094"><ele>56.8</ele><time>2030-06-16T14:28:50Z</time></trkpt>
   <trkpt lat="51.21950" lon="3.22097"><ele>56.3</ele><time>2030-06-16T14:29:00Z</time></trkpt>
   <trkpt lat="51.21940" lon="3.22101"><ele>55.7</ele><time>2030-06-16T14:29:10Z</time></trkpt>
   <trkpt lat="51.21930" lon="3.22104"><ele>55.2</ele><time>2030-06-16T14:29:20Z</time></trkpt>
   <trkpt lat="51.21920" lon="3.22107"><ele>54.6</ele><time>2030-06-16T14:29:30Z</time></trkpt>
   <trkpt lat="51.21910" lon="3.22110"><ele>54.1</ele><time>2030-06-16T14:29:40Z</time></trkpt>
   <trkpt lat="51.21900" lon="3.22113"><ele>53.5</ele><time>2030-06-16T14:29:50Z</time></trkpt>
   <trkpt lat="51.21890" lon="3.22116"><ele>53.0</ele><time>2030-06-16T14:30:00Z</time></trkpt>
   <trkpt lat="51.21880" lon="3.22119"><ele>52.4</ele><time>2030-06-16T14:30:10Z</time></trkpt>
   <trkpt lat="51.21870" lon="3.22122"><ele>51.9</ele><time>2030-06-16T14:30:20Z</time></trkpt>
   <trkpt lat="51.21860" lon="3.22124"><ele>51.3</ele><time>2030-06-16T14:30:30Z</time></trkpt>
   <trkpt lat="51.21850" lon="3.22127"><ele>50.8</ele><time>2030-06-16T14:30:40Z</time></trkpt>
   <trkpt lat="51.21840" lon="3.22129"><ele>50.2</ele><time>2030-06-16T14:30:50Z</time></trkpt>
   <trkpt lat="51.21830" lon="3.22132"><ele>49.7</ele><time>2030-06-16T14:31:00Z</time></trkpt>
   <trkpt lat="51.21820" lon="3.22134"><ele>49.1</ele><time>2030-06-16T14:31:10Z</time></trkpt>
   <trkpt lat="51.21810" lon="3.22136"><ele>48.6</ele><time>2030-06-16T14:31:20Z</time></trkpt>
   <trkpt lat="51.21800" lon="3.22139"><ele>48.0</ele><time>2030-06-16T14:31:30Z</time></trkpt>
   <trkpt lat="51.21790" lon="3.22141"><ele>47.5</ele><time>2030-06-16T14:31:40Z</time></trkpt>
   <trkpt lat="51.21780" lon="3.22143"><ele>46.9</ele><time>2030-06-16T14:31:50Z</time></trkpt>
   <trkpt lat="51.21770" lon="3.22144"><ele>46.4</ele><time>2030-06-16T14:32:00Z</time></trkpt>
   <trkpt lat="51.21760" lon="3.22146"><ele>45.8</ele><time>2030-06-16T14:32:10Z</time></trkpt>
   <trkpt lat="51.21750" lon="3.22148"><ele>45.2</ele><time>2030-06-16T14:32:20Z</time></trkpt>
   <trkpt lat="51.21740" lon="3.22149"><ele>44.7</ele><time>2030-06-16T14:32:30Z</time></trkpt>
   <trkpt lat="51.21730" lon="3.22151"><ele>44.2</ele><time>2030-06-16T14:32:40Z</time></trkpt>
   <trkpt lat="51.21720" lon="3.22152"><ele>43.6</ele><time>2030-06-16T14:32:50Z</time></trkpt>
   <trkpt lat="51.21710" lon="3.22153"><ele>43.1</ele><time>2030-06-16T14:33:00Z</time></trkpt>
   <trkpt lat="51.21700" lon="3.22155"><ele>42.5</ele><time>2030-06-16T14:33:10Z</time></trkpt>
   <trkpt lat="51.21690" lon="3.22156"><ele>42.0</ele><time>2030-06-16T14:33:20Z</time></trkpt>
   <trkpt lat="51.21680" lon="3.22157"><ele>41.4</ele><time>2030-06-16T14:33:30Z</time></trkpt>
   <trkpt lat="51.21670" lon="3.22157"><ele>40.9</ele><time>2030-06-16T14:33:40Z</time></trkpt>
   <trkpt lat="51.21660" lon="3.22158"><ele>40.3</ele><time>2030-06-16T14:33:50Z</time></trkpt>
   <trkpt lat="51.21650" lon="3.22159"><ele>39.8</ele><time>2030-06-16T14:34:00Z</time></trkpt>
   <trkpt lat="51.21640" lon="3.22159"><ele>39.2</ele><time>2030-06-16T14:34:10Z</time></trkpt>
   <trkpt lat="51.21630" lon="3.22160"><ele>38.7</ele><time>2030-06-16T14:34:20Z</time></trkpt>
   <trkpt lat="51.21620" lon="3.22160"><ele>38.1</ele><time>2030-06-16T14:34:30Z</time></trkpt>
   <trkpt lat="51.21610" lon="3.22160"><ele>37.6</ele><time>2030-06-16T14:34:40Z</time></trkpt>
   <trkpt lat="51.21600" lon="3.22160"><ele>37.0</ele><time>2030-06-16T14:34:50Z</time></trkpt>
   <trkpt lat="51.21590" lon="3.22160"><ele>36.5</ele><time>2030-06-16T14:35:00Z</time></trkpt>
   <trkpt lat="51.21580" lon="3.22160"><ele>35.9</ele><time>2030-06-16T14:35:10Z</time></trkpt>
   <trkpt lat="51.21570" lon="3.22160"><ele>35.4</ele><time>2030-06-16T14:35:20Z</time></trkpt>
   <trkpt lat="51.21560" lon="3.22159"><ele>34.8</ele><time>2030-06-16T14:35:30Z</time></trkpt>
   <trkpt lat="51.21550" lon="3.22159"><ele>34.2</ele><time>2030-06-16T14:35:40Z</time></trkpt>
   <trkpt lat="51.21540" lon="3.22158"><ele>33.7</ele><time>2030-06-16T14:35:50Z</time></trkpt>
   <trkpt lat="51.21530" lon="3.22157"><ele>33.2</ele><time>2030-06-16T14:36:00Z</time></trkpt>
   <trkpt lat="51.21520" lon="3.22157"><ele>32.6</ele><time>2030-06-16T14:36:10Z</time></trkpt>
   <trkpt lat="51.21510" lon="3.22156"><ele>32.0</ele><time>2030-06-16T14:36:20Z</time></trkpt>
   <trkpt lat="51.21500" lon="3.22155"><ele>31.5</ele><time>2030-06-16T14:36:30Z</time></trkpt>
   <trkpt lat="51.21490" lon="3.22153"><ele>31.0</ele><time>2030-06-16T14:36:40Z</time></trkpt>
   <trkpt lat="51.21480" lon="3.22152"><ele>30.4</ele><time>2030-06-16T14:36:50Z</time></trkpt>
   <trkpt lat="51.21470" lon="3.22151"><ele>29.9</ele><time>2030-06-16T14:37:00Z</time></trkpt>
   <trkpt lat="51.21460" lon="3.22149"><ele>29.3</ele><time>2030-06-16T14:37:10Z</time></trkpt>
   <trkpt lat="51.21450" lon="3.22148"><ele>28.8</ele><time>2030-06-16T14:37:20Z</time></trkpt>
   <trkpt lat="51.21440" lon="3.22146"><ele>28.2</ele><time>2030-06-16T14:37:30Z</time></trkpt>
   <trkpt lat="51.21430" lon="3.22144"><ele>27.7</ele><time>2030-06-16T14:37:40Z</time></trkpt>
   <trkpt lat="51.21420" lon="3.22143"><ele>27.1</ele><time>2030-06-16T14:37:50Z</time></trkpt>
   <trkpt lat="51.21410" lon="3.22141"><ele>26.6</ele><time>2030-06-16T14:38:00Z</time></trkpt>
   <trkpt lat="51.21400" lon="3.22139"><ele>26.0</ele><time>2030-06-16T14:38:10Z</time></trkpt>
   <trkpt lat="51.21390" lon="3.22136"><ele>25.5</ele><time>2030-06-16T14:38:20Z</time></trkpt>
   <trkpt lat="51.21380" lon="3.22134"><ele>24.9</ele><time>2030-06-16T14:38:30Z</time></trkpt>
   <trkpt lat="51.21370" lon="3.22132"><ele>24.4</ele><time>2030-06-16T14:38:40Z</time></trkpt>
   <trkpt lat="51.21360" lon="3.22129"><ele>23.8</ele><time>2030-06-16T14:38:50Z</time></trkpt>
   <trkpt lat="51.21350" lon="3.22127"><ele>23.2</ele><time>2030-06-16T14:39:00Z</time></trkpt>
   <trkpt lat="51.21340" lon="3.22124"><ele>22.7</ele><time>2030-06-16T14:39:10Z</time></trkpt>
   <trkpt lat="51.21330" lon="3.22122"><ele>22.2</ele><time>2030-06-16T14:39:20Z</time></trkpt>
   <trkpt lat="51.21320" lon="3.22119"><ele>21.6</ele><time>2030-06-16T14:39:30Z</time></trkpt>
   <trkpt lat="51.21310" lon="3.22116"><ele>21.1</ele><time>2030-06-16T14:39:40Z</time></trkpt>
   <trkpt lat="51.21300" lon="3.22113"><ele>20.5</ele><time>2030-06-16T14:39:50Z</time></trkpt>
   <trkpt lat="51.21290" lon="3.22110"><ele>20.0</ele><time>2030-06-16T14:40:00Z</time></trkpt>
   <trkpt lat="51.21280" lon="3.22107"><ele>19.4</ele><time>2030-06-16T14:40:10Z</time></trkpt>
   <trkpt lat="51.21270" lon="3.22104"><ele>18.9</ele><time>2030-06-16T14:40:20Z</time></trkpt>
   <trkpt lat="51.21260" lon="3.22101"><ele>18.3</ele><time>2030-06-16T14:40:30Z</time></trkpt>
   <trkpt lat="51.21250" lon="3.22097"><ele>17.8</ele><time>2030-06-16T14:40:40Z</time></trkpt>
   <trkpt lat="51.21240" lon="3.22094"><ele>17.2</ele><time>2030-06-16T14:40:50Z</time></trkpt>
   <trkpt lat="51.21230" lon="3.22091"><ele>16.6</ele><time>2030-06-16T14:41:00Z</time></trkpt>
   <trkpt lat="51.21220" lon="3.22087"><ele>16.1</ele><time>2030-06-16T14:41:10Z</time></trkpt>
   <trkpt lat="51.21210" lon="3.22084"><ele>15.6</ele><time>2030-06-16T14:41:20Z</time></trkpt>
   <trkpt lat="51.21200" lon="3.22080"><ele>15.0</ele><time>2030-06-16T14:41:30Z</time></trkpt>
   <trkpt lat="51.21190" lon="3.22076"><ele>14.5</ele><time>2030-06-16T14:41:40Z</time></trkpt>
   <trkpt lat="51.21180" lon="3.22073"><ele>13.9</ele><time>2030-06-16T14:41:50Z</time></trkpt>
   <trkpt lat="51.21170" lon="3.22069"><ele>13.4</ele><time>2030-06-16T14:42:00Z</time></trkpt>
   <trkpt lat="51.21160" lon="3.22065"><ele>12.8</ele><time>2030-06-16T14:42:10Z</time></trkpt>
   <trkpt lat="51.21150" lon="3.22061"><ele>12.2</ele><time>2030-06-16T14:42:20Z</time></trkpt>
   <trkpt lat="51.21140" lon="3.22057"><ele>11.7</ele><time>2030-06-16T14:42:30Z</time></trkpt>
   <trkpt lat="51.21130" lon="3.22053"><ele>11.2</ele><time>2030-06-16T14:42:40Z</time></trkpt>
   <trkpt lat="51.21120" lon="3.22049"><ele>10.6</ele><time>2030-06-16T14:42:50Z</time></trkpt>
   <trkpt lat="51.21110" lon="3.22045"><ele>10.1</ele><time>2030-06-16T14:43:00Z</time></trkpt>
   <trkpt lat="51.21100" lon="3.22041"><ele>9.5</ele><time>2030-06-16T14:43:10Z</time></trkpt>
   <trkpt lat="51.21090" lon="3.22037"><ele>8.9</ele><time>2030-06-16T14:43:20Z</time></trkpt>
   <trkpt lat="51.21080" lon="3.22033"><ele>8.4</ele><time>2030-06-16T14:43:30Z</time></trkpt>
   <trkpt lat="51.21070" lon="3.22029"><ele>7.9</ele><time>2030-06-16T14:43:40Z</time></trkpt>
   <trkpt lat="51.21060" lon="3.22025"><ele>7.3</ele><time>2030-06-16T14:43:50Z</time></trkpt>
   <trkpt lat="51.21050" lon="3.22021"><ele>6.8</ele><time>2030-06-16T14:44:00Z</time></trkpt>
   <trkpt lat="51.21040" lon="3.22017"><ele>6.2</ele><time>2030-06-16T14:44:10Z</time></trkpt>
   <trkpt lat="51.21030" lon="3.22013"><ele>5.7</ele><time>2030-06-16T14:44:20Z</time></trkpt>
   <trkpt lat="51.21020" lon="3.22008"><ele>5.1</ele><time>2030-06-16T14:44:30Z</time></trkpt>
   <trkpt lat="51.21010" lon="3.22004"><ele>4.5</ele><time>2030-06-16T14:44:40Z</time></trkpt>
   <trkpt lat="51.21000" lon="3.22000"><ele>4.0</ele><time>2030-06-16T14:44:50Z</time></trkpt>
 </trkseg></trk>
</gpx>
