<?xml version="1.0" encoding="UTF-8"?>
<TrainingCenterDatabase xmlns="http://www.garmin.com/xmlschemas/TrainingCenterDatabase/v2">
 <Activities><Activity Sport="Walking"><Lap><Track>
  <Trackpoint><Time>2030-06-16T14:05:00Z</Time><Position><LatitudeDegrees>51.21000</LatitudeDegrees><LongitudeDegrees>3.22000</LongitudeDegrees></Position><AltitudeMeters>4.0</AltitudeMeters><DistanceMeters>0.0</DistanceMeters></Trackpoint>
  <Trackpoint><Time>2030-06-16T14:05:10Z</Time><Position><LatitudeDegrees>51.21010</LatitudeDegrees><LongitudeDegrees>3.22004</LongitudeDegrees></Position><AltitudeMeters>4.5</AltitudeMeters><DistanceMeters>11.2</DistanceMeters></Trackpoint>
  <Trackpoint><Time>2030-06-16T14:05:20Z</Time><Position><LatitudeDegrees>51.21020</LatitudeDegrees><LongitudeDegrees>3.22008</LongitudeDegrees></Position><AltitudeMeters>5.1</AltitudeMeters><DistanceMeters>22.4</DistanceMeters></Trackpoint>
  <Trackpoint><Time>2030-06-16T14:05:30Z</Time><Position><LatitudeDegrees>51.21030</LatitudeDegrees><LongitudeDegrees>3.22013</LongitudeDegrees></Position><AltitudeMeters>5.7</AltitudeMeters><DistanceMeters>33.6</DistanceMeters></Trackpoint>
  <Trackpoint><Time>2030-06-16T14:05:40Z</Time><Position><LatitudeDegrees>51.21040</LatitudeDegrees><LongitudeDegrees>3.22017</LongitudeDegrees></Position><AltitudeMeters>6.2</AltitudeMeters><DistanceMeters>44.8</DistanceMeters></Trackpoint>
  <Trackpoint><Time>2030-06-16T14:05:50Z</Time><Position><LatitudeDegrees>51.21050</LatitudeDegrees><LongitudeDegrees>3.22021</LongitudeDegrees></Position><AltitudeMeters>6.8</AltitudeMeters><DistanceMeters>56.0</DistanceMeters></Trackpoint>
  <Trackpoint><Time>2030-06-16T14:06:00Z</Time><Position><LatitudeDegrees>51.21060</LatitudeDegrees><LongitudeDegrees>3.22025</LongitudeDegrees></Position><AltitudeMeters>7.3</AltitudeMeters><DistanceMeters>67.2</DistanceMeters></Trackpoint>
  <Trackpoint><Time>2030-06-16T14:06:10Z</Time><Position><LatitudeDegrees>51.21070</LatitudeDegrees><LongitudeDegrees>3.22029</LongitudeDegrees></Position><AltitudeMeters>7.9</AltitudeMeters><DistanceMeters>78.4</DistanceMeters></Trackpoint>
  <Trackpoint><Time>2030-06-16T14:06:20Z</Time><Position><LatitudeDegrees>51.21080</LatitudeDegrees><LongitudeDegrees>3.22033</LongitudeDegrees></Position><AltitudeMeters>8.4</AltitudeMeters><DistanceMeters>89.6</DistanceMeters></Trackpoint>
  <Trackpoint><Time>2030-06-16T14:06:30Z</Time><Position><LatitudeDegrees>51.21090</LatitudeDegrees><LongitudeDegrees>3.22037</LongitudeDegrees></Position><AltitudeMeters>8.9</AltitudeMeters><DistanceMeters>100.8</DistanceMeters></Trackpoint>
  <Trackpoint><Time>2030-06-16T14:06:40Z</Time><Position><LatitudeDegrees>51.21100</LatitudeDegrees><LongitudeDegrees>3.22041</LongitudeDegrees></Position><AltitudeMeters>9.5</AltitudeMeters><DistanceMeters>112.0</DistanceMeters></Trackpoint>
  <Trackpoint><Time>2030-06-16T14:06:50Z</Time><Position><LatitudeDegrees>51.21110</LatitudeDegrees><LongitudeDegrees>3.22045</LongitudeDegrees></Position><AltitudeMeters>10.1</AltitudeMeters><DistanceMeters>123.2</DistanceMeters></Trackpoint>
  <Trackpoint><Time>2030-06-16T14:07:00Z</Time><Position><LatitudeDegrees>51.21120</LatitudeDegrees><LongitudeDegrees>3.22049</LongitudeDegrees></Position><AltitudeMeters>10.6</AltitudeMeters><DistanceMeters>134.4</DistanceMeters></Trackpoint>
  <Trackpoint><Time>2030-06-16T14:07:10Z</Time><Position><LatitudeDegrees>51.21130</LatitudeDegrees><LongitudeDegrees>3.22053</LongitudeDegrees></Position><AltitudeMeters>11.2</AltitudeMeters><DistanceMeters>145.6</DistanceMeters></Trackpoint>
  <Trackpoint><Time>2030-06-16T14:07:20Z</Time><Position><LatitudeDegrees>51.21140</LatitudeDegrees><LongitudeDegrees>3.22057</LongitudeDegrees></Position><AltitudeMeters>11.7</AltitudeMeters><DistanceMeters>156.8</DistanceMeters></Trackpoint>
  <Trackpoint><Time>2030-06-16T14:07:30Z</Time><Position><LatitudeDegrees>51.21150</LatitudeDegrees><LongitudeDegrees>3.22061</LongitudeDegrees></Position><AltitudeMeters>12.2</AltitudeMeters><DistanceMeters>168.0</DistanceMeters></Trackpoint>
  <Trackpoint><Time>2030-06-16T14:07:40Z</Time><Position><LatitudeDegrees>51.21160</LatitudeDegrees><LongitudeDegrees>3.22065</LongitudeDegrees></Position><AltitudeMeters>12.8</AltitudeMeters><DistanceMeters>179.2</DistanceMeters></Trackpoint>
  <Trackpoint><Time>2030-06-16T14:07:50Z</Time><Position><LatitudeDegrees>51.21170</LatitudeDegrees><LongitudeDegrees>3.22069</LongitudeDegrees></Position><AltitudeMeters>13.4</AltitudeMeters><DistanceMeters>190.4</DistanceMeters></Trackpoint>
  <Trackpoint><Time>2030-06-16T14:08:00Z</Time><Position><LatitudeDegrees>51.21180</LatitudeDegrees><LongitudeDegrees>3.22073</LongitudeDegrees></Position><AltitudeMeters>13.9</AltitudeMeters><DistanceMeters>201.6</DistanceMeters></Trackpoint>
  <Trackpoint><Time>2030-06-16T14:08:10Z</Time><Position><LatitudeDegrees>51.21190</LatitudeDegrees><LongitudeDegrees>3.22076</LongitudeDegrees></Position><AltitudeMeters>14.5</AltitudeMeters><DistanceMeters>212.8</DistanceMeters></Trackpoint>
  <Trackpoint><Time>2030-06-16T14:08:20Z</Time><Position><LatitudeDegrees>51.21200</LatitudeDegrees><LongitudeDegrees>3.22080</LongitudeDegrees></Position><AltitudeMeters>15.0</AltitudeMeters><DistanceMeters>224.0</DistanceMeters></Trackpoint>
  <Trackpoint><Time>2030-06-16T14:08:30Z</Time><Position><LatitudeDegrees>51.21210</LatitudeDegrees><LongitudeDegrees>3.22084</LongitudeDegrees></Position><AltitudeMeters>15.6</AltitudeMeters><DistanceMeters>235.2</DistanceMeters></Trackpoint>
  <Trackpoint><Time>2030-06-16T14:08:40Z</Time><Position><LatitudeDegrees>51.21220</LatitudeDegrees><LongitudeDegrees>3.22087</LongitudeDegrees></Position><AltitudeMeters>16.1</AltitudeMeters><DistanceMeters>246.4</DistanceMeters></Trackpoint>
  <Trackpoint><Time>2030-06-16T14:08:50Z</Time><Position><LatitudeDegrees>51.21230</LatitudeDegrees><LongitudeDegrees>3.22091</LongitudeDegrees></Position><AltitudeMeters>16.6</AltitudeMeters><DistanceMeters>257.6</DistanceMeters></Trackpoint>
  <Trackpoint><Time>2030-06-16T14:09:00Z</Time><Position><LatitudeDegrees>51.21240</LatitudeDegrees><LongitudeDegrees>3.22094</LongitudeDegrees></Position><AltitudeMeters>17.2</AltitudeMeters><DistanceMeters>268.8</DistanceMeters></Trackpoint>
  <Trackpoint><Time>2030-06-16T14:09:10Z</Time><Position><LatitudeDegrees>51.21250</LatitudeDegrees><LongitudeDegrees>3.22097</LongitudeDegrees></Position><AltitudeMeters>17.8</AltitudeMeters><DistanceMeters>280.0</DistanceMeters></Trackpoint>
  <Trackpoint><Time>2030-06-16T14:09:20Z</Time><Position><LatitudeDegrees>51.21260</LatitudeDegrees><LongitudeDegrees>3.22101</LongitudeDegrees></Position><AltitudeMeters>18.3</AltitudeMeters><DistanceMeters>291.2</DistanceMeters></Trackpoint>
  <Trackpoint><Time>2030-06-16T14:09:30Z</Time><Position><LatitudeDegrees>51.21270</LatitudeDegrees><LongitudeDegrees>3.22104</LongitudeDegrees></Position><AltitudeMeters>18.9</AltitudeMeters><DistanceMeters>302.4</DistanceMeters></Trackpoint>
  <Trackpoint><Time>2030-06-16T14:09:40Z</Time><Position><LatitudeDegrees>51.21280</LatitudeDegrees><LongitudeDegrees>3.22107</LongitudeDegrees></Position><AltitudeMeters>19.4</AltitudeMeters><DistanceMeters>313.6</DistanceMeters></Trackpoint>
  <Trackpoint><Time>2030-06-16T14:09:50Z</Time><Position><LatitudeDegrees>51.21290</LatitudeDegrees><LongitudeDegrees>3.22110</LongitudeDegrees></Position><AltitudeMeters>20.0</AltitudeMeters><DistanceMeters>324.8</DistanceMeters></Trackpoint>
  <Trackpoint><Time>2030-06-16T14:10:00Z</Time><Position><LatitudeDegrees>51.21300</LatitudeDegrees><LongitudeDegrees>3.22113</LongitudeDegrees></Position><AltitudeMeters>20.5</AltitudeMeters><DistanceMeters>336.0</DistanceMeters></Trackpoint>
  <Trackpoint><Time>2030-06-16T14:10:10Z</Time><Position><LatitudeDegrees>51.21310</LatitudeDegrees><LongitudeDegrees>3.22116</LongitudeDegrees></Position><AltitudeMeters>21.1</AltitudeMeters><DistanceMeters>347.2</DistanceMeters></Trackpoint>
  <Trackpoint><Time>2030-06-16T14:10:20Z</Time><Position><LatitudeDegrees>51.21320</LatitudeDegrees><LongitudeDegrees>3.22119</LongitudeDegrees></Position><AltitudeMeters>21.6</AltitudeMeters><DistanceMeters>358.4</DistanceMeters></Trackpoint>
  <Trackpoint><Time>2030-06-16T14:10:30Z</Time><Position><LatitudeDegrees>51.21330</LatitudeDegrees><LongitudeDegrees>3.22122</LongitudeDegrees></Position><AltitudeMeters>22.2</AltitudeMeters><DistanceMeters>369.6</DistanceMeters></Trackpoint>
  <Trackpoint><Time>2030-06-16T14:10:40Z</Time><Position><LatitudeDegrees>51.21340</LatitudeDegrees><LongitudeDegrees>3.22124</LongitudeDegrees></Position><AltitudeMeters>22.7</AltitudeMeters><DistanceMeters>380.8</DistanceMeters></Trackpoint>
  <Trackpoint><Time>2030-06-16T14:10:50Z</Time><Position><LatitudeDegrees>51.21350</LatitudeDegrees><LongitudeDegrees>3.22127</LongitudeDegrees></Position><AltitudeMeters>23.2</AltitudeMeters><DistanceMeters>392.0</DistanceMeters></Trackpoint>
  <Trackpoint><Time>2030-06-16T14:11:00Z</Time><Position><LatitudeDegrees>51.21360</LatitudeDegrees><LongitudeDegrees>3.22129</LongitudeDegrees></Position><AltitudeMeters>23.8</AltitudeMeters><DistanceMeters>403.2</DistanceMeters></Trackpoint>
  <Trackpoint><Time>2030-06-16T14:11:10Z</Time><Position><LatitudeDegrees>51.21370</LatitudeDegrees><LongitudeDegrees>3.22132</LongitudeDegrees></Position><AltitudeMeters>24.4</AltitudeMeters><DistanceMeters>414.4</DistanceMeters></Trackpoint>
  <Trackpoint><Time>2030-06-16T14:11:20Z</Time><Position><LatitudeDegrees>51.21380</LatitudeDegrees><LongitudeDegrees>3.22134</LongitudeDegrees></Position><AltitudeMeters>24.9</AltitudeMeters><DistanceMeters>425.6</DistanceMeters></Trackpoint>
  <Trackpoint><Time>2030-06-16T14:11:30Z</Time><Position><LatitudeDegrees>51.21390</LatitudeDegrees><LongitudeDegrees>3.22136</LongitudeDegrees></Position><AltitudeMeters>25.5</AltitudeMeters><DistanceMeters>436.8</DistanceMeters></Trackpoint>
  <Trackpoint><Time>2030-06-16T14:11:40Z</Time><Position><LatitudeDegrees>51.21400</LatitudeDegrees><LongitudeDegrees>3.22139</LongitudeDegrees></Position><AltitudeMeters>26.0</AltitudeMeters><DistanceMeters>448.0</DistanceMeters></Trackpoint>
  <Trackpoint><Time>2030-06-16T14:11:50Z</Time><Position><LatitudeDegrees>51.21410</LatitudeDegrees><LongitudeDegrees>3.22141</LongitudeDegrees></Position><AltitudeMeters>26.6</AltitudeMeters><DistanceMeters>459.2</DistanceMeters></Trackpoint>
  <Trackpoint><Time>2030-06-16T14:12:00Z</Time><Position><LatitudeDegrees>51.21420</LatitudeDegrees><LongitudeDegrees>3.22143</LongitudeDegrees></Position><AltitudeMeters>27.1</AltitudeMeters><DistanceMeters>470.4</DistanceMeters></Trackpoint>
  <Trackpoint><Time>2030-06-16T14:12:10Z</Time><Position><LatitudeDegrees>51.21430</LatitudeDegrees><LongitudeDegrees>3.22144</LongitudeDegrees></Position><AltitudeMeters>27.7</AltitudeMeters><DistanceMeters>481.6</DistanceMeters></Trackpoint>
  <Trackpoint><Time>2030-06-16T14:12:20Z</Time><Position><LatitudeDegrees>51.21440</LatitudeDegrees><LongitudeDegrees>3.22146</LongitudeDegrees></Position><AltitudeMeters>28.2</AltitudeMeters><DistanceMeters>492.8</DistanceMeters></Trackpoint>
  <Trackpoint><Time>2030-06-16T14:12:30Z</Time><Position><LatitudeDegrees>51.21450</LatitudeDegrees><LongitudeDegrees>3.22148</LongitudeDegrees></Position><AltitudeMeters>28.8</AltitudeMeters><DistanceMeters>504.0</DistanceMeters></Trackpoint>
  <Trackpoint><Time>2030-06-16T14:12:40Z</Time><Position><LatitudeDegrees>51.21460</LatitudeDegrees><LongitudeDegrees>3.22149</LongitudeDegrees></Position><AltitudeMeters>29.3</AltitudeMeters><DistanceMeters>515.2</DistanceMeters></Trackpoint>
  <Trackpoint><Time>2030-06-16T14:12:50Z</Time><Position><LatitudeDegrees>51.21470</LatitudeDegrees><LongitudeDegrees>3.22151</LongitudeDegrees></Position><AltitudeMeters>29.9</AltitudeMeters><DistanceMeters>526.4</DistanceMeters></Trackpoint>
  <Trackpoint><Time>2030-06-16T14:13:00Z</Time><Position><LatitudeDegrees>51.21480</LatitudeDegrees><LongitudeDegrees>3.22152</LongitudeDegrees></Position><AltitudeMeters>30.4</AltitudeMeters><DistanceMeters>537.6</DistanceMeters></Trackpoint>
  <Trackpoint><Time>2030-06-16T14:13:10Z</Time><Position><LatitudeDegrees>51.21490</LatitudeDegrees><LongitudeDegrees>3.22153</LongitudeDegrees></Position><AltitudeMeters>31.0</AltitudeMeters><DistanceMeters>548.8</DistanceMeters></Trackpoint>
  <Trackpoint><Time>2030-06-16T14:13:20Z</Time><Position><LatitudeDegrees>51.21500</LatitudeDegrees><LongitudeDegrees>3.22155</LongitudeDegrees></Position><AltitudeMeters>31.5</AltitudeMeters><DistanceMeters>560.0</DistanceMeters></Trackpoint>
  <Trackpoint><Time>2030-06-16T14:13:30Z</Time><Position><LatitudeDegrees>51.21510</LatitudeDegrees><LongitudeDegrees>3.22156</LongitudeDegrees></Position><AltitudeMeters>32.0</AltitudeMeters><DistanceMeters>571.2</DistanceMeters></Trackpoint>
  <Trackpoint><Time>2030-06-16T14:13:40Z</Time><Position><LatitudeDegrees>51.21520</LatitudeDegrees><LongitudeDegrees>3.22157</LongitudeDegrees></Position><AltitudeMeters>32.6</AltitudeMeters><DistanceMeters>582.4</DistanceMeters></Trackpoint>
  <Trackpoint><Time>2030-06-16T14:13:50Z</Time><Position><LatitudeDegrees>51.21530</LatitudeDegrees><LongitudeDegrees>3.22157</LongitudeDegrees></Position><AltitudeMeters>33.2</AltitudeMeters><DistanceMeters>593.6</DistanceMeters></Trackpoint>
  <Trackpoint><Time>2030-06-16T14:14:00Z</Time><Position><LatitudeDegrees>51.21540</LatitudeDegrees><LongitudeDegrees>3.22158</LongitudeDegrees></Position><AltitudeMeters>33.7</AltitudeMeters><DistanceMeters>604.8</DistanceMeters></Trackpoint>
  <Trackpoint><Time>2030-06-16T14:14:10Z</Time><Position><LatitudeDegrees>51.21550</LatitudeDegrees><LongitudeDegrees>3.22159</LongitudeDegrees></Position><AltitudeMeters>34.2</AltitudeMeters><DistanceMeters>616.0</DistanceMeters></Trackpoint>
  <Trackpoint><Time>2030-06-16T14:14:20Z</Time><Position><LatitudeDegrees>51.21560</LatitudeDegrees><LongitudeDegrees>3.22159</LongitudeDegrees></Position><AltitudeMeters>34.8</AltitudeMeters><DistanceMeters>627.2</DistanceMeters></Trackpoint>
  <Trackpoint><Time>2030-06-16T14:14:30Z</Time><Position><LatitudeDegrees>51.21570</LatitudeDegrees><LongitudeDegrees>3.22160</LongitudeDegrees></Position><AltitudeMeters>35.4</AltitudeMeters><DistanceMeters>638.4</DistanceMeters></Trackpoint>
  <Trackpoint><Time>2030-06-16T14:14:40Z</Time><Position><LatitudeDegrees>51.21580</LatitudeDegrees><LongitudeDegrees>3.22160</LongitudeDegrees></Position><AltitudeMeters>35.9</AltitudeMeters><DistanceMeters>649.6</DistanceMeters></Trackpoint>
  <Trackpoint><Time>2030-06-16T14:14:50Z</Time><Position><LatitudeDegrees>51.21590</LatitudeDegrees><LongitudeDegrees>3.22160</LongitudeDegrees></Position><AltitudeMeters>36.5</AltitudeMeters><DistanceMeters>660.8</DistanceMeters></Trackpoint>
  <Trackpoint><Time>2030-06-16T14:15:00Z</Time><Position><LatitudeDegrees>51.21600</LatitudeDegrees><LongitudeDegrees>3.22160</LongitudeDegrees></Position><AltitudeMeters>37.0</AltitudeMeters><DistanceMeters>672.0</DistanceMeters></Trackpoint>
  <Trackpoint><Time>2030-06-16T14:15:10Z</Time><Position><LatitudeDegrees>51.21610</LatitudeDegrees><LongitudeDegrees>3.22160</LongitudeDegrees></Position><AltitudeMeters>37.6</AltitudeMeters><DistanceMeters>683.2</DistanceMeters></Trackpoint>
  <Trackpoint><Time>2030-06-16T14:15:20Z</Time><Position><LatitudeDegrees>51.21620</LatitudeDegrees><LongitudeDegrees>3.22160</LongitudeDegrees></Position><AltitudeMeters>38.1</AltitudeMeters><DistanceMeters>694.4</DistanceMeters></Trackpoint>
  <Trackpoint><Time>2030-06-16T14:15:30Z</Time><Position><LatitudeDegrees>51.21630</LatitudeDegrees><LongitudeDegrees>3.22160</LongitudeDegrees></Position><AltitudeMeters>38.7</AltitudeMeters><DistanceMeters>705.6</DistanceMeters></Trackpoint>
  <Trackpoint><Time>2030-06-16T14:15:40Z</Time><Position><LatitudeDegrees>51.21640</LatitudeDegrees><LongitudeDegrees>3.22159</LongitudeDegrees></Position><AltitudeMeters>39.2</AltitudeMeters><DistanceMeters>716.8</DistanceMeters></Trackpoint>
  <Trackpoint><Time>2030-06-16T14:15:50Z</Time><Position><LatitudeDegrees>51.21650</LatitudeDegrees><LongitudeDegrees>3.22159</LongitudeDegrees></Position><AltitudeMeters>39.8</AltitudeMeters><DistanceMeters>728.0</DistanceMeters></Trackpoint>
  <Trackpoint><Time>2030-06-16T14:16:00Z</Time><Position><LatitudeDegrees>51.21660</LatitudeDegrees><LongitudeDegrees>3.22158</LongitudeDegrees></Position><AltitudeMeters>40.3</AltitudeMeters><DistanceMeters>739.2</DistanceMeters></Trackpoint>
  <Trackpoint><Time>2030-06-16T14:16:10Z</Time><Position><LatitudeDegrees>51.21670</LatitudeDegrees><LongitudeDegrees>3.22157</LongitudeDegrees></Position><AltitudeMeters>40.9</AltitudeMeters><DistanceMeters>750.4</DistanceMeters></Trackpoint>
  <Trackpoint><Time>2030-06-16T14:16:20Z</Time><Position><LatitudeDegrees>51.21680</LatitudeDegrees><LongitudeDegrees>3.22157</LongitudeDegrees></Position><AltitudeMeters>41.4</AltitudeMeters><DistanceMeters>761.6</DistanceMeters></Trackpoint>
  <Trackpoint><Time>2030-06-16T14:16:30Z</Time><Position><LatitudeDegrees>51.21690</LatitudeDegrees><LongitudeDegrees>3.22156</LongitudeDegrees></Position><AltitudeMeters>42.0</AltitudeMeters><DistanceMeters>772.8</DistanceMeters></Trackpoint>
  <Trackpoint><Time>2030-06-16T14:16:40Z</Time><Position><LatitudeDegrees>51.21700</LatitudeDegrees><LongitudeDegrees>3.22155</LongitudeDegrees></Position><AltitudeMeters>42.5</AltitudeMeters><DistanceMeters>784.0</DistanceMeters></Trackpoint>
  <Trackpoint><Time>2030-06-16T14:16:50Z</Time><Position><LatitudeDegrees>51.21710</LatitudeDegrees><LongitudeDegrees>3.22153</LongitudeDegrees></Position><AltitudeMeters>43.1</AltitudeMeters><DistanceMeters>795.2</DistanceMeters></Trackpoint>
  <Trackpoint><Time>2030-06-16T14:17:00Z</Time><Position><LatitudeDegrees>51.21720</LatitudeDegrees><LongitudeDegrees>3.22152</LongitudeDegrees></Position><AltitudeMeters>43.6</AltitudeMeters><DistanceMeters>806.4</DistanceMeters></Trackpoint>
  <Trackpoint><Time>2030-06-16T14:17:10Z</Time><Position><LatitudeDegrees>51.21730</LatitudeDegrees><LongitudeDegrees>3.22151</LongitudeDegrees></Position><AltitudeMeters>44.2</AltitudeMeters><DistanceMeters>817.6</DistanceMeters></Trackpoint>
  <Trackpoint><Time>2030-06-16T14:17:20Z</Time><Position><LatitudeDegrees>51.21740</LatitudeDegrees><LongitudeDegrees>3.22149</LongitudeDegrees></Position><AltitudeMeters>44.7</AltitudeMeters><DistanceMeters>828.8</DistanceMeters></Trackpoint>
  <Trackpoint><Time>2030-06-16T14:17:30Z</Time><Position><LatitudeDegrees>51.21750</LatitudeDegrees><LongitudeDegrees>3.22148</LongitudeDegrees></Position><AltitudeMeters>45.2</AltitudeMeters><DistanceMeters>840.0</DistanceMeters></Trackpoint>
  <Trackpoint><Time>2030-06-16T14:17:40Z</Time><Position><LatitudeDegrees>51.21760</LatitudeDegrees><LongitudeDegrees>3.22146</LongitudeDegrees></Position><AltitudeMeters>45.8</AltitudeMeters><DistanceMeters>851.2</DistanceMeters></Trackpoint>
  <Trackpoint><Time>2030-06-16T14:17:50Z</Time><Position><LatitudeDegrees>51.21770</LatitudeDegrees><LongitudeDegrees>3.22144</LongitudeDegrees></Position><AltitudeMeters>46.4</AltitudeMeters><DistanceMeters>862.4</DistanceMeters></Trackpoint>
  <Trackpoint><Time>2030-06-16T14:18:00Z</Time><Position><LatitudeDegrees>51.21780</LatitudeDegrees><LongitudeDegrees>3.22143</LongitudeDegrees></Position><AltitudeMeters>46.9</AltitudeMeters><DistanceMeters>873.6</DistanceMeters></Trackpoint>
  <Trackpoint><Time>2030-06-16T14:18:10Z</Time><Position><LatitudeDegrees>51.21790</LatitudeDegrees><LongitudeDegrees>3.22141</LongitudeDegrees></Position><AltitudeMeters>47.5</AltitudeMeters><DistanceMeters>884.8</DistanceMeters></Trackpoint>
  <Trackpoint><Time>2030-06-16T14:18:20Z</Time><Position><LatitudeDegrees>51.21800</LatitudeDegrees><LongitudeDegrees>3.22139</LongitudeDegrees></Position><AltitudeMeters>48.0</AltitudeMeters><DistanceMeters>896.0</DistanceMeters></Trackpoint>
  <Trackpoint><Time>2030-06-16T14:18:30Z</Time><Position><LatitudeDegrees>51.21810</LatitudeDegrees><LongitudeDegrees>3.22136</LongitudeDegrees></Position><AltitudeMeters>48.6</AltitudeMeters><DistanceMeters>907.2</DistanceMeters></Trackpoint>
  <Trackpoint><Time>2030-06-16T14:18:40Z</Time><Position><LatitudeDegrees>51.21820</LatitudeDegrees><LongitudeDegrees>3.22134</LongitudeDegrees></Position><AltitudeMeters>49.1</AltitudeMeters><DistanceMeters>918.4</DistanceMeters></Trackpoint>
  <Trackpoint><Time>2030-06-16T14:18:50Z</Time><Position><LatitudeDegrees>51.21830</LatitudeDegrees><LongitudeDegrees>3.22132</LongitudeDegrees></Position><AltitudeMeters>49.7</AltitudeMeters><DistanceMeters>929.6</DistanceMeters></Trackpoint>
  <Trackpoint><Time>2030-06-16T14:19:00Z</Time><Position><LatitudeDegrees>51.21840</LatitudeDegrees><LongitudeDegrees>3.22129</LongitudeDegrees></Position><AltitudeMeters>50.2</AltitudeMeters><DistanceMeters>940.8</DistanceMeters></Trackpoint>
  <Trackpoint><Time>2030-06-16T14:19:10Z</Time><Position><LatitudeDegrees>51.21850</LatitudeDegrees><LongitudeDegrees>3.22127</LongitudeDegrees></Position><AltitudeMeters>50.8</AltitudeMeters><DistanceMeters>952.0</DistanceMeters></Trackpoint>
  <Trackpoint><Time>2030-06-16T14:19:20Z</Time><Position><LatitudeDegrees>51.21860</LatitudeDegrees><LongitudeDegrees>3.22124</LongitudeDegrees></Position><AltitudeMeters>51.3</AltitudeMeters><DistanceMeters>963.2</DistanceMeters></Trackpoint>
  <Trackpoint><Time>2030-06-16T14:19:30Z</Time><Position><LatitudeDegrees>51.21870</LatitudeDegrees><LongitudeDegrees>3.22122</LongitudeDegrees></Position><AltitudeMeters>51.9</AltitudeMeters><DistanceMeters>974.4</DistanceMeters></Trackpoint>
  <Trackpoint><Time>2030-06-16T14:19:40Z</Time><Position><LatitudeDegrees>51.21880</LatitudeDegrees><LongitudeDegrees>3.22119</LongitudeDegrees></Position><AltitudeMeters>52.4</AltitudeMeters><DistanceMeters>985.6</DistanceMeters></Trackpoint>
  <Trackpoint><Time>2030-06-16T14:19:50Z</Time><Position><LatitudeDegrees>51.21890</LatitudeDegrees><LongitudeDegrees>3.22116</LongitudeDegrees></Position><AltitudeMeters>53.0</AltitudeMeters><DistanceMeters>996.8</DistanceMeters></Trackpoint>
  <Trackpoint><Time>2030-06-16T14:20:00Z</Time><Position><LatitudeDegrees>51.21900</LatitudeDegrees><LongitudeDegrees>3.22113</LongitudeDegrees></Position><AltitudeMeters>53.5</AltitudeMeters><DistanceMeters>1008.0</DistanceMeters></Trackpoint>
  <Trackpoint><Time>2030-06-16T14:20:10Z</Time><Position><LatitudeDegrees>51.21910</LatitudeDegrees><LongitudeDegrees>3.22110</LongitudeDegrees></Position><AltitudeMeters>54.1</AltitudeMeters><DistanceMeters>1019.2</DistanceMeters></Trackpoint>
  <Trackpoint><Time>2030-06-16T14:20:20Z</Time><Position><LatitudeDegrees>51.21920</LatitudeDegrees><LongitudeDegrees>3.22107</LongitudeDegrees></Position><AltitudeMeters>54.6</AltitudeMeters><DistanceMeters>1030.4</DistanceMeters></Trackpoint>
  <Trackpoint><Time>2030-06-16T14:20:30Z</Time><Position><LatitudeDegrees>51.21930</LatitudeDegrees><LongitudeDegrees>3.22104</LongitudeDegrees></Position><AltitudeMeters>55.2</AltitudeMeters><DistanceMeters>1041.6</DistanceMeters></Trackpoint>
  <Trackpoint><Time>2030-06-16T14:20:40Z</Time><Position><LatitudeDegrees>51.21940</LatitudeDegrees><LongitudeDegrees>3.22101</LongitudeDegrees></Position><AltitudeMeters>55.7</AltitudeMeters><DistanceMeters>1052.8</DistanceMeters></Trackpoint>
  <Trackpoint><Time>2030-06-16T14:20:50Z</Time><Position><LatitudeDegrees>51.21950</LatitudeDegrees><LongitudeDegrees>3.22097</LongitudeDegrees></Position><AltitudeMeters>56.3</AltitudeMeters><DistanceMeters>1064.0</DistanceMeters></Trackpoint>
  <Trackpoint><Time>2030-06-16T14:21:00Z</Time><Position><LatitudeDegrees>51.21960</LatitudeDegrees><LongitudeDegrees>3.22094</LongitudeDegrees></Position><AltitudeMeters>56.8</AltitudeMeters><DistanceMeters>1075.2</DistanceMeters></Trackpoint>
  <Trackpoint><Time>2030-06-16T14:21:10Z</Time><Position><LatitudeDegrees>51.21970</LatitudeDegrees><LongitudeDegrees>3.22091</LongitudeDegrees></Position><AltitudeMeters>57.4</AltitudeMeters><DistanceMeters>1086.4</DistanceMeters></Trackpoint>
  <Trackpoint><Time>2030-06-16T14:21:20Z</Time><Position><LatitudeDegrees>51.21980</LatitudeDegrees><LongitudeDegrees>3.22087</LongitudeDegrees></Position><AltitudeMeters>57.9</AltitudeMeters><DistanceMeters>1097.6</DistanceMeters></Trackpoint>
  <Trackpoint><Time>2030-06-16T14:21:30Z</Time><Position><LatitudeDegrees>51.21990</LatitudeDegrees><LongitudeDegrees>3.22084</LongitudeDegrees></Position><AltitudeMeters>58.5</AltitudeMeters><DistanceMeters>1108.8</DistanceMeters></Trackpoint>
  <Trackpoint><Time>2030-06-16T14:21:40Z</Time><Position><LatitudeDegrees>51.22000</LatitudeDegrees><LongitudeDegrees>3.22080</LongitudeDegrees></Position><AltitudeMeters>59.0</AltitudeMeters><DistanceMeters>1120.0</DistanceMeters></Trackpoint>
  <Trackpoint><Time>2030-06-16T14:21:50Z</Time><Position><LatitudeDegrees>51.22010</LatitudeDegrees><LongitudeDegrees>3.22076</LongitudeDegrees></Position><AltitudeMeters>59.6</AltitudeMeters><DistanceMeters>1131.2</DistanceMeters></Trackpoint>
  <Trackpoint><Time>2030-06-16T14:22:00Z</Time><Position><LatitudeDegrees>51.22020</LatitudeDegrees><LongitudeDegrees>3.22073</LongitudeDegrees></Position><AltitudeMeters>60.1</AltitudeMeters><DistanceMeters>1142.4</DistanceMeters></Trackpoint>
  <Trackpoint><Time>2030-06-16T14:22:10Z</Time><Position><LatitudeDegrees>51.22030</LatitudeDegrees><LongitudeDegrees>3.22069</LongitudeDegrees></Position><AltitudeMeters>60.7</AltitudeMeters><DistanceMeters>1153.6</DistanceMeters></Trackpoint>
  <Trackpoint><Time>2030-06-16T14:22:20Z</Time><Position><LatitudeDegrees>51.22040</LatitudeDegrees><LongitudeDegrees>3.22065</LongitudeDegrees></Position><AltitudeMeters>61.2</AltitudeMeters><DistanceMeters>1164.8</DistanceMeters></Trackpoint>
  <Trackpoint><Time>2030-06-16T14:22:30Z</Time><Position><LatitudeDegrees>51.22050</LatitudeDegrees><LongitudeDegrees>3.22061</LongitudeDegrees></Position><AltitudeMeters>61.8</AltitudeMeters><DistanceMeters>1176.0</DistanceMeters></Trackpoint>
  <Trackpoint><Time>2030-06-16T14:22:40Z</Time><Position><LatitudeDegrees>51.22060</LatitudeDegrees><LongitudeDegrees>3.22057</LongitudeDegrees></Position><AltitudeMeters>62.3</AltitudeMeters><DistanceMeters>1187.2</DistanceMeters></Trackpoint>
  <Trackpoint><Time>2030-06-16T14:22:50Z</Time><Position><LatitudeDegrees>51.22070</LatitudeDegrees><LongitudeDegrees>3.22053</LongitudeDegrees></Position><AltitudeMeters>62.9</AltitudeMeters><DistanceMeters>1198.4</DistanceMeters></Trackpoint>
  <Trackpoint><Time>2030-06-16T14:23:00Z</Time><Position><LatitudeDegrees>51.22080</LatitudeDegrees><LongitudeDegrees>3.22049</LongitudeDegrees></Position><AltitudeMeters>63.4</AltitudeMeters><DistanceMeters>1209.6</DistanceMeters></Trackpoint>
  <Trackpoint><Time>2030-06-16T14:23:10Z</Time><Position><LatitudeDegrees>51.22090</LatitudeDegrees><LongitudeDegrees>3.22045</LongitudeDegrees></Position><AltitudeMeters>64.0</AltitudeMeters><DistanceMeters>1220.8</DistanceMeters></Trackpoint>
  <Trackpoint><Time>2030-06-16T14:23:20Z</Time><Position><LatitudeDegrees>51.22100</LatitudeDegrees><LongitudeDegrees>3.22041</LongitudeDegrees></Position><AltitudeMeters>64.5</AltitudeMeters><DistanceMeters>1232.0</DistanceMeters></Trackpoint>
  <Trackpoint><Time>2030-06-16T14:23:30Z</Time><Position><LatitudeDegrees>51.22110</LatitudeDegrees><LongitudeDegrees>3.22037</LongitudeDegrees></Position><AltitudeMeters>65.1</AltitudeMeters><DistanceMeters>1243.2</DistanceMeters></Trackpoint>
  <Trackpoint><Time>2030-06-16T14:23:40Z</Time><Position><LatitudeDegrees>51.22120</LatitudeDegrees><LongitudeDegrees>3.22033</LongitudeDegrees></Position><AltitudeMeters>65.6</AltitudeMeters><DistanceMeters>1254.4</DistanceMeters></Trackpoint>
  <Trackpoint><Time>2030-06-16T14:23:50Z</Time><Position><LatitudeDegrees>51.22130</LatitudeDegrees><LongitudeDegrees>3.22029</LongitudeDegrees></Position><AltitudeMeters>66.2</AltitudeMeters><DistanceMeters>1265.6</DistanceMeters></Trackpoint>
  <Trackpoint><Time>2030-06-16T14:24:00Z</Time><Position><LatitudeDegrees>51.22140</LatitudeDegrees><LongitudeDegrees>3.22025</LongitudeDegrees></Position><AltitudeMeters>66.7</AltitudeMeters><DistanceMeters>1276.8</DistanceMeters></Trackpoint>
  <Trackpoint><Time>2030-06-16T14:24:10Z</Time><Position><LatitudeDegrees>51.22150</LatitudeDegrees><LongitudeDegrees>3.22021</LongitudeDegrees></Position><AltitudeMeters>67.2</AltitudeMeters><DistanceMeters>1288.0</DistanceMeters></Trackpoint>
  <Trackpoint><Time>2030-06-16T14:24:20Z</Time><Position><LatitudeDegrees>51.22160</LatitudeDegrees><LongitudeDegrees>3.22017</LongitudeDegrees></Position><AltitudeMeters>67.8</AltitudeMeters><DistanceMeters>1299.2</DistanceMeters></Trackpoint>
  <Trackpoint><Time>2030-06-16T14:24:30Z</Time><Position><LatitudeDegrees>51.22170</LatitudeDegrees><LongitudeDegrees>3.22013</LongitudeDegrees></Position><AltitudeMeters>68.4</AltitudeMeters><DistanceMeters>1310.4</DistanceMeters></Trackpoint>
  <Trackpoint><Time>2030-06-16T14:24:40Z</Time><Position><LatitudeDegrees>51.22180</LatitudeDegrees><LongitudeDegrees>3.22008</LongitudeDegrees></Position><AltitudeMeters>68.9</AltitudeMeters><DistanceMeters>1321.6</DistanceMeters></Trackpoint>
  <Trackpoint><Time>2030-06-16T14:24:50Z</Time><Position><LatitudeDegrees>51.22190</LatitudeDegrees><LongitudeDegrees>3.22004</LongitudeDegrees></Position><AltitudeMeters>69.5</AltitudeMeters><DistanceMeters>1332.8</DistanceMeters></Trackpoint>
  <Trackpoint><Time>2030-06-16T14:25:00Z</Time><Position><LatitudeDegrees>51.22190</LatitudeDegrees><LongitudeDegrees>3.22004</LongitudeDegrees></Position><AltitudeMeters>69.5</AltitudeMeters><DistanceMeters>1344.0</DistanceMeters></Trackpoint>
  <Trackpoint><Time>2030-06-16T14:25:10Z</Time><Position><LatitudeDegrees>51.22180</LatitudeDegrees><LongitudeDegrees>3.22008</LongitudeDegrees></Position><AltitudeMeters>68.9</AltitudeMeters><DistanceMeters>1355.2</DistanceMeters></Trackpoint>
  <Trackpoint><Time>2030-06-16T14:25:20Z</Time><Position><LatitudeDegrees>51.22170</LatitudeDegrees><LongitudeDegrees>3.22013</LongitudeDegrees></Position><AltitudeMeters>68.4</AltitudeMeters><DistanceMeters>1366.4</DistanceMeters></Trackpoint>
  <Trackpoint><Time>2030-06-16T14:25:30Z</Time><Position><LatitudeDegrees>51.22160</LatitudeDegrees><LongitudeDegrees>3.22017</LongitudeDegrees></Position><AltitudeMeters>67.8</AltitudeMeters><DistanceMeters>1377.6</DistanceMeters></Trackpoint>
  <Trackpoint><Time>2030-06-16T14:25:40Z</Time><Position><LatitudeDegrees>51.22150</LatitudeDegrees><LongitudeDegrees>3.22021</LongitudeDegrees></Position><AltitudeMeters>67.2</AltitudeMeters><DistanceMeters>1388.8</DistanceMeters></Trackpoint>
  <Trackpoint><Time>2030-06-16T14:25:50Z</Time><Position><LatitudeDegrees>51.22140</LatitudeDegrees><LongitudeDegrees>3.22025</LongitudeDegrees></Position><AltitudeMeters>66.7</AltitudeMeters><DistanceMeters>1400.0</DistanceMeters></Trackpoint>
  <Trackpoint><Time>2030-06-16T14:26:00Z</Time><Position><LatitudeDegrees>51.22130</LatitudeDegrees><LongitudeDegrees>3.22029</LongitudeDegrees></Position><AltitudeMeters>66.2</AltitudeMeters><DistanceMeters>1411.2</DistanceMeters></Trackpoint>
  <Trackpoint><Time>2030-06-16T14:26:10Z</Time><Position><LatitudeDegrees>51.22120</LatitudeDegrees><LongitudeDegrees>3.22033</LongitudeDegrees></Position><AltitudeMeters>65.6</AltitudeMeters><DistanceMeters>1422.4</DistanceMeters></Trackpoint>
  <Trackpoint><Time>2030-06-16T14:26:20Z</Time><Position><LatitudeDegrees>51.22110</LatitudeDegrees><LongitudeDegrees>3.22037</LongitudeDegrees></Position><AltitudeMeters>65.1</AltitudeMeters><DistanceMeters>1433.6</DistanceMeters></Trackpoint>
  <Trackpoint><Time>2030-06-16T14:26:30Z</Time><Position><LatitudeDegrees>51.22100</LatitudeDegrees><LongitudeDegrees>3.22041</LongitudeDegrees></Position><AltitudeMeters>64.5</AltitudeMeters><DistanceMeters>1444.8</DistanceMeters></Trackpoint>
  <Trackpoint><Time>2030-06-16T14:26:40Z</Time><Position><LatitudeDegrees>51.22090</LatitudeDegrees><LongitudeDegrees>3.22045</LongitudeDegrees></Position><AltitudeMeters>64.0</AltitudeMeters><DistanceMeters>1456.0</DistanceMeters></Trackpoint>
  <Trackpoint><Time>2030-06-16T14:26:50Z</Time><Position><LatitudeDegrees>51.22080</LatitudeDegrees><LongitudeDegrees>3.22049</LongitudeDegrees></Position><AltitudeMeters>63.4</AltitudeMeters><DistanceMeters>1467.2</DistanceMeters></Trackpoint>
  <Trackpoint><Time>2030-06-16T14:27:00Z</Time><Position><LatitudeDegrees>51.22070</LatitudeDegrees><LongitudeDegrees>3.22053</LongitudeDegrees></Position><AltitudeMeters>62.9</AltitudeMeters><DistanceMeters>1478.4</DistanceMeters></Trackpoint>
  <Trackpoint><Time>2030-06-16T14:27:10Z</Time><Position><LatitudeDegrees>51.22060</LatitudeDegrees><LongitudeDegrees>3.22057</LongitudeDegrees></Position><AltitudeMeters>62.3</AltitudeMeters><DistanceMeters>1489.6</DistanceMeters></Trackpoint>
  <Trackpoint><Time>2030-06-16T14:27:20Z</Time><Position><LatitudeDegrees>51.22050</LatitudeDegrees><LongitudeDegrees>3.22061</LongitudeDegrees></Position><AltitudeMeters>61.8</AltitudeMeters><DistanceMeters>1500.8</DistanceMeters></Trackpoint>
  <Trackpoint><Time>2030-06-16T14:27:30Z</Time><Position><LatitudeDegrees>51.22040</LatitudeDegrees><LongitudeDegrees>3.22065</LongitudeDegrees></Position><AltitudeMeters>61.2</AltitudeMeters><DistanceMeters>1512.0</DistanceMeters></Trackpoint>
  <Trackpoint><Time>2030-06-16T14:27:40Z</Time><Position><LatitudeDegrees>51.22030</LatitudeDegrees><LongitudeDegrees>3.22069</LongitudeDegrees></Position><AltitudeMeters>60.7</AltitudeMeters><DistanceMeters>1523.2</DistanceMeters></Trackpoint>
  <Trackpoint><Time>2030-06-16T14:27:50Z</Time><Position><LatitudeDegrees>51.22020</LatitudeDegrees><LongitudeDegrees>3.22073</LongitudeDegrees></Position><AltitudeMeters>60.1</AltitudeMeters><DistanceMeters>1534.4</DistanceMeters></Trackpoint>
  <Trackpoint><Time>2030-06-16T14:28:00Z</Time><Position><LatitudeDegrees>51.22010</LatitudeDegrees><LongitudeDegrees>3.22076</LongitudeDegrees></Position><AltitudeMeters>59.6</AltitudeMeters><DistanceMeters>1545.6</DistanceMeters></Trackpoint>
  <Trackpoint><Time>2030-06-16T14:28:10Z</Time><Position><LatitudeDegrees>51.22000</LatitudeDegrees><LongitudeDegrees>3.22080</LongitudeDegrees></Position><AltitudeMeters>59.0</AltitudeMeters><DistanceMeters>1556.8</DistanceMeters></Trackpoint>
  <Trackpoint><Time>2030-06-16T14:28:20Z</Time><Position><LatitudeDegrees>51.21990</LatitudeDegrees><LongitudeDegrees>3.22084</LongitudeDegrees></Position><AltitudeMeters>58.5</AltitudeMeters><DistanceMeters>1568.0</DistanceMeters></Trackpoint>
  <Trackpoint><Time>2030-06-16T14:28:30Z</Time><Position><LatitudeDegrees>51.21980</LatitudeDegrees><LongitudeDegrees>3.22087</LongitudeDegrees></Position><AltitudeMeters>57.9</AltitudeMeters><DistanceMeters>1579.2</DistanceMeters></Trackpoint>
  <Trackpoint><Time>2030-06-16T14:28:40Z</Time><Position><LatitudeDegrees>51.21970</LatitudeDegrees><LongitudeDegrees>3.22091</LongitudeDegrees></Position><AltitudeMeters>57.4</AltitudeMeters><DistanceMeters>1590.4</DistanceMeters></Trackpoint>
  <Trackpoint><Time>2030-06-16T14:28:50Z</Time><Position><LatitudeDegrees>51.21960</LatitudeDegrees><LongitudeDegrees>3.22094</LongitudeDegrees></Position><AltitudeMeters>56.8</AltitudeMeters><DistanceMeters>1601.6</DistanceMeters></Trackpoint>
  <Trackpoint><Time>2030-06-16T14:29:00Z</Time><Position><LatitudeDegrees>51.21950</LatitudeDegrees><LongitudeDegrees>3.22097</LongitudeDegrees></Position><AltitudeMeters>56.3</AltitudeMeters><DistanceMeters>1612.8</DistanceMeters></Trackpoint>
  <Trackpoint><Time>2030-06-16T14:29:10Z</Time><Position><LatitudeDegrees>51.21940</LatitudeDegrees><LongitudeDegrees>3.22101</LongitudeDegrees></Position><AltitudeMeters>55.7</AltitudeMeters><DistanceMeters>1624.0</DistanceMeters></Trackpoint>
  <Trackpoint><Time>2030-06-16T14:29:20Z</Time><Position><LatitudeDegrees>51.21930</LatitudeDegrees><LongitudeDegrees>3.22104</LongitudeDegrees></Position><AltitudeMeters>55.2</AltitudeMeters><DistanceMeters>1635.2</DistanceMeters></Trackpoint>
  <Trackpoint><Time>2030-06-16T14:29:30Z</Time><Position><LatitudeDegrees>51.21920</LatitudeDegrees><LongitudeDegrees>3.22107</LongitudeDegrees></Position><AltitudeMeters>54.6</AltitudeMeters><DistanceMeters>1646.4</DistanceMeters></Trackpoint>
  <Trackpoint><Time>2030-06-16T14:29:40Z</Time><Position><LatitudeDegrees>51.21910</LatitudeDegrees><LongitudeDegrees>3.22110</LongitudeDegrees></Position><AltitudeMeters>54.1</AltitudeMeters><DistanceMeters>1657.6</DistanceMeters></Trackpoint>
  <Trackpoint><Time>2030-06-16T14:29:50Z</Time><Position><LatitudeDegrees>51.21900</LatitudeDegrees><LongitudeDegrees>3.22113</LongitudeDegrees></Position><AltitudeMeters>53.5</AltitudeMeters><DistanceMeters>1668.8</DistanceMeters></Trackpoint>
  <Trackpoint><Time>2030-06-16T14:30:00Z</Time><Position><LatitudeDegrees>51.21890</LatitudeDegrees><LongitudeDegrees>3.22116</LongitudeDegrees></Position><AltitudeMeters>53.0</AltitudeMeters><DistanceMeters>1680.0</DistanceMeters></Trackpoint>
  <Trackpoint><Time>2030-06-16T14:30:10Z</Time><Position><LatitudeDegrees>51.21880</LatitudeDegrees><LongitudeDegrees>3.22119</LongitudeDegrees></Position><AltitudeMeters>52.4</AltitudeMeters><DistanceMeters>1691.2</DistanceMeters></Trackpoint>
  <Trackpoint><Time>2030-06-16T14:30:20Z</Time><Position><LatitudeDegrees>51.21870</LatitudeDegrees><LongitudeDegrees>3.22122</LongitudeDegrees></Position><AltitudeMeters>51.9</AltitudeMeters><DistanceMeters>1702.4</DistanceMeters></Trackpoint>
  <Trackpoint><Time>2030-06-16T14:30:30Z</Time><Position><LatitudeDegrees>51.21860</LatitudeDegrees><LongitudeDegrees>3.22124</LongitudeDegrees></Position><AltitudeMeters>51.3</AltitudeMeters><DistanceMeters>1713.6</DistanceMeters></Trackpoint>
  <Trackpoint><Time>2030-06-16T14:30:40Z</Time><Position><LatitudeDegrees>51.21850</LatitudeDegrees><LongitudeDegrees>3.22127</LongitudeDegrees></Position><AltitudeMeters>50.8</AltitudeMeters><DistanceMeters>1724.8</DistanceMeters></Trackpoint>
  <Trackpoint><Time>2030-06-16T14:30:50Z</Time><Position><LatitudeDegrees>51.21840</LatitudeDegrees><LongitudeDegrees>3.22129</LongitudeDegrees></Position><AltitudeMeters>50.2</AltitudeMeters><DistanceMeters>1736.0</DistanceMeters></Trackpoint>
  <Trackpoint><Time>2030-06-16T14:31:00Z</Time><Position><LatitudeDegrees>51.21830</LatitudeDegrees><LongitudeDegrees>3.22132</LongitudeDegrees></Position><AltitudeMeters>49.7</AltitudeMeters><DistanceMeters>1747.2</DistanceMeters></Trackpoint>
  <Trackpoint><Time>2030-06-16T14:31:10Z</Time><Position><LatitudeDegrees>51.21820</LatitudeDegrees><LongitudeDegrees>3.22134</LongitudeDegrees></Position><AltitudeMeters>49.1</AltitudeMeters><DistanceMeters>1758.4</DistanceMeters></Trackpoint>
  <Trackpoint><Time>2030-06-16T14:31:20Z</Time><Position><LatitudeDegrees>51.21810</LatitudeDegrees><LongitudeDegrees>3.22136</LongitudeDegrees></Position><AltitudeMeters>48.6</AltitudeMeters><DistanceMeters>1769.6</DistanceMeters></Trackpoint>
  <Trackpoint><Time>2030-06-16T14:31:30Z</Time><Position><LatitudeDegrees>51.21800</LatitudeDegrees><LongitudeDegrees>3.22139</LongitudeDegrees></Position><AltitudeMeters>48.0</AltitudeMeters><DistanceMeters>1780.8</DistanceMeters></Trackpoint>
  <Trackpoint><Time>2030-06-16T14:31:40Z</Time><Position><LatitudeDegrees>51.21790</LatitudeDegrees><LongitudeDegrees>3.22141</LongitudeDegrees></Position><AltitudeMeters>47.5</AltitudeMeters><DistanceMeters>1792.0</DistanceMeters></Trackpoint>
  <Trackpoint><Time>2030-06-16T14:31:50Z</Time><Position><LatitudeDegrees>51.21780</LatitudeDegrees><LongitudeDegrees>3.22143</LongitudeDegrees></Position><AltitudeMeters>46.9</AltitudeMeters><DistanceMeters>1803.2</DistanceMeters></Trackpoint>
  <Trackpoint><Time>2030-06-16T14:32:00Z</Time><Position><LatitudeDegrees>51.21770</LatitudeDegrees><LongitudeDegrees>3.22144</LongitudeDegrees></Position><AltitudeMeters>46.4</AltitudeMeters><DistanceMeters>1814.4</DistanceMeters></Trackpoint>
  <Trackpoint><Time>2030-06-16T14:32:10Z</Time><Position><LatitudeDegrees>51.21760</LatitudeDegrees><LongitudeDegrees>3.22146</LongitudeDegrees></Position><AltitudeMeters>45.8</AltitudeMeters><DistanceMeters>1825.6</DistanceMeters></Trackpoint>
  <Trackpoint><Time>2030-06-16T14:32:20Z</Time><Position><LatitudeDegrees>51.21750</LatitudeDegrees><LongitudeDegrees>3.22148</LongitudeDegrees></Position><AltitudeMeters>45.2</AltitudeMeters><DistanceMeters>1836.8</DistanceMeters></Trackpoint>
  <Trackpoint><Time>2030-06-16T14:32:30Z</Time><Position><LatitudeDegrees>51.21740</LatitudeDegrees><LongitudeDegrees>3.22149</LongitudeDegrees></Position><AltitudeMeters>44.7</AltitudeMeters><DistanceMeters>1848.0</DistanceMeters></Trackpoint>
  <Trackpoint><Time>2030-06-16T14:32:40Z</Time><Position><LatitudeDegrees>51.21730</LatitudeDegrees><LongitudeDegrees>3.22151</LongitudeDegrees></Position><AltitudeMeters>44.2</AltitudeMeters><DistanceMeters>1859.2</DistanceMeters></Trackpoint>
  <Trackpoint><Time>2030-06-16T14:32:50Z</Time><Position><LatitudeDegrees>51.21720</LatitudeDegrees><LongitudeDegrees>3.22152</LongitudeDegrees></Position><AltitudeMeters>43.6</AltitudeMeters><DistanceMeters>1870.4</DistanceMeters></Trackpoint>
  <Trackpoint><Time>2030-06-16T14:33:00Z</Time><Position><LatitudeDegrees>51.21710</LatitudeDegrees><LongitudeDegrees>3.22153</LongitudeDegrees></Position><AltitudeMeters>43.1</AltitudeMeters><DistanceMeters>1881.6</DistanceMeters></Trackpoint>
  <Trackpoint><Time>2030-06-16T14:33:10Z</Time><Position><LatitudeDegrees>51.21700</LatitudeDegrees><LongitudeDegrees>3.22155</LongitudeDegrees></Position><AltitudeMeters>42.5</AltitudeMeters><DistanceMeters>1892.8</DistanceMeters></Trackpoint>
  <Trackpoint><Time>2030-06-16T14:33:20Z</Time><Position><LatitudeDegrees>51.21690</LatitudeDegrees><LongitudeDegrees>3.22156</LongitudeDegrees></Position><AltitudeMeters>42.0</AltitudeMeters><DistanceMeters>1904.0</DistanceMeters></Trackpoint>
  <Trackpoint><Time>2030-06-16T14:33:30Z</Time><Position><LatitudeDegrees>51.21680</LatitudeDegrees><LongitudeDegrees>3.22157</LongitudeDegrees></Position><AltitudeMeters>41.4</AltitudeMeters><DistanceMeters>1915.2</DistanceMeters></Trackpoint>
  <Trackpoint><Time>2030-06-16T14:33:40Z</Time><Position><LatitudeDegrees>51.21670</LatitudeDegrees><LongitudeDegrees>3.22157</LongitudeDegrees></Position><AltitudeMeters>40.9</AltitudeMeters><DistanceMeters>1926.4</DistanceMeters></Trackpoint>
  <Trackpoint><Time>2030-06-16T14:33:50Z</Time><Position><LatitudeDegrees>51.21660</LatitudeDegrees><LongitudeDegrees>3.22158</LongitudeDegrees></Position><AltitudeMeters>40.3</AltitudeMeters><DistanceMeters>1937.6</DistanceMeters></Trackpoint>
  <Trackpoint><Time>2030-06-16T14:34:00Z</Time><Position><LatitudeDegrees>51.21650</LatitudeDegrees><LongitudeDegrees>3.22159</LongitudeDegrees></Position><AltitudeMeters>39.8</AltitudeMeters><DistanceMeters>1948.8</DistanceMeters></Trackpoint>
  <Trackpoint><Time>2030-06-16T14:34:10Z</Time><Position><LatitudeDegrees>51.21640</LatitudeDegrees><LongitudeDegrees>3.22159</LongitudeDegrees></Position><AltitudeMeters>39.2</AltitudeMeters><DistanceMeters>1960.0</DistanceMeters></Trackpoint>
  <Trackpoint><Time>2030-06-16T14:34:20Z</Time><Position><LatitudeDegrees>51.21630</LatitudeDegrees><LongitudeDegrees>3.22160</LongitudeDegrees></Position><AltitudeMeters>38.7</AltitudeMeters><DistanceMeters>1971.2</DistanceMeters></Trackpoint>
  <Trackpoint><Time>2030-06-16T14:34:30Z</Time><Position><LatitudeDegrees>51.21620</LatitudeDegrees><LongitudeDegrees>3.22160</LongitudeDegrees></Position><AltitudeMeters>38.1</AltitudeMeters><DistanceMeters>1982.4</DistanceMeters></Trackpoint>
  <Trackpoint><Time>2030-06-16T14:34:40Z</Time><Position><LatitudeDegrees>51.21610</LatitudeDegrees><LongitudeDegrees>3.22160</LongitudeDegrees></Position><AltitudeMeters>37.6</AltitudeMeters><DistanceMeters>1993.6</DistanceMeters></Trackpoint>
  <Trackpoint><Time>2030-06-16T14:34:50Z</Time><Position><LatitudeDegrees>51.21600</LatitudeDegrees><LongitudeDegrees>3.22160</LongitudeDegrees></Position><AltitudeMeters>37.0</AltitudeMeters><DistanceMeters>2004.8</DistanceMeters></Trackpoint>
  <Trackpoint><Time>2030-06-16T14:35:00Z</Time><Position><LatitudeDegrees>51.21590</LatitudeDegrees><LongitudeDegrees>3.22160</LongitudeDegrees></Position><AltitudeMeters>36.5</AltitudeMeters><DistanceMeters>2016.0</DistanceMeters></Trackpoint>
  <Trackpoint><Time>2030-06-16T14:35:10Z</Time><Position><LatitudeDegrees>51.21580</LatitudeDegrees><LongitudeDegrees>3.22160</LongitudeDegrees></Position><AltitudeMeters>35.9</AltitudeMeters><DistanceMeters>2027.2</DistanceMeters></Trackpoint>
  <Trackpoint><Time>2030-06-16T14:35:20Z</Time><Position><LatitudeDegrees>51.21570</LatitudeDegrees><LongitudeDegrees>3.22160</LongitudeDegrees></Position><AltitudeMeters>35.4</AltitudeMeters><DistanceMeters>2038.4</DistanceMeters></Trackpoint>
  <Trackpoint><Time>2030-06-16T14:35:30Z</Time><Position><LatitudeDegrees>51.21560</LatitudeDegrees><LongitudeDegrees>3.22159</LongitudeDegrees></Position><AltitudeMeters>34.8</AltitudeMeters><DistanceMeters>2049.6</DistanceMeters></Trackpoint>
  <Trackpoint><Time>2030-06-16T14:35:40Z</Time><Position><LatitudeDegrees>51.21550</LatitudeDegrees><LongitudeDegrees>3.22159</LongitudeDegrees></Position><AltitudeMeters>34.2</AltitudeMeters><DistanceMeters>2060.8</DistanceMeters></Trackpoint>
  <Trackpoint><Time>2030-06-16T14:35:50Z</Time><Position><LatitudeDegrees>51.21540</LatitudeDegrees><LongitudeDegrees>3.22158</LongitudeDegrees></Position><AltitudeMeters>33.7</AltitudeMeters><DistanceMeters>2072.0</DistanceMeters></Trackpoint>
  <Trackpoint><Time>2030-06-16T14:36:00Z</Time><Position><LatitudeDegrees>51.21530</LatitudeDegrees><LongitudeDegrees>3.22157</LongitudeDegrees></Position><AltitudeMeters>33.2</AltitudeMeters><DistanceMeters>2083.2</DistanceMeters></Trackpoint>
  <Trackpoint><Time>2030-06-16T14:36:10Z</Time><Position><LatitudeDegrees>51.21520</LatitudeDegrees><LongitudeDegrees>3.22157</LongitudeDegrees></Position><AltitudeMeters>32.6</AltitudeMeters><DistanceMeters>2094.4</DistanceMeters></Trackpoint>
  <Trackpoint><Time>2030-06-16T14:36:20Z</Time><Position><LatitudeDegrees>51.21510</LatitudeDegrees><LongitudeDegrees>3.22156</LongitudeDegrees></Position><AltitudeMeters>32.0</AltitudeMeters><DistanceMeters>2105.6</DistanceMeters></Trackpoint>
  <Trackpoint><Time>2030-06-16T14:36:30Z</Time><Position><LatitudeDegrees>51.21500</LatitudeDegrees><LongitudeDegrees>3.22155</LongitudeDegrees></Position><AltitudeMeters>31.5</AltitudeMeters><DistanceMeters>2116.8</DistanceMeters></Trackpoint>
  <Trackpoint><Time>2030-06-16T14:36:40Z</Time><Position><LatitudeDegrees>51.21490</LatitudeDegrees><LongitudeDegrees>3.22153</LongitudeDegrees></Position><AltitudeMeters>31.0</AltitudeMeters><DistanceMeters>2128.0</DistanceMeters></Trackpoint>
  <Trackpoint><Time>2030-06-16T14:36:50Z</Time><Position><LatitudeDegrees>51.21480</LatitudeDegrees><LongitudeDegrees>3.22152</LongitudeDegrees></Position><AltitudeMeters>30.4</AltitudeMeters><DistanceMeters>2139.2</DistanceMeters></Trackpoint>
  <Trackpoint><Time>2030-06-16T14:37:00Z</Time><Position><LatitudeDegrees>51.21470</LatitudeDegrees><LongitudeDegrees>3.22151</LongitudeDegrees></Position><AltitudeMeters>29.9</AltitudeMeters><DistanceMeters>2150.4</DistanceMeters></Trackpoint>
  <Trackpoint><Time>2030-06-16T14:37:10Z</Time><Position><LatitudeDegrees>51.21460</LatitudeDegrees><LongitudeDegrees>3.22149</LongitudeDegrees></Position><AltitudeMeters>29.3</AltitudeMeters><DistanceMeters>2161.6</DistanceMeters></Trackpoint>
  <Trackpoint><Time>2030-06-16T14:37:20Z</Time><Position><LatitudeDegrees>51.21450</LatitudeDegrees><LongitudeDegrees>3.22148</LongitudeDegrees></Position><AltitudeMeters>28.8</AltitudeMeters><DistanceMeters>2172.8</DistanceMeters></Trackpoint>
  <Trackpoint><Time>2030-06-16T14:37:30Z</Time><Position><LatitudeDegrees>51.21440</LatitudeDegrees><LongitudeDegrees>3.22146</LongitudeDegrees></Position><AltitudeMeters>28.2</AltitudeMeters><DistanceMeters>2184.0</DistanceMeters></Trackpoint>
  <Trackpoint><Time>2030-06-16T14:37:40Z</Time><Position><LatitudeDegrees>51.21430</LatitudeDegrees><LongitudeDegrees>3.22144</LongitudeDegrees></Position><AltitudeMeters>27.7</AltitudeMeters><DistanceMeters>2195.2</DistanceMeters></Trackpoint>
  <Trackpoint><Time>2030-06-16T14:37:50Z</Time><Position><LatitudeDegrees>51.21420</LatitudeDegrees><LongitudeDegrees>3.22143</LongitudeDegrees></Position><AltitudeMeters>27.1</AltitudeMeters><DistanceMeters>2206.4</DistanceMeters></Trackpoint>
  <Trackpoint><Time>2030-06-16T14:38:00Z</Time><Position><LatitudeDegrees>51.21410</LatitudeDegrees><LongitudeDegrees>3.22141</LongitudeDegrees></Position><AltitudeMeters>26.6</AltitudeMeters><DistanceMeters>2217.6</DistanceMeters></Trackpoint>
  <Trackpoint><Time>2030-06-16T14:38:10Z</Time><Position><LatitudeDegrees>51.21400</LatitudeDegrees><LongitudeDegrees>3.22139</LongitudeDegrees></Position><AltitudeMeters>26.0</AltitudeMeters><DistanceMeters>2228.8</DistanceMeters></Trackpoint>
  <Trackpoint><Time>2030-06-16T14:38:20Z</Time><Position><LatitudeDegrees>51.21390</LatitudeDegrees><LongitudeDegrees>3.22136</LongitudeDegrees></Position><AltitudeMeters>25.5</AltitudeMeters><DistanceMeters>2240.0</DistanceMeters></Trackpoint>
  <Trackpoint><Time>2030-06-16T14:38:30Z</Time><Position><LatitudeDegrees>51.21380</LatitudeDegrees><LongitudeDegrees>3.22134</LongitudeDegrees></Position><AltitudeMeters>24.9</AltitudeMeters><DistanceMeters>2251.2</DistanceMeters></Trackpoint>
  <Trackpoint><Time>2030-06-16T14:38:40Z</Time><Position><LatitudeDegrees>51.21370</LatitudeDegrees><LongitudeDegrees>3.22132</LongitudeDegrees></Position><AltitudeMeters>24.4</AltitudeMeters><DistanceMeters>2262.4</DistanceMeters></Trackpoint>
  <Trackpoint><Time>2030-06-16T14:38:50Z</Time><Position><LatitudeDegrees>51.21360</LatitudeDegrees><LongitudeDegrees>3.22129</LongitudeDegrees></Position><AltitudeMeters>23.8</AltitudeMeters><DistanceMeters>2273.6</DistanceMeters></Trackpoint>
  <Trackpoint><Time>2030-06-16T14:39:00Z</Time><Position><LatitudeDegrees>51.21350</LatitudeDegrees><LongitudeDegrees>3.22127</LongitudeDegrees></Position><AltitudeMeters>23.2</AltitudeMeters><DistanceMeters>2284.8</DistanceMeters></Trackpoint>
  <Trackpoint><Time>2030-06-16T14:39:10Z</Time><Position><LatitudeDegrees>51.21340</LatitudeDegrees><LongitudeDegrees>3.22124</LongitudeDegrees></Position><AltitudeMeters>22.7</AltitudeMeters><DistanceMeters>2296.0</DistanceMeters></Trackpoint>
  <Trackpoint><Time>2030-06-16T14:39:20Z</Time><Position><LatitudeDegrees>51.21330</LatitudeDegrees><LongitudeDegrees>3.22122</LongitudeDegrees></Position><AltitudeMeters>22.2</AltitudeMeters><DistanceMeters>2307.2</DistanceMeters></Trackpoint>
  <Trackpoint><Time>2030-06-16T14:39:30Z</Time><Position><LatitudeDegrees>51.21320</LatitudeDegrees><LongitudeDegrees>3.22119</LongitudeDegrees></Position><AltitudeMeters>21.6</AltitudeMeters><DistanceMeters>2318.4</DistanceMeters></Trackpoint>
  <Trackpoint><Time>2030-06-16T14:39:40Z</Time><Position><LatitudeDegrees>51.21310</LatitudeDegrees><LongitudeDegrees>3.22116</LongitudeDegrees></Position><AltitudeMeters>21.1</AltitudeMeters><DistanceMeters>2329.6</DistanceMeters></Trackpoint>
  <Trackpoint><Time>2030-06-16T14:39:50Z</Time><Position><LatitudeDegrees>51.21300</LatitudeDegrees><LongitudeDegrees>3.22113</LongitudeDegrees></Position><AltitudeMeters>20.5</AltitudeMeters><DistanceMeters>2340.8</DistanceMeters></Trackpoint>
  <Trackpoint><Time>2030-06-16T14:40:00Z</Time><Position><LatitudeDegrees>51.21290</LatitudeDegrees><LongitudeDegrees>3.22110</LongitudeDegrees></Position><AltitudeMeters>20.0</AltitudeMeters><DistanceMeters>2352.0</DistanceMeters></Trackpoint>
  <Trackpoint><Time>2030-06-16T14:40:10Z</Time><Position><LatitudeDegrees>51.21280</LatitudeDegrees><LongitudeDegrees>3.22107</LongitudeDegrees></Position><AltitudeMeters>19.4</AltitudeMeters><DistanceMeters>2363.2</DistanceMeters></Trackpoint>
  <Trackpoint><Time>2030-06-16T14:40:20Z</Time><Position><LatitudeDegrees>51.21270</LatitudeDegrees><LongitudeDegrees>3.22104</LongitudeDegrees></Position><AltitudeMeters>18.9</AltitudeMeters><DistanceMeters>2374.4</DistanceMeters></Trackpoint>
  <Trackpoint><Time>2030-06-16T14:40:30Z</Time><Position><LatitudeDegrees>51.21260</LatitudeDegrees><LongitudeDegrees>3.22101</LongitudeDegrees></Position><AltitudeMeters>18.3</AltitudeMeters><DistanceMeters>2385.6</DistanceMeters></Trackpoint>
  <Trackpoint><Time>2030-06-16T14:40:40Z</Time><Position><LatitudeDegrees>51.21250</LatitudeDegrees><LongitudeDegrees>3.22097</LongitudeDegrees></Position><AltitudeMeters>17.8</AltitudeMeters><DistanceMeters>2396.8</DistanceMeters></Trackpoint>
  <Trackpoint><Time>2030-06-16T14:40:50Z</Time><Position><LatitudeDegrees>51.21240</LatitudeDegrees><LongitudeDegrees>3.22094</LongitudeDegrees></Position><AltitudeMeters>17.2</AltitudeMeters><DistanceMeters>2408.0</DistanceMeters></Trackpoint>
  <Trackpoint><Time>2030-06-16T14:41:00Z</Time><Position><LatitudeDegrees>51.21230</LatitudeDegrees><LongitudeDegrees>3.22091</LongitudeDegrees></Position><AltitudeMeters>16.6</AltitudeMeters><DistanceMeters>2419.2</DistanceMeters></Trackpoint>
  <Trackpoint><Time>2030-06-16T14:41:10Z</Time><Position><LatitudeDegrees>51.21220</LatitudeDegrees><LongitudeDegrees>3.22087</LongitudeDegrees></Position><AltitudeMeters>16.1</AltitudeMeters><DistanceMeters>2430.4</DistanceMeters></Trackpoint>
  <Trackpoint><Time>2030-06-16T14:41:20Z</Time><Position><LatitudeDegrees>51.21210</LatitudeDegrees><LongitudeDegrees>3.22084</LongitudeDegrees></Position><AltitudeMeters>15.6</AltitudeMeters><DistanceMeters>2441.6</DistanceMeters></Trackpoint>
  <Trackpoint><Time>2030-06-16T14:41:30Z</Time><Position><LatitudeDegrees>51.21200</LatitudeDegrees><LongitudeDegrees>3.22080</LongitudeDegrees></Position><AltitudeMeters>15.0</AltitudeMeters><DistanceMeters>2452.8</DistanceMeters></Trackpoint>
  <Trackpoint><Time>2030-06-16T14:41:40Z</Time><Position><LatitudeDegrees>51.21190</LatitudeDegrees><LongitudeDegrees>3.22076</LongitudeDegrees></Position><AltitudeMeters>14.5</AltitudeMeters><DistanceMeters>2464.0</DistanceMeters></Trackpoint>
  <Trackpoint><Time>2030-06-16T14:41:50Z</Time><Position><LatitudeDegrees>51.21180</LatitudeDegrees><LongitudeDegrees>3.22073</LongitudeDegrees></Position><AltitudeMeters>13.9</AltitudeMeters><DistanceMeters>2475.2</DistanceMeters></Trackpoint>
  <Trackpoint><Time>2030-06-16T14:42:00Z</Time><Position><LatitudeDegrees>51.21170</LatitudeDegrees><LongitudeDegrees>3.22069</LongitudeDegrees></Position><AltitudeMeters>13.4</AltitudeMeters><DistanceMeters>2486.4</DistanceMeters></Trackpoint>
  <Trackpoint><Time>2030-06-16T14:42:10Z</Time><Position><LatitudeDegrees>51.21160</LatitudeDegrees><LongitudeDegrees>3.22065</LongitudeDegrees></Position><AltitudeMeters>12.8</AltitudeMeters><DistanceMeters>2497.6</DistanceMeters></Trackpoint>
  <Trackpoint><Time>2030-06-16T14:42:20Z</Time><Position><LatitudeDegrees>51.21150</LatitudeDegrees><LongitudeDegrees>3.22061</LongitudeDegrees></Position><AltitudeMeters>12.2</AltitudeMeters><DistanceMeters>2508.8</DistanceMeters></Trackpoint>
  <Trackpoint><Time>2030-06-16T14:42:30Z</Time><Position><LatitudeDegrees>51.21140</LatitudeDegrees><LongitudeDegrees>3.22057</LongitudeDegrees></Position><AltitudeMeters>11.7</AltitudeMeters><DistanceMeters>2520.0</DistanceMeters></Trackpoint>
  <Trackpoint><Time>2030-06-16T14:42:40Z</Time><Position><LatitudeDegrees>51.21130</LatitudeDegrees><LongitudeDegrees>3.22053</LongitudeDegrees></Position><AltitudeMeters>11.2</AltitudeMeters><DistanceMeters>2531.2</DistanceMeters></Trackpoint>
  <Trackpoint><Time>2030-06-16T14:42:50Z</Time><Position><LatitudeDegrees>51.21120</LatitudeDegrees><LongitudeDegrees>3.22049</LongitudeDegrees></Position><AltitudeMeters>10.6</AltitudeMeters><DistanceMeters>2542.4</DistanceMeters></Trackpoint>
  <Trackpoint><Time>2030-06-16T14:43:00Z</Time><Position><LatitudeDegrees>51.21110</LatitudeDegrees><LongitudeDegrees>3.22045</LongitudeDegrees></Position><AltitudeMeters>10.1</AltitudeMeters><DistanceMeters>2553.6</DistanceMeters></Trackpoint>
  <Trackpoint><Time>2030-06-16T14:43:10Z</Time><Position><LatitudeDegrees>51.21100</LatitudeDegrees><LongitudeDegrees>3.22041</LongitudeDegrees></Position><AltitudeMeters>9.5</AltitudeMeters><DistanceMeters>2564.8</DistanceMeters></Trackpoint>
  <Trackpoint><Time>2030-06-16T14:43:20Z</Time><Position><LatitudeDegrees>51.21090</LatitudeDegrees><LongitudeDegrees>3.22037</LongitudeDegrees></Position><AltitudeMeters>8.9</AltitudeMeters><DistanceMeters>2576.0</DistanceMeters></Trackpoint>
  <Trackpoint><Time>2030-06-16T14:43:30Z</Time><Position><LatitudeDegrees>51.21080</LatitudeDegrees><LongitudeDegrees>3.22033</LongitudeDegrees></Position><AltitudeMeters>8.4</AltitudeMeters><DistanceMeters>2587.2</DistanceMeters></Trackpoint>
  <Trackpoint><Time>2030-06-16T14:43:40Z</Time><Position><LatitudeDegrees>51.21070</LatitudeDegrees><LongitudeDegrees>3.22029</LongitudeDegrees></Position><AltitudeMeters>7.9</AltitudeMeters><DistanceMeters>2598.4</DistanceMeters></Trackpoint>
  <Trackpoint><Time>2030-06-16T14:43:50Z</Time><Position><LatitudeDegrees>51.21060</LatitudeDegrees><LongitudeDegrees>3.22025</LongitudeDegrees></Position><AltitudeMeters>7.3</AltitudeMeters><DistanceMeters>2609.6</DistanceMeters></Trackpoint>
  <Trackpoint><Time>2030-06-16T14:44:00Z</Time><Position><LatitudeDegrees>51.21050</LatitudeDegrees><LongitudeDegrees>3.22021</LongitudeDegrees></Position><AltitudeMeters>6.8</AltitudeMeters><DistanceMeters>2620.8</DistanceMeters></Trackpoint>
  <Trackpoint><Time>2030-06-16T14:44:10Z</Time><Position><LatitudeDegrees>51.21040</LatitudeDegrees><LongitudeDegrees>3.22017</LongitudeDegrees></Position><AltitudeMeters>6.2</AltitudeMeters><DistanceMeters>2632.0</DistanceMeters></Trackpoint>
  <Trackpoint><Time>2030-06-16T14:44:20Z</Time><Position><LatitudeDegrees>51.21030</LatitudeDegrees><LongitudeDegrees>3.22013</LongitudeDegrees></Position><AltitudeMeters>5.7</AltitudeMeters><DistanceMeters>2643.2</DistanceMeters></Trackpoint>
  <Trackpoint><Time>2030-06-16T14:44:30Z</Time><Position><LatitudeDegrees>51.21020</LatitudeDegrees><LongitudeDegrees>3.22008</LongitudeDegrees></Position><AltitudeMeters>5.1</AltitudeMeters><DistanceMeters>2654.4</DistanceMeters></Trackpoint>
  <Trackpoint><Time>2030-06-16T14:44:40Z</Time><Position><LatitudeDegrees>51.21010</LatitudeDegrees><LongitudeDegrees>3.22004</LongitudeDegrees></Position><AltitudeMeters>4.5</AltitudeMeters><DistanceMeters>2665.6</DistanceMeters></Trackpoint>
  <Trackpoint><Time>2030-06-16T14:44:50Z</Time><Position><LatitudeDegrees>51.21000</LatitudeDegrees><LongitudeDegrees>3.22000</LongitudeDegrees></Position><AltitudeMeters>4.0</AltitudeMeters><DistanceMeters>2676.8</DistanceMeters></Trackpoint>
 </Track></Lap></Activity></Activities>
</TrainingCenterDatabase>
