<?xml version="1.0" encoding="UTF-8"?>
<gpx version="1.1" creator="vitai-demo" xmlns="http://www.topografix.com/GPX/1/1">
 <trk><name>river-ten</name><trkseg>
   <trkpt lat="51.19800" lon="3.20500"><ele>4.0</ele><time>2030-06-23T09:05:00Z</time></trkpt>
   <trkpt lat="51.19822" lon="3.20502"><ele>4.4</ele><time>2030-06-23T09:05:10Z</time></trkpt>
   <trkpt lat="51.19845" lon="3.20505"><ele>4.9</ele><time>2030-06-23T09:05:20Z</time></trkpt>
   <trkpt lat="51.19867" lon="3.20507"><ele>5.3</ele><time>2030-06-23T09:05:30Z</time></trkpt>
   <trkpt lat="51.19889" lon="3.20509"><ele>5.8</ele><time>2030-06-23T09:05:40Z</time></trkpt>
   <trkpt lat="51.19912" lon="3.20511"><ele>6.2</ele><time>2030-06-23T09:05:50Z</time></trkpt>
   <trkpt lat="51.19934" lon="3.20514"><ele>6.7</ele><time>2030-06-23T09:06:00Z</time></trkpt>
   <trkpt lat="51.19956" lon="3.20516"><ele>7.1</ele><time>2030-06-23T09:06:10Z</time></trkpt>
   <trkpt lat="51.19979" lon="3.20518"><ele>7.6</ele><time>2030-06-23T09:06:20Z</time></trkpt>
   <trkpt lat="51.20001" lon="3.20521"><ele>8.0</ele><time>2030-06-23T09:06:30Z</time></trkpt>
   <trkpt lat="51.20024" lon="3.20523"><ele>8.5</ele><time>2030-06-23T09:06:40Z</time></trkpt>
   <trkpt lat="51.20046" lon="3.20525"><ele>8.9</ele><time>2030-06-23T09:06:50Z</time></trkpt>
   <trkpt lat="51.20068" lon="3.20528"><ele>9.4</ele><time>2030-06-23T09:07:00Z</time></trkpt>
   <trkpt lat="51.20091" lon="3.20530"><ele>9.8</ele><time>2030-06-23T09:07:10Z</time></trkpt>
   <trkpt lat="51.20113" lon="3.20532"><ele>10.3</ele><time>2030-06-23T09:07:20Z</time></trkpt>
   <trkpt lat="51.20135" lon="3.20534"><ele>10.7</ele><time>2030-06-23T09:07:30Z</time></trkpt>
   <trkpt lat="51.20158" lon="3.20537"><ele>11.2</ele><time>2030-06-23T09:07:40Z</time></trkpt>
   <trkpt lat="51.20180" lon="3.20539"><ele>11.6</ele><time>2030-06-23T09:07:50Z</time></trkpt>
   <trkpt lat="51.20202" lon="3.20541"><ele>12.0</ele><time>2030-06-23T09:08:00Z</time></trkpt>
   <trkpt lat="51.20225" lon="3.20543"><ele>12.5</ele><time>2030-06-23T09:08:10Z</time></trkpt>
   <trkpt lat="51.20247" lon="3.20546"><ele>12.9</ele><time>2030-06-23T09:08:20Z</time></trkpt>
   <trkpt lat="51.20269" lon="3.20548"><ele>13.4</ele><time>2030-06-23T09:08:30Z</time></trkpt>
   <trkpt lat="51.20292" lon="3.20550"><ele>13.8</ele><time>2030-06-23T09:08:40Z</time></trkpt>
   <trkpt lat="51.20314" lon="3.20553"><ele>14.3</ele><time>2030-06-23T09:08:50Z</time></trkpt>
   <trkpt lat="51.20336" lon="3.20555"><ele>14.7</ele><time>2030-06-23T09:09:00Z</time></trkpt>
   <trkpt lat="51.20359" lon="3.20557"><ele>15.2</ele><time>2030-06-23T09:09:10Z</time></trkpt>
   <trkpt lat="51.20381" lon="3.20559"><ele>15.6</ele><time>2030-06-23T09:09:20Z</time></trkpt>
   <trkpt lat="51.20403" lon="3.20562"><ele>16.1</ele><time>2030-06-23T09:09:30Z</time></trkpt>
   <trkpt lat="51.20426" lon="3.20564"><ele>16.5</ele><time>2030-06-23T09:09:40Z</time></trkpt>
   <trkpt lat="51.20448" lon="3.20566"><ele>17.0</ele><time>2030-06-23T09:09:50Z</time></trkpt>
   <trkpt lat="51.20471" lon="3.20568"><ele>17.4</ele><time>2030-06-23T09:10:00Z</time></trkpt>
   <trkpt lat="51.20493" lon="3.20571"><ele>17.9</ele><time>2030-06-23T09:10:10Z</time></trkpt>
   <trkpt lat="51.20515" lon="3.20573"><ele>18.3</ele><time>2030-06-23T09:10:20Z</time></trkpt>
   <trkpt lat="51.20538" lon="3.20575"><ele>18.8</ele><time>2030-06-23T09:10:30Z</time></trkpt>
   <trkpt lat="51.20560" lon="3.20577"><ele>19.2</ele><time>2030-06-23T09:10:40Z</time></trkpt>
   <trkpt lat="51.20582" lon="3.20579"><ele>19.6</ele><time>2030-06-23T09:10:50Z</time></trkpt>
   <trkpt lat="51.20605" lon="3.20582"><ele>20.1</ele><time>2030-06-23T09:11:00Z</time></trkpt>
   <trkpt lat="51.20627" lon="3.20584"><ele>20.5</ele><time>2030-06-23T09:11:10Z</time></trkpt>
   <trkpt lat="51.20649" lon="3.20586"><ele>21.0</ele><time>2030-06-23T09:11:20Z</time></trkpt>
   <trkpt lat="51.20672" lon="3.20588"><ele>21.4</ele><time>2030-06-23T09:11:30Z</time></trkpt>
   <trkpt lat="51.20694" lon="3.20591"><ele>21.9</ele><time>2030-06-23T09:11:40Z</time></trkpt>
   <trkpt lat="51.20716" lon="3.20593"><ele>22.3</ele><time>2030-06-23T09:11:50Z</time></trkpt>
   <trkpt lat="51.20739" lon="3.20595"><ele>22.8</ele><time>2030-06-23T09:12:00Z</time></trkpt>
   <trkpt lat="51.20761" lon="3.20597"><ele>23.2</ele><time>2030-06-23T09:12:10Z</time></trkpt>
   <trkpt lat="51.20783" lon="3.20599"><ele>23.7</ele><time>2030-06-23T09:12:20Z</time></trkpt>
   <trkpt lat="51.20806" lon="3.20601"><ele>24.1</ele><time>2030-06-23T09:12:30Z</time></trkpt>
   <trkpt lat="51.20828" lon="3.20604"><ele>24.6</ele><time>2030-06-23T09:12:40Z</time></trkpt>
   <trkpt lat="51.20851" lon="3.20606"><ele>25.0</ele><time>2030-06-23T09:12:50Z</time></trkpt>
   <trkpt lat="51.20873" lon="3.20608"><ele>25.5</ele><time>2030-06-23T09:13:00Z</time></trkpt>
   <trkpt lat="51.20895" lon="3.20610"><ele>25.9</ele><time>2030-06-23T09:13:10Z</time></trkpt>
   <trkpt lat="51.20918" lon="3.20612"><ele>26.4</ele><time>2030-06-23T09:13:20Z</time></trkpt>
   <trkpt lat="51.20940" lon="3.20614"><ele>26.8</ele><time>2030-06-23T09:13:30Z</time></trkpt>
   <trkpt lat="51.20962" lon="3.20617"><ele>27.2</ele><time>2030-06-23T09:13:40Z</time></trkpt>
   <trkpt lat="51.20985" lon="3.20619"><ele>27.7</ele><time>2030-06-23T09:13:50Z</time></trkpt>
   <trkpt lat="51.21007" lon="3.20621"><ele>28.1</ele><time>2030-06-23T09:14:00Z</time></trkpt>
   <trkpt lat="51.21029" lon="3.20623"><ele>28.6</ele><time>2030-06-23T09:14:10Z</time></trkpt>
   <trkpt lat="51.21052" lon="3.20625"><ele>29.0</ele><time>2030-06-23T09:14:20Z</time></trkpt>
   <trkpt lat="51.21074" lon="3.20627"><ele>29.5</ele><time>2030-06-23T09:14:30Z</time></trkpt>
   <trkpt lat="51.21096" lon="3.20629"><ele>29.9</ele><time>2030-06-23T09:14:40Z</time></trkpt>
   <trkpt lat="51.21119" lon="3.20631"><ele>30.4</ele><time>2030-06-23T09:14:50Z</time></trkpt>
   <trkpt lat="51.21141" lon="3.20633"><ele>30.8</ele><time>2030-06-23T09:15:00Z</time></trkpt>
   <trkpt lat="51.21163" lon="3.20635"><ele>31.3</ele><time>2030-06-23T09:15:10Z</time></trkpt>
   <trkpt lat="51.21186" lon="3.20637"><ele>31.7</ele><time>2030-06-23T09:15:20Z</time></trkpt>
   <trkpt lat="51.21208" lon="3.20640"><ele>32.2</ele><time>2030-06-23T09:15:30Z</time></trkpt>
   <trkpt lat="51.21231" lon="3.20642"><ele>32.6</ele><time>2030-06-23T09:15:40Z</time></trkpt>
   <trkpt lat="51.21253" lon="3.20644"><ele>33.1</ele><time>2030-06-23T09:15:50Z</time></trkpt>
   <trkpt lat="51.21275" lon="3.20646"><ele>33.5</ele><time>2030-06-23T09:16:00Z</time></trkpt>
   <trkpt lat="51.21298" lon="3.20648"><ele>34.0</ele><time>2030-06-23T09:16:10Z</time></trkpt>
   <trkpt lat="51.21320" lon="3.20650"><ele>34.4</ele><time>2030-06-23T09:16:20Z</time></trkpt>
   <trkpt lat="51.21342" lon="3.20652"><ele>34.8</ele><time>2030-06-23T09:16:30Z</time></trkpt>
   <trkpt lat="51.21365" lon="3.20654"><ele>35.3</ele><time>2030-06-23T09:16:40Z</time></trkpt>
   <trkpt lat="51.21387" lon="3.20656"><ele>35.7</ele><time>2030-06-23T09:16:50Z</time></trkpt>
   <trkpt lat="51.21409" lon="3.20658"><ele>36.2</ele><time>2030-06-23T09:17:00Z</time></trkpt>
   <trkpt lat="51.21432" lon="3.20660"><ele>36.6</ele><time>2030-06-23T09:17:10Z</time></trkpt>
   <trkpt lat="51.21454" lon="3.20662"><ele>37.1</ele><time>2030-06-23T09:17:20Z</time></trkpt>
   <trkpt lat="51.21476" lon="3.20664"><ele>37.5</ele><time>2030-06-23T09:17:30Z</time></trkpt>
   <trkpt lat="51.21499" lon="3.20665"><ele>38.0</ele><time>2030-06-23T09:17:40Z</time></trkpt>
   <trkpt lat="51.21521" lon="3.20667"><ele>38.4</ele><time>2030-06-23T09:17:50Z</time></trkpt>
   <trkpt lat="51.21543" lon="3.20669"><ele>38.9</ele><time>2030-06-23T09:18:00Z</time></trkpt>
   <trkpt lat="51.21566" lon="3.20671"><ele>39.3</ele><time>2030-06-23T09:18:10Z</time></trkpt>
   <trkpt lat="51.21588" lon="3.20673"><ele>39.8</ele><time>2030-06-23T09:18:20Z</time></trkpt>
   <trkpt lat="51.21610" lon="3.20675"><ele>40.2</ele><time>2030-06-23T09:18:30Z</time></trkpt>
   <trkpt lat="51.21633" lon="3.20677"><ele>40.7</ele><time>2030-06-23T09:18:40Z</time></trkpt>
   <trkpt lat="51.21655" lon="3.20679"><ele>41.1</ele><time>2030-06-23T09:18:50Z</time></trkpt>
   <trkpt lat="51.21678" lon="3.20681"><ele>41.6</ele><time>2030-06-23T09:19:00Z</time></trkpt>
   <trkpt lat="51.21700" lon="3.20683"><ele>42.0</ele><time>2030-06-23T09:19:10Z</time></trkpt>
   <trkpt lat="51.21722" lon="3.20684"><ele>42.4</ele><time>2030-06-23T09:19:20Z</time></trkpt>
   <trkpt lat="51.21745" lon="3.20686"><ele>42.9</ele><time>2030-06-23T09:19:30Z</time></trkpt>
   <trkpt lat="51.21767" lon="3.20688"><ele>43.3</ele><time>2030-06-23T09:19:40Z</time></trkpt>
   <trkpt lat="51.21789" lon="3.20690"><ele>43.8</ele><time>2030-06-23T09:19:50Z</time></trkpt>
   <trkpt lat="51.21812" lon="3.20692"><ele>44.2</ele><time>2030-06-23T09:20:00Z</time></trkpt>
   <trkpt lat="51.21834" lon="3.20694"><ele>44.7</ele><time>2030-06-23T09:20:10Z</time></trkpt>
   <trkpt lat="51.21856" lon="3.20695"><ele>45.1</ele><time>2030-06-23T09:20:20Z</time></trkpt>
   <trkpt lat="51.21879" lon="3.20697"><ele>45.6</ele><time>2030-06-23T09:20:30Z</time></trkpt>
   <trkpt lat="51.21901" lon="3.20699"><ele>46.0</ele><time>2030-06-23T09:20:40Z</time></trkpt>
   <trkpt lat="51.21923" lon="3.20701"><ele>46.5</ele><time>2030-06-23T09:20:50Z</time></trkpt>
   <trkpt lat="51.21946" lon="3.20702"><ele>46.9</ele><time>2030-06-23T09:21:00Z</time></trkpt>
   <trkpt lat="51.21968" lon="3.20704"><ele>47.4</ele><time>2030-06-23T09:21:10Z</time></trkpt>
   <trkpt lat="51.21990" lon="3.20706"><ele>47.8</ele><time>2030-06-23T09:21:20Z</time></trkpt>
   <trkpt lat="51.22013" lon="3.20708"><ele>48.3</ele><time>2030-06-23T09:21:30Z</time></trkpt>
   <trkpt lat="51.22035" lon="3.20709"><ele>48.7</ele><time>2030-06-23T09:21:40Z</time></trkpt>
   <trkpt lat="51.22058" lon="3.20711"><ele>49.2</ele><time>2030-06-23T09:21:50Z</time></trkpt>
   <trkpt lat="51.22080" lon="3.20713"><ele>49.6</ele><time>2030-06-23T09:22:00Z</time></trkpt>
   <trkpt lat="51.22102" lon="3.20714"><ele>50.0</ele><time>2030-06-23T09:22:10Z</time></trkpt>
   <trkpt lat="51.22125" lon="3.20716"><ele>50.5</ele><time>2030-06-23T09:22:20Z</time></trkpt>
   <trkpt lat="51.22147" lon="3.20718"><ele>50.9</ele><time>2030-06-23T09:22:30Z</time></trkpt>
   <trkpt lat="51.22169" lon="3.20719"><ele>51.4</ele><time>2030-06-23T09:22:40Z</time></trkpt>
   <trkpt lat="51.22192" lon="3.20721"><ele>51.8</ele><time>2030-06-23T09:22:50Z</time></trkpt>
   <trkpt lat="51.22214" lon="3.20722"><ele>52.3</ele><time>2030-06-23T09:23:00Z</time></trkpt>
   <trkpt lat="51.22236" lon="3.20724"><ele>52.7</ele><time>2030-06-23T09:23:10Z</time></trkpt>
   <trkpt lat="51.22259" lon="3.20726"><ele>53.2</ele><time>2030-06-23T09:23:20Z</time></trkpt>
   <trkpt lat="51.22281" lon="3.20727"><ele>53.6</ele><time>2030-06-23T09:23:30Z</time></trkpt>
   <trkpt lat="51.22303" lon="3.20729"><ele>54.1</ele><time>2030-06-23T09:23:40Z</time></trkpt>
   <trkpt lat="51.22326" lon="3.20730"><ele>54.5</ele><time>2030-06-23T09:23:50Z</time></trkpt>
   <trkpt lat="51.22348" lon="3.20732"><ele>55.0</ele><time>2030-06-23T09:24:00Z</time></trkpt>
   <trkpt lat="51.22370" lon="3.20733"><ele>55.4</ele><time>2030-06-23T09:24:10Z</time></trkpt>
   <trkpt lat="51.22393" lon="3.20735"><ele>55.9</ele><time>2030-06-23T09:24:20Z</time></trkpt>
   <trkpt lat="51.22415" lon="3.20736"><ele>56.3</ele><time>2030-06-23T09:24:30Z</time></trkpt>
   <trkpt lat="51.22438" lon="3.20738"><ele>56.8</ele><time>2030-06-23T09:24:40Z</time></trkpt>
   <trkpt lat="51.22460" lon="3.20739"><ele>57.2</ele><time>2030-06-23T09:24:50Z</time></trkpt>
   <trkpt lat="51.22482" lon="3.20741"><ele>57.6</ele><time>2030-06-23T09:25:00Z</time></trkpt>
   <trkpt lat="51.22505" lon="3.20742"><ele>58.1</ele><time>2030-06-23T09:25:10Z</time></trkpt>
   <trkpt lat="51.22527" lon="3.20744"><ele>58.5</ele><time>2030-06-23T09:25:20Z</time></trkpt>
   <trkpt lat="51.22549" lon="3.20745"><ele>59.0</ele><time>2030-06-23T09:25:30Z</time></trkpt>
   <trkpt lat="51.22572" lon="3.20746"><ele>59.4</ele><time>2030-06-23T09:25:40Z</time></trkpt>
   <trkpt lat="51.22594" lon="3.20748"><ele>59.9</ele><time>2030-06-23T09:25:50Z</time></trkpt>
   <trkpt lat="51.22616" lon="3.20749"><ele>60.3</ele><time>2030-06-23T09:26:00Z</time></trkpt>
   <trkpt lat="51.22639" lon="3.20751"><ele>60.8</ele><time>2030-06-23T09:26:10Z</time></trkpt>
   <trkpt lat="51.22661" lon="3.20752"><ele>61.2</ele><time>2030-06-23T09:26:20Z</time></trkpt>
   <trkpt lat="51.22683" lon="3.20753"><ele>61.7</ele><time>2030-06-23T09:26:30Z</time></trkpt>
   <trkpt lat="51.22706" lon="3.20755"><ele>62.1</ele><time>2030-06-23T09:26:40Z</time></trkpt>
   <trkpt lat="51.22728" lon="3.20756"><ele>62.6</ele><time>2030-06-23T09:26:50Z</time></trkpt>
   <trkpt lat="51.22750" lon="3.20757"><ele>63.0</ele><time>2030-06-23T09:27:00Z</time></trkpt>
   <trkpt lat="51.22773" lon="3.20758"><ele>63.5</ele><time>2030-06-23T09:27:10Z</time></trkpt>
   <trkpt lat="51.22795" lon="3.20760"><ele>63.9</ele><time>2030-06-23T09:27:20Z</time></trkpt>
   <trkpt lat="51.22817" lon="3.20761"><ele>64.3</ele><time>2030-06-23T09:27:30Z</time></trkpt>
   <trkpt lat="51.22840" lon="3.20762"><ele>64.8</ele><time>2030-06-23T09:27:40Z</time></trkpt>
   <trkpt lat="51.22862" lon="3.20763"><ele>65.2</ele><time>2030-06-23T09:27:50Z</time></trkpt>
   <trkpt lat="51.22885" lon="3.20765"><ele>65.7</ele><time>2030-06-23T09:28:00Z</time></trkpt>
   <trkpt lat="51.22907" lon="3.20766"><ele>66.1</ele><time>2030-06-23T09:28:10Z</time></trkpt>
   <trkpt lat="51.22929" lon="3.20767"><ele>66.6</ele><time>2030-06-23T09:28:20Z</time></trkpt>
   <trkpt lat="51.22952" lon="3.20768"><ele>67.0</ele><time>2030-06-23T09:28:30Z</time></trkpt>
   <trkpt lat="51.22974" lon="3.20769"><ele>67.5</ele><time>2030-06-23T09:28:40Z</time></trkpt>
   <trkpt lat="51.22996" lon="3.20770"><ele>67.9</ele><time>2030-06-23T09:28:50Z</time></trkpt>
   <trkpt lat="51.23019" lon="3.20771"><ele>68.4</ele><time>2030-06-23T09:29:00Z</time></trkpt>
   <trkpt lat="51.23041" lon="3.20773"><ele>68.8</ele><time>2030-06-23T09:29:10Z</time></trkpt>
   <trkpt lat="51.23063" lon="3.20774"><ele>69.3</ele><time>2030-06-23T09:29:20Z</time></trkpt>
   <trkpt lat="51.23086" lon="3.20775"><ele>69.7</ele><time>2030-06-23T09:29:30Z</time></trkpt>
   <trkpt lat="51.23108" lon="3.20776"><ele>70.2</ele><time>2030-06-23T09:29:40Z</time></trkpt>
   <trkpt lat="51.23130" lon="3.20777"><ele>70.6</ele><time>2030-06-23T09:29:50Z</time></trkpt>
   <trkpt lat="51.23153" lon="3.20778"><ele>71.1</ele><time>2030-06-23T09:30:00Z</time></trkpt>
   <trkpt lat="51.23175" lon="3.20779"><ele>71.5</ele><time>2030-06-23T09:30:10Z</time></trkpt>
   <trkpt lat="51.23197" lon="3.20780"><ele>71.9</ele><time>2030-06-23T09:30:20Z</time></trkpt>
   <trkpt lat="51.23220" lon="3.20781"><ele>72.4</ele><time>2030-06-23T09:30:30Z</time></trkpt>
   <trkpt lat="51.23242" lon="3.20782"><ele>72.8</ele><time>2030-06-23T09:30:40Z</time></trkpt>
   <trkpt lat="51.23265" lon="3.20783"><ele>73.3</ele><time>2030-06-23T09:30:50Z</time></trkpt>
   <trkpt lat="51.23287" lon="3.20784"><ele>73.7</ele><time>2030-06-23T09:31:00Z</time></trkpt>
   <trkpt lat="51.23309" lon="3.20785"><ele>74.2</ele><time>2030-06-23T09:31:10Z</time></trkpt>
   <trkpt lat="51.23332" lon="3.20786"><ele>74.6</ele><time>2030-06-23T09:31:20Z</time></trkpt>
   <trkpt lat="51.23354" lon="3.20786"><ele>75.1</ele><time>2030-06-23T09:31:30Z</time></trkpt>
   <trkpt lat="51.23376" lon="3.20787"><ele>75.5</ele><time>2030-06-23T09:31:40Z</time></trkpt>
   <trkpt lat="51.23399" lon="3.20788"><ele>76.0</ele><time>2030-06-23T09:31:50Z</time></trkpt>
   <trkpt lat="51.23421" lon="3.20789"><ele>76.4</ele><time>2030-06-23T09:32:00Z</time></trkpt>
   <trkpt lat="51.23443" lon="3.20790"><ele>76.9</ele><time>2030-06-23T09:32:10Z</time></trkpt>
   <trkpt lat="51.23466" lon="3.20791"><ele>77.3</ele><time>2030-06-23T09:32:20Z</time></trkpt>
   <trkpt lat="51.23488" lon="3.20791"><ele>77.8</ele><time>2030-06-23T09:32:30Z</time></trkpt>
   <trkpt lat="51.23510" lon="3.20792"><ele>78.2</ele><time>2030-06-23T09:32:40Z</time></trkpt>
   <trkpt lat="51.23533" lon="3.20793"><ele>78.7</ele><time>2030-06-23T09:32:50Z</time></trkpt>
   <trkpt lat="51.23555" lon="3.20794"><ele>79.1</ele><time>2030-06-23T09:33:00Z</time></trkpt>
   <trkpt lat="51.23577" lon="3.20794"><ele>79.5</ele><time>2030-06-23T09:33:10Z</time></trkpt>
   <trkpt lat="51.23600" lon="3.20795"><ele>80.0</ele><time>2030-06-23T09:33:20Z</time></trkpt>
   <trkpt lat="51.23622" lon="3.20796"><ele>80.4</ele><time>2030-06-23T09:33:30Z</time></trkpt>
   <trkpt lat="51.23645" lon="3.20796"><ele>80.9</ele><time>2030-06-23T09:33:40Z</time></trkpt>
   <trkpt lat="51.23667" lon="3.20797"><ele>81.3</ele><time>2030-06-23T09:33:50Z</time></trkpt>
   <trkpt lat="51.23689" lon="3.20798"><ele>81.8</ele><time>2030-06-23T09:34:00Z</time></trkpt>
   <trkpt lat="51.23712" lon="3.20798"><ele>82.2</ele><time>2030-06-23T09:34:10Z</time></trkpt>
   <trkpt lat="51.23734" lon="3.20799"><ele>82.7</ele><time>2030-06-23T09:34:20Z</time></trkpt>
   <trkpt lat="51.23756" lon="3.20800"><ele>83.1</ele><time>2030-06-23T09:34:30Z</time></trkpt>
   <trkpt lat="51.23779" lon="3.20800"><ele>83.6</ele><time>2030-06-23T09:34:40Z</time></trkpt>
   <trkpt lat="51.23801" lon="3.20801"><ele>84.0</ele><time>2030-06-23T09:34:50Z</time></trkpt>
   <trkpt lat="51.23823" lon="3.20801"><ele>84.5</ele><time>2030-06-23T09:35:00Z</time></trkpt>
   <trkpt lat="51.23846" lon="3.20802"><ele>84.9</ele><time>2030-06-23T09:35:10Z</time></trkpt>
   <trkpt lat="51.23868" lon="3.20802"><ele>85.4</ele><time>2030-06-23T09:35:20Z</time></trkpt>
   <trkpt lat="51.23890" lon="3.20803"><ele>85.8</ele><time>2030-06-23T09:35:30Z</time></trkpt>
   <trkpt lat="51.23913" lon="3.20803"><ele>86.3</ele><time>2030-06-23T09:35:40Z</time></trkpt>
   <trkpt lat="51.23935" lon="3.20804"><ele>86.7</ele><time>2030-06-23T09:35:50Z</time></trkpt>
   <trkpt lat="51.23957" lon="3.20804"><ele>87.1</ele><time>2030-06-23T09:36:00Z</time></trkpt>
   <trkpt lat="51.23980" lon="3.20805"><ele>87.6</ele><time>2030-06-23T09:36:10Z</time></trkpt>
   <trkpt lat="51.24002" lon="3.20805"><ele>88.0</ele><time>2030-06-23T09:36:20Z</time></trkpt>
   <trkpt lat="51.24024" lon="3.20806"><ele>88.5</ele><time>2030-06-23T09:36:30Z</time></trkpt>
   <trkpt lat="51.24047" lon="3.20806"><ele>88.9</ele><time>2030-06-23T09:36:40Z</time></trkpt>
   <trkpt lat="51.24069" lon="3.20806"><ele>89.4</ele><time>2030-06-23T09:36:50Z</time></trkpt>
   <trkpt lat="51.24092" lon="3.20807"><ele>89.8</ele><time>2030-06-23T09:37:00Z</time></trkpt>
   <trkpt lat="51.24114" lon="3.20807"><ele>90.3</ele><time>2030-06-23T09:37:10Z</time></trkpt>
   <trkpt lat="51.24136" lon="3.20807"><ele>90.7</ele><time>2030-06-23T09:37:20Z</time></trkpt>
   <trkpt lat="51.24159" lon="3.20808"><ele>91.2</ele><time>2030-06-23T09:37:30Z</time></trkpt>
   <trkpt lat="51.24181" lon="3.20808"><ele>91.6</ele><time>2030-06-23T09:37:40Z</time></trkpt>
   <trkpt lat="51.24203" lon="3.20808"><ele>92.1</ele><time>2030-06-23T09:37:50Z</time></trkpt>
   <trkpt lat="51.24226" lon="3.20808"><ele>92.5</ele><time>2030-06-23T09:38:00Z</time></trkpt>
   <trkpt lat="51.24248" lon="3.20809"><ele>93.0</ele><time>2030-06-23T09:38:10Z</time></trkpt>
   <trkpt lat="51.24270" lon="3.20809"><ele>93.4</ele><time>2030-06-23T09:38:20Z</time></trkpt>
   <trkpt lat="51.24293" lon="3.20809"><ele>93.9</ele><time>2030-06-23T09:38:30Z</time></trkpt>
   <trkpt lat="51.24315" lon="3.20809"><ele>94.3</ele><time>2030-06-23T09:38:40Z</time></trkpt>
   <trkpt lat="51.24337" lon="3.20809"><ele>94.7</ele><time>2030-06-23T09:38:50Z</time></trkpt>
   <trkpt lat="51.24360" lon="3.20809"><ele>95.2</ele><time>2030-06-23T09:39:00Z</time></trkpt>
   <trkpt lat="51.24382" lon="3.20810"><ele>95.6</ele><time>2030-06-23T09:39:10Z</time></trkpt>
   <trkpt lat="51.24404" lon="3.20810"><ele>96.1</ele><time>2030-06-23T09:39:20Z</time></trkpt>
   <trkpt lat="51.24427" lon="3.20810"><ele>96.5</ele><time>2030-06-23T09:39:30Z</time></trkpt>
   <trkpt lat="51.24449" lon="3.20810"><ele>97.0</ele><time>2030-06-23T09:39:40Z</time></trkpt>
   <trkpt lat="51.24472" lon="3.20810"><ele>97.4</ele><time>2030-06-23T09:39:50Z</time></trkpt>
   <trkpt lat="51.24494" lon="3.20810"><ele>97.9</ele><time>2030-06-23T09:40:00Z</time></trkpt>
   <trkpt lat="51.24516" lon="3.20810"><ele>98.3</ele><time>2030-06-23T09:40:10Z</time></trkpt>
   <trkpt lat="51.24539" lon="3.20810"><ele>98.8</ele><time>2030-06-23T09:40:20Z</time></trkpt>
   <trkpt lat="51.24561" lon="3.20810"><ele>99.2</ele><time>2030-06-23T09:40:31Z</time></trkpt>
   <trkpt lat="51.24583" lon="3.20810"><ele>99.7</ele><time>2030-06-23T09:40:41Z</time></trkpt>
   <trkpt lat="51.24606" lon="3.20810"><ele>100.1</ele><time>2030-06-23T09:40:51Z</time></trkpt>
   <trkpt lat="51.24628" lon="3.20810"><ele>100.6</ele><time>2030-06-23T09:41:01Z</time></trkpt>
   <trkpt lat="51.24650" lon="3.20810"><ele>101.0</ele><time>2030-06-23T09:41:11Z</time></trkpt>
   <trkpt lat="51.24673" lon="3.20810"><ele>101.5</ele><time>2030-06-23T09:41:21Z</time></trkpt>
   <trkpt lat="51.24695" lon="3.20810"><ele>101.9</ele><time>2030-06-23T09:41:31Z</time></trkpt>
   <trkpt lat="51.24717" lon="3.20809"><ele>102.3</ele><time>2030-06-23T09:41:41Z</time></trkpt>
   <trkpt lat="51.24740" lon="3.20809"><ele>102.8</ele><time>2030-06-23T09:41:51Z</time></trkpt>
   <trkpt lat="51.24762" lon="3.20809"><ele>103.2</ele><time>2030-06-23T09:42:01Z</time></trkpt>
   <trkpt lat="51.24784" lon="3.20809"><ele>103.7</ele><time>2030-06-23T09:42:11Z</time></trkpt>
   <trkpt lat="51.24807" lon="3.20809"><ele>104.1</ele><time>2030-06-23T09:42:21Z</time></trkpt>
   <trkpt lat="51.24829" lon="3.20809"><ele>104.6</ele><time>2030-06-23T09:42:31Z</time></trkpt>
   <trkpt lat="51.24852" lon="3.20808"><ele>105.0</ele><time>2030-06-23T09:42:41Z</time></trkpt>
   <trkpt lat="51.24874" lon="3.20808"><ele>105.5</ele><time>2030-06-23T09:42:51Z</time></trkpt>
   <trkpt lat="51.24896" lon="3.20808"><ele>105.9</ele><time>2030-06-23T09:43:01Z</time></trkpt>
   <trkpt lat="51.24919" lon="3.20808"><ele>106.4</ele><time>2030-06-23T09:43:11Z</time></trkpt>
   <trkpt lat="51.24941" lon="3.20807"><ele>106.8</ele><time>2030-06-23T09:43:21Z</time></trkpt>
   <trkpt lat="51.24963" lon="3.20807"><ele>107.3</ele><time>2030-06-23T09:43:31Z</time></trkpt>
   <trkpt lat="51.24986" lon="3.20807"><ele>107.7</ele><time>2030-06-23T09:43:41Z</time></trkpt>
   <trkpt lat="51.25008" lon="3.20806"><ele>108.2</ele><time>2030-06-23T09:43:51Z</time></trkpt>
   <trkpt lat="51.25030" lon="3.20806"><ele>108.6</ele><time>2030-06-23T09:44:01Z</time></trkpt>
   <trkpt lat="51.25053" lon="3.20806"><ele>109.1</ele><time>2030-06-23T09:44:11Z</time></trkpt>
   <trkpt lat="51.25075" lon="3.20805"><ele>109.5</ele><time>2030-06-23T09:44:21Z</time></trkpt>
   <trkpt lat="51.25097" lon="3.20805"><ele>109.9</ele><time>2030-06-23T09:44:31Z</time></trkpt>
   <trkpt lat="51.25120" lon="3.20804"><ele>110.4</ele><time>2030-06-23T09:44:41Z</time></trkpt>
   <trkpt lat="51.25142" lon="3.20804"><ele>110.8</ele><time>2030-06-23T09:44:51Z</time></trkpt>
   <trkpt lat="51.25164" lon="3.20803"><ele>111.3</ele><time>2030-06-23T09:45:01Z</time></trkpt>
   <trkpt lat="51.25187" lon="3.20803"><ele>111.7</ele><time>2030-06-23T09:45:11Z</time></trkpt>
   <trkpt lat="51.25209" lon="3.20802"><ele>112.2</ele><time>2030-06-23T09:45:21Z</time></trkpt>
   <trkpt lat="51.25231" lon="3.20802"><ele>112.6</ele><time>2030-06-23T09:45:31Z</time></trkpt>
   <trkpt lat="51.25254" lon="3.20801"><ele>113.1</ele><time>2030-06-23T09:45:41Z</time></trkpt>
   <trkpt lat="51.25276" lon="3.20801"><ele>113.5</ele><time>2030-06-23T09:45:51Z</time></trkpt>
   <trkpt lat="51.25299" lon="3.20800"><ele>114.0</ele><time>2030-06-23T09:46:01Z</time></trkpt>
   <trkpt lat="51.25321" lon="3.20800"><ele>114.4</ele><time>2030-06-23T09:46:11Z</time></trkpt>
   <trkpt lat="51.25343" lon="3.20799"><ele>114.9</ele><time>2030-06-23T09:46:21Z</time></trkpt>
   <trkpt lat="51.25366" lon="3.20798"><ele>115.3</ele><time>2030-06-23T09:46:31Z</time></trkpt>
   <trkpt lat="51.25388" lon="3.20798"><ele>115.8</ele><time>2030-06-23T09:46:41Z</time></trkpt>
   <trkpt lat="51.25410" lon="3.20797"><ele>116.2</ele><time>2030-06-23T09:46:51Z</time></trkpt>
   <trkpt lat="51.25433" lon="3.20796"><ele>116.7</ele><time>2030-06-23T09:47:01Z</time></trkpt>
   <trkpt lat="51.25455" lon="3.20796"><ele>117.1</ele><time>2030-06-23T09:47:11Z</time></trkpt>
   <trkpt lat="51.25477" lon="3.20795"><ele>117.5</ele><time>2030-06-23T09:47:21Z</time></trkpt>
   <trkpt lat="51.25500" lon="3.20794"><ele>118.0</ele><time>2030-06-23T09:47:31Z</time></trkpt>
   <trkpt lat="51.25522" lon="3.20794"><ele>118.4</ele><time>2030-06-23T09:47:41Z</time></trkpt>
   <trkpt lat="51.25544" lon="3.20793"><ele>118.9</ele><time>2030-06-23T09:47:51Z</time></trkpt>
   <trkpt lat="51.25567" lon="3.20792"><ele>119.3</ele><time>2030-06-23T09:48:01Z</time></trkpt>
   <trkpt lat="51.25589" lon="3.20791"><ele>119.8</ele><time>2030-06-23T09:48:11Z</time></trkpt>
   <trkpt lat="51.25611" lon="3.20791"><ele>120.2</ele><time>2030-06-23T09:48:21Z</time></trkpt>
   <trkpt lat="51.25634" lon="3.20790"><ele>120.7</ele><time>2030-06-23T09:48:31Z</time></trkpt>
   <trkpt lat="51.25656" lon="3.20789"><ele>121.1</ele><time>2030-06-23T09:48:41Z</time></trkpt>
   <trkpt lat="51.25679" lon="3.20788"><ele>121.6</ele><time>2030-06-23T09:48:51Z</time></trkpt>
   <trkpt lat="51.25701" lon="3.20787"><ele>122.0</ele><time>2030-06-23T09:49:01Z</time></trkpt>
   <trkpt lat="51.25723" lon="3.20786"><ele>122.5</ele><time>2030-06-23T09:49:11Z</time></trkpt>
   <trkpt lat="51.25746" lon="3.20786"><ele>122.9</ele><time>2030-06-23T09:49:21Z</time></trkpt>
   <trkpt lat="51.25768" lon="3.20785"><ele>123.4</ele><time>2030-06-23T09:49:31Z</time></trkpt>
   <trkpt lat="51.25790" lon="3.20784"><ele>123.8</ele><time>2030-06-23T09:49:41Z</time></trkpt>
   <trkpt lat="51.25813" lon="3.20783"><ele>124.3</ele><time>2030-06-23T09:49:51Z</time></trkpt>
   <trkpt lat="51.25835" lon="3.20782"><ele>124.7</ele><time>2030-06-23T09:50:01Z</time></trkpt>
   <trkpt lat="51.25857" lon="3.20781"><ele>125.1</ele><time>2030-06-23T09:50:11Z</time></trkpt>
   <trkpt lat="51.25880" lon="3.20780"><ele>125.6</ele><time>2030-06-23T09:50:21Z</time></trkpt>
   <trkpt lat="51.25902" lon="3.20779"><ele>126.0</ele><time>2030-06-23T09:50:31Z</time></trkpt>
   <trkpt lat="51.25924" lon="3.20778"><ele>126.5</ele><time>2030-06-23T09:50:41Z</time></trkpt>
   <trkpt lat="51.25947" lon="3.20777"><ele>126.9</ele><time>2030-06-23T09:50:51Z</time></trkpt>
   <trkpt lat="51.25969" lon="3.20776"><ele>127.4</ele><time>2030-06-23T09:51:01Z</time></trkpt>
   <trkpt lat="51.25991" lon="3.20775"><ele>127.8</ele><time>2030-06-23T09:51:11Z</time></trkpt>
   <trkpt lat="51.26014" lon="3.20774"><ele>128.3</ele><time>2030-06-23T09:51:21Z</time></trkpt>
   <trkpt lat="51.26036" lon="3.20773"><ele>128.7</ele><time>2030-06-23T09:51:31Z</time></trkpt>
   <trkpt lat="51.26059" lon="3.20771"><ele>129.2</ele><time>2030-06-23T09:51:41Z</time></trkpt>
   <trkpt lat="51.26081" lon="3.20770"><ele>129.6</ele><time>2030-06-23T09:51:51Z</time></trkpt>
   <trkpt lat="51.26103" lon="3.20769"><ele>130.1</ele><time>2030-06-23T09:52:01Z</time></trkpt>
   <trkpt lat="51.26126" lon="3.20768"><ele>130.5</ele><time>2030-06-23T09:52:11Z</time></trkpt>
   <trkpt lat="51.26148" lon="3.20767"><ele>131.0</ele><time>2030-06-23T09:52:21Z</time></trkpt>
   <trkpt lat="51.26170" lon="3.20766"><ele>131.4</ele><time>2030-06-23T09:52:31Z</time></trkpt>
   <trkpt lat="51.26193" lon="3.20765"><ele>131.9</ele><time>2030-06-23T09:52:41Z</time></trkpt>
   <trkpt lat="51.26215" lon="3.20763"><ele>132.3</ele><time>2030-06-23T09:52:51Z</time></trkpt>
   <trkpt lat="51.26237" lon="3.20762"><ele>132.7</ele><time>2030-06-23T09:53:01Z</time></trkpt>
   <trkpt lat="51.26260" lon="3.20761"><ele>133.2</ele><time>2030-06-23T09:53:11Z</time></trkpt>
   <trkpt lat="51.26282" lon="3.20760"><ele>133.6</ele><time>2030-06-23T09:53:21Z</time></trkpt>
   <trkpt lat="51.26304" lon="3.20758"><ele>134.1</ele><time>2030-06-23T09:53:31Z</time></trkpt>
   <trkpt lat="51.26327" lon="3.20757"><ele>134.5</ele><time>2030-06-23T09:53:41Z</time></trkpt>
   <trkpt lat="51.26349" lon="3.20756"><ele>135.0</ele><time>2030-06-23T09:53:51Z</time></trkpt>
   <trkpt lat="51.26371" lon="3.20755"><ele>135.4</ele><time>2030-06-23T09:54:01Z</time></trkpt>
   <trkpt lat="51.26394" lon="3.20753"><ele>135.9</ele><time>2030-06-23T09:54:11Z</time></trkpt>
   <trkpt lat="51.26416" lon="3.20752"><ele>136.3</ele><time>2030-06-23T09:54:21Z</time></trkpt>
   <trkpt lat="51.26438" lon="3.20751"><ele>136.8</ele><time>2030-06-23T09:54:31Z</time></trkpt>
   <trkpt lat="51.26461" lon="3.20749"><ele>137.2</ele><time>2030-06-23T09:54:41Z</time></trkpt>
   <trkpt lat="51.26483" lon="3.20748"><ele>137.7</ele><time>2030-06-23T09:54:51Z</time></trkpt>
   <trkpt lat="51.26506" lon="3.20746"><ele>138.1</ele><time>2030-06-23T09:55:01Z</time></trkpt>
   <trkpt lat="51.26528" lon="3.20745"><ele>138.6</ele><time>2030-06-23T09:55:11Z</time></trkpt>
   <trkpt lat="51.26550" lon="3.20744"><ele>139.0</ele><time>2030-06-23T09:55:21Z</time></trkpt>
   <trkpt lat="51.26573" lon="3.20742"><ele>139.5</ele><time>2030-06-23T09:55:31Z</time></trkpt>
   <trkpt lat="51.26595" lon="3.20741"><ele>139.9</ele><time>2030-06-23T09:55:41Z</time></trkpt>
   <trkpt lat="51.26617" lon="3.20739"><ele>140.3</ele><time>2030-06-23T09:55:51Z</time></trkpt>
   <trkpt lat="51.26640" lon="3.20738"><ele>140.8</ele><time>2030-06-23T09:56:01Z</time></trkpt>
   <trkpt lat="51.26662" lon="3.20736"><ele>141.2</ele><time>2030-06-23T09:56:11Z</time></trkpt>
   <trkpt lat="51.26684" lon="3.20735"><ele>141.7</ele><time>2030-06-23T09:56:21Z</time></trkpt>
   <trkpt lat="51.26707" lon="3.20733"><ele>142.1</ele><time>2030-06-23T09:56:31Z</time></trkpt>
   <trkpt lat="51.26729" lon="3.20732"><ele>142.6</ele><time>2030-06-23T09:56:41Z</time></trkpt>
   <trkpt lat="51.26751" lon="3.20730"><ele>143.0</ele><time>2030-06-23T09:56:51Z</time></trkpt>
   <trkpt lat="51.26774" lon="3.20729"><ele>143.5</ele><time>2030-06-23T09:57:01Z</time></trkpt>
   <trkpt lat="51.26796" lon="3.20727"><ele>143.9</ele><time>2030-06-23T09:57:11Z</time></trkpt>
   <trkpt lat="51.26818" lon="3.20726"><ele>144.4</ele><time>2030-06-23T09:57:21Z</time></trkpt>
   <trkpt lat="51.26841" lon="3.20724"><ele>144.8</ele><time>2030-06-23T09:57:31Z</time></trkpt>
   <trkpt lat="51.26863" lon="3.20722"><ele>145.3</ele><time>2030-06-23T09:57:41Z</time></trkpt>
   <trkpt lat="51.26886" lon="3.20721"><ele>145.7</ele><time>2030-06-23T09:57:51Z</time></trkpt>
   <trkpt lat="51.26908" lon="3.20719"><ele>146.2</ele><time>2030-06-23T09:58:01Z</time></trkpt>
   <trkpt lat="51.26930" lon="3.20718"><ele>146.6</ele><time>2030-06-23T09:58:11Z</time></trkpt>
   <trkpt lat="51.26953" lon="3.20716"><ele>147.1</ele><time>2030-06-23T09:58:21Z</time></trkpt>
   <trkpt lat="51.26975" lon="3.20714"><ele>147.5</ele><time>2030-06-23T09:58:31Z</time></trkpt>
   <trkpt lat="51.26997" lon="3.20713"><ele>147.9</ele><time>2030-06-23T09:58:41Z</time></trkpt>
   <trkpt lat="51.27020" lon="3.20711"><ele>148.4</ele><time>2030-06-23T09:58:51Z</time></trkpt>
   <trkpt lat="51.27042" lon="3.20709"><ele>148.8</ele><time>2030-06-23T09:59:01Z</time></trkpt>
   <trkpt lat="51.27064" lon="3.20708"><ele>149.3</ele><time>2030-06-23T09:59:11Z</time></trkpt>
   <trkpt lat="51.27087" lon="3.20706"><ele>149.7</ele><time>2030-06-23T09:59:21Z</time></trkpt>
   <trkpt lat="51.27109" lon="3.20704"><ele>150.2</ele><time>2030-06-23T09:59:31Z</time></trkpt>
   <trkpt lat="51.27131" lon="3.20702"><ele>150.6</ele><time>2030-06-23T09:59:41Z</time></trkpt>
   <trkpt lat="51.27154" lon="3.20701"><ele>151.1</ele><time>2030-06-23T09:59:51Z</time></trkpt>
   <trkpt lat="51.27176" lon="3.20699"><ele>151.5</ele><time>2030-06-23T10:00:01Z</time></trkpt>
   <trkpt lat="51.27198" lon="3.20697"><ele>152.0</ele><time>2030-06-23T10:00:11Z</time></trkpt>
   <trkpt lat="51.27221" lon="3.20695"><ele>152.4</ele><time>2030-06-23T10:00:21Z</time></trkpt>
   <trkpt lat="51.27243" lon="3.20694"><ele>152.9</ele><time>2030-06-23T10:00:31Z</time></trkpt>
   <trkpt lat="51.27266" lon="3.20692"><ele>153.3</ele><time>2030-06-23T10:00:41Z</time></trkpt>
   <trkpt lat="51.27288" lon="3.20690"><ele>153.8</ele><time>2030-06-23T10:00:51Z</time></trkpt>
   <trkpt lat="51.27310" lon="3.20688"><ele>154.2</ele><time>2030-06-23T10:01:01Z</time></trkpt>
   <trkpt lat="51.27333" lon="3.20686"><ele>154.7</ele><time>2030-06-23T10:01:11Z</time></trkpt>
   <trkpt lat="51.27355" lon="3.20684"><ele>155.1</ele><time>2030-06-23T10:01:21Z</time></trkpt>
   <trkpt lat="51.27377" lon="3.20683"><ele>155.5</ele><time>2030-06-23T10:01:31Z</time></trkpt>
   <trkpt lat="51.27400" lon="3.20681"><ele>156.0</ele><time>2030-06-23T10:01:41Z</time></trkpt>
   <trkpt lat="51.27422" lon="3.20679"><ele>156.4</ele><time>2030-06-23T10:01:51Z</time></trkpt>
   <trkpt lat="51.27444" lon="3.20677"><ele>156.9</ele><time>2030-06-23T10:02:01Z</time></trkpt>
   <trkpt lat="51.27467" lon="3.20675"><ele>157.3</ele><time>2030-06-23T10:02:11Z</time></trkpt>
   <trkpt lat="51.27489" lon="3.20673"><ele>157.8</ele><time>2030-06-23T10:02:21Z</time></trkpt>
   <trkpt lat="51.27511" lon="3.20671"><ele>158.2</ele><time>2030-06-23T10:02:31Z</time></trkpt>
   <trkpt lat="51.27534" lon="3.20669"><ele>158.7</ele><time>2030-06-23T10:02:41Z</time></trkpt>
   <trkpt lat="51.27556" lon="3.20667"><ele>159.1</ele><time>2030-06-23T10:02:51Z</time></trkpt>
   <trkpt lat="51.27578" lon="3.20665"><ele>159.6</ele><time>2030-06-23T10:03:01Z</time></trkpt>
   <trkpt lat="51.27601" lon="3.20664"><ele>160.0</ele><time>2030-06-23T10:03:11Z</time></trkpt>
   <trkpt lat="51.27623" lon="3.20662"><ele>160.5</ele><time>2030-06-23T10:03:21Z</time></trkpt>
   <trkpt lat="51.27645" lon="3.20660"><ele>160.9</ele><time>2030-06-23T10:03:31Z</time></trkpt>
   <trkpt lat="51.27668" lon="3.20658"><ele>161.4</ele><time>2030-06-23T10:03:41Z</time></trkpt>
   <trkpt lat="51.27690" lon="3.20656"><ele>161.8</ele><time>2030-06-23T10:03:51Z</time></trkpt>
   <trkpt lat="51.27713" lon="3.20654"><ele>162.3</ele><time>2030-06-23T10:04:01Z</time></trkpt>
   <trkpt lat="51.27735" lon="3.20652"><ele>162.7</ele><time>2030-06-23T10:04:11Z</time></trkpt>
   <trkpt lat="51.27757" lon="3.20650"><ele>163.1</ele><time>2030-06-23T10:04:21Z</time></trkpt>
   <trkpt lat="51.27780" lon="3.20648"><ele>163.6</ele><time>2030-06-23T10:04:31Z</time></trkpt>
   <trkpt lat="51.27802" lon="3.20646"><ele>164.0</ele><time>2030-06-23T10:04:41Z</time></trkpt>
   <trkpt lat="51.27824" lon="3.20644"><ele>164.5</ele><time>2030-06-23T10:04:51Z</time></trkpt>
   <trkpt lat="51.27847" lon="3.20642"><ele>164.9</ele><time>2030-06-23T10:05:01Z</time></trkpt>
   <trkpt lat="51.27869" lon="3.20640"><ele>165.4</ele><time>2030-06-23T10:05:11Z</time></trkpt>
   <trkpt lat="51.27891" lon="3.20637"><ele>165.8</ele><time>2030-06-23T10:05:21Z</time></trkpt>
   <trkpt lat="51.27914" lon="3.20635"><ele>166.3</ele><time>2030-06-23T10:05:31Z</time></trkpt>
   <trkpt lat="51.27936" lon="3.20633"><ele>166.7</ele><time>2030-06-23T10:05:41Z</time></trkpt>
   <trkpt lat="51.27958" lon="3.20631"><ele>167.2</ele><time>2030-06-23T10:05:51Z</time></trkpt>
   <trkpt lat="51.27981" lon="3.20629"><ele>167.6</ele><time>2030-06-23T10:06:01Z</time></trkpt>
   <trkpt lat="51.28003" lon="3.20627"><ele>168.1</ele><time>2030-06-23T10:06:11Z</time></trkpt>
   <trkpt lat="51.28025" lon="3.20625"><ele>168.5</ele><time>2030-06-23T10:06:21Z</time></trkpt>
   <trkpt lat="51.28048" lon="3.20623"><ele>169.0</ele><time>2030-06-23T10:06:31Z</time></trkpt>
   <trkpt lat="51.28070" lon="3.20621"><ele>169.4</ele><time>2030-06-23T10:06:41Z</time></trkpt>
   <trkpt lat="51.28093" lon="3.20619"><ele>169.9</ele><time>2030-06-23T10:06:51Z</time></trkpt>
   <trkpt lat="51.28115" lon="3.20617"><ele>170.3</ele><time>2030-06-23T10:07:01Z</time></trkpt>
   <trkpt lat="51.28137" lon="3.20614"><ele>170.7</ele><time>2030-06-23T10:07:11Z</time></trkpt>
   <trkpt lat="51.28160" lon="3.20612"><ele>171.2</ele><time>2030-06-23T10:07:21Z</time></trkpt>
   <trkpt lat="51.28182" lon="3.20610"><ele>171.6</ele><time>2030-06-23T10:07:31Z</time></trkpt>
   <trkpt lat="51.28204" lon="3.20608"><ele>172.1</ele><time>2030-06-23T10:07:41Z</time></trkpt>
   <trkpt lat="51.28227" lon="3.20606"><ele>172.5</ele><time>2030-06-23T10:07:51Z</time></trkpt>
   <trkpt lat="51.28249" lon="3.20604"><ele>173.0</ele><time>2030-06-23T10:08:01Z</time></trkpt>
   <trkpt lat="51.28271" lon="3.20601"><ele>173.4</ele><time>2030-06-23T10:08:11Z</time></trkpt>
   <trkpt lat="51.28294" lon="3.20599"><ele>173.9</ele><time>2030-06-23T10:08:21Z</time></trkpt>
   <trkpt lat="51.28316" lon="3.20597"><ele>174.3</ele><time>2030-06-23T10:08:31Z</time></trkpt>
   <trkpt lat="51.28338" lon="3.20595"><ele>174.8</ele><time>2030-06-23T10:08:41Z</time></trkpt>
   <trkpt lat="51.28361" lon="3.20593"><ele>175.2</ele><time>2030-06-23T10:08:51Z</time></trkpt>
   <trkpt lat="51.28383" lon="3.20591"><ele>175.7</ele><time>2030-06-23T10:09:01Z</time></trkpt>
   <trkpt lat="51.28405" lon="3.20588"><ele>176.1</ele><time>2030-06-23T10:09:11Z</time></trkpt>
   <trkpt lat="51.28428" lon="3.20586"><ele>176.6</ele><time>2030-06-23T10:09:21Z</time></trkpt>
   <trkpt lat="51.28450" lon="3.20584"><ele>177.0</ele><time>2030-06-23T10:09:31Z</time></trkpt>
   <trkpt lat="51.28473" lon="3.20582"><ele>177.5</ele><time>2030-06-23T10:09:41Z</time></trkpt>
   <trkpt lat="51.28495" lon="3.20579"><ele>177.9</ele><time>2030-06-23T10:09:51Z</time></trkpt>
   <trkpt lat="51.28517" lon="3.20577"><ele>178.3</ele><time>2030-06-23T10:10:01Z</time></trkpt>
   <trkpt lat="51.28540" lon="3.20575"><ele>178.8</ele><time>2030-06-23T10:10:11Z</time></trkpt>
   <trkpt lat="51.28562" lon="3.20573"><ele>179.2</ele><time>2030-06-23T10:10:21Z</time></trkpt>
   <trkpt lat="51.28584" lon="3.20571"><ele>179.7</ele><time>2030-06-23T10:10:31Z</time></trkpt>
   <trkpt lat="51.28607" lon="3.20568"><ele>180.1</ele><time>2030-06-23T10:10:41Z</time></trkpt>
   <trkpt lat="51.28629" lon="3.20566"><ele>180.6</ele><time>2030-06-23T10:10:51Z</time></trkpt>
   <trkpt lat="51.28651" lon="3.20564"><ele>181.0</ele><time>2030-06-23T10:11:01Z</time></trkpt>
   <trkpt lat="51.28674" lon="3.20562"><ele>181.5</ele><time>2030-06-23T10:11:11Z</time></trkpt>
   <trkpt lat="51.28696" lon="3.20559"><ele>181.9</ele><time>2030-06-23T10:11:21Z</time></trkpt>
   <trkpt lat="51.28718" lon="3.20557"><ele>182.4</ele><time>2030-06-23T10:11:31Z</time></trkpt>
   <trkpt lat="51.28741" lon="3.20555"><ele>182.8</ele><time>2030-06-23T10:11:41Z</time></trkpt>
   <trkpt lat="51.28763" lon="3.20553"><ele>183.3</ele><time>2030-06-23T10:11:51Z</time></trkpt>
   <trkpt lat="51.28785" lon="3.20550"><ele>183.7</ele><time>2030-06-23T10:12:01Z</time></trkpt>
   <trkpt lat="51.28808" lon="3.20548"><ele>184.2</ele><time>2030-06-23T10:12:11Z</time></trkpt>
   <trkpt lat="51.28830" lon="3.20546"><ele>184.6</ele><time>2030-06-23T10:12:21Z</time></trkpt>
   <trkpt lat="51.28852" lon="3.20543"><ele>185.0</ele><time>2030-06-23T10:12:31Z</time></trkpt>
   <trkpt lat="51.28875" lon="3.20541"><ele>185.5</ele><time>2030-06-23T10:12:41Z</time></trkpt>
   <trkpt lat="51.28897" lon="3.20539"><ele>185.9</ele><time>2030-06-23T10:12:51Z</time></trkpt>
   <trkpt lat="51.28920" lon="3.20537"><ele>186.4</ele><time>2030-06-23T10:13:01Z</time></trkpt>
   <trkpt lat="51.28942" lon="3.20534"><ele>186.8</ele><time>2030-06-23T10:13:11Z</time></trkpt>
   <trkpt lat="51.28964" lon="3.20532"><ele>187.3</ele><time>2030-06-23T10:13:21Z</time></trkpt>
   <trkpt lat="51.28987" lon="3.20530"><ele>187.7</ele><time>2030-06-23T10:13:31Z</time></trkpt>
   <trkpt lat="51.29009" lon="3.20528"><ele>188.2</ele><time>2030-06-23T10:13:41Z</time></trkpt>
   <trkpt lat="51.29031" lon="3.20525"><ele>188.6</ele><time>2030-06-23T10:13:51Z</time></trkpt>
   <trkpt lat="51.29054" lon="3.20523"><ele>189.1</ele><time>2030-06-23T10:14:01Z</time></trkpt>
   <trkpt lat="51.29076" lon="3.20521"><ele>189.5</ele><time>2030-06-23T10:14:11Z</time></trkpt>
   <trkpt lat="51.29098" lon="3.20518"><ele>190.0</ele><time>2030-06-23T10:14:21Z</time></trkpt>
   <trkpt lat="51.29121" lon="3.20516"><ele>190.4</ele><time>2030-06-23T10:14:31Z</time></trkpt>
   <trkpt lat="51.29143" lon="3.20514"><ele>190.9</ele><time>2030-06-23T10:14:41Z</time></trkpt>
   <trkpt lat="51.29165" lon="3.20511"><ele>191.3</ele><time>2030-06-23T10:14:51Z</time></trkpt>
   <trkpt lat="51.29188" lon="3.20509"><ele>191.8</ele><time>2030-06-23T10:15:01Z</time></trkpt>
   <trkpt lat="51.29210" lon="3.20507"><ele>192.2</ele><time>2030-06-23T10:15:11Z</time></trkpt>
   <trkpt lat="51.29232" lon="3.20505"><ele>192.6</ele><time>2030-06-23T10:15:21Z</time></trkpt>
   <trkpt lat="51.29255" lon="3.20502"><ele>193.1</ele><time>2030-06-23T10:15:31Z</time></trkpt>
   <trkpt lat="51.29255" lon="3.20502"><ele>193.1</ele><time>2030-06-23T10:15:41Z</time></trkpt>
   <trkpt lat="51.29232" lon="3.20505"><ele>192.6</ele><time>2030-06-23T10:15:51Z</time></trkpt>
   <trkpt lat="51.29210" lon="3.20507"><ele>192.2</ele><time>2030-06-23T10:16:01Z</time></trkpt>
   <trkpt lat="51.29188" lon="3.20509"><ele>191.8</ele><time>2030-06-23T10:16:11Z</time></trkpt>
   <trkpt lat="51.29165" lon="3.20511"><ele>191.3</ele><time>2030-06-23T10:16:21Z</time></trkpt>
   <trkpt lat="51.29143" lon="3.20514"><ele>190.9</ele><time>2030-06-23T10:16:31Z</time></trkpt>
   <trkpt lat="51.29121" lon="3.20516"><ele>190.4</ele><time>2030-06-23T10:16:41Z</time></trkpt>
   <trkpt lat="51.29098" lon="3.20518"><ele>190.0</ele><time>2030-06-23T10:16:51Z</time></trkpt>
   <trkpt lat="51.29076" lon="3.20521"><ele>189.5</ele><time>2030-06-23T10:17:01Z</time></trkpt>
   <trkpt lat="51.29054" lon="3.20523"><ele>189.1</ele><time>2030-06-23T10:17:11Z</time></trkpt>
   <trkpt lat="51.29031" lon="3.20525"><ele>188.6</ele><time>2030-06-23T10:17:21Z</time></trkpt>
   <trkpt lat="51.29009" lon="3.20528"><ele>188.2</ele><time>2030-06-23T10:17:31Z</time></trkpt>
   <trkpt lat="51.28987" lon="3.20530"><ele>187.7</ele><time>2030-06-23T10:17:41Z</time></trkpt>
   <trkpt lat="51.28964" lon="3.20532"><ele>187.3</ele><time>2030-06-23T10:17:51Z</time></trkpt>
   <trkpt lat="51.28942" lon="3.20534"><ele>186.8</ele><time>2030-06-23T10:18:01Z</time></trkpt>
   <trkpt lat="51.28920" lon="3.20537"><ele>186.4</ele><time>2030-06-23T10:18:11Z</time></trkpt>
   <trkpt lat="51.28897" lon="3.20539"><ele>185.9</ele><time>2030-06-23T10:18:21Z</time></trkpt>
   <trkpt lat="51.28875" lon="3.20541"><ele>185.5</ele><time>2030-06-23T10:18:31Z</time></trkpt>
   <trkpt lat="51.28852" lon="3.20543"><ele>185.0</ele><time>2030-06-23T10:18:41Z</time></trkpt>
   <trkpt lat="51.28830" lon="3.20546"><ele>184.6</ele><time>2030-06-23T10:18:51Z</time></trkpt>
   <trkpt lat="51.28808" lon="3.20548"><ele>184.2</ele><time>2030-06-23T10:19:01Z</time></trkpt>
   <trkpt lat="51.28785" lon="3.20550"><ele>183.7</ele><time>2030-06-23T10:19:11Z</time></trkpt>
   <trkpt lat="51.28763" lon="3.20553"><ele>183.3</ele><time>2030-06-23T10:19:21Z</time></trkpt>
   <trkpt lat="51.28741" lon="3.20555"><ele>182.8</ele><time>2030-06-23T10:19:31Z</time></trkpt>
   <trkpt lat="51.28718" lon="3.20557"><ele>182.4</ele><time>2030-06-23T10:19:41Z</time></trkpt>
   <trkpt lat="51.28696" lon="3.20559"><ele>181.9</ele><time>2030-06-23T10:19:51Z</time></trkpt>
   <trkpt lat="51.28674" lon="3.20562"><ele>181.5</ele><time>2030-06-23T10:20:01Z</time></trkpt>
   <trkpt lat="51.28651" lon="3.20564"><ele>181.0</ele><time>2030-06-23T10:20:11Z</time></trkpt>
   <trkpt lat="51.28629" lon="3.20566"><ele>180.6</ele><time>2030-06-23T10:20:21Z</time></trkpt>
   <trkpt lat="51.28607" lon="3.20568"><ele>180.1</ele><time>2030-06-23T10:20:31Z</time></trkpt>
   <trkpt lat="51.28584" lon="3.20571"><ele>179.7</ele><time>2030-06-23T10:20:41Z</time></trkpt>
   <trkpt lat="51.28562" lon="3.20573"><ele>179.2</ele><time>2030-06-23T10:20:51Z</time></trkpt>
   <trkpt lat="51.28540" lon="3.20575"><ele>178.8</ele><time>2030-06-23T10:21:01Z</time></trkpt>
   <trkpt lat="51.28517" lon="3.20577"><ele>178.3</ele><time>2030-06-23T10:21:11Z</time></trkpt>
   <trkpt lat="51.28495" lon="3.20579"><ele>177.9</ele><time>2030-06-23T10:21:21Z</time></trkpt>
   <trkpt lat="51.28473" lon="3.20582"><ele>177.5</ele><time>2030-06-23T10:21:31Z</time></trkpt>
   <trkpt lat="51.28450" lon="3.20584"><ele>177.0</ele><time>2030-06-23T10:21:41Z</time></trkpt>
   <trkpt lat="51.28428" lon="3.20586"><ele>176.6</ele><time>2030-06-23T10:21:51Z</time></trkpt>
   <trkpt lat="51.28405" lon="3.20588"><ele>176.1</ele><time>2030-06-23T10:22:01Z</time></trkpt>
   <trkpt lat="51.28383" lon="3.20591"><ele>175.7</ele><time>2030-06-23T10:22:11Z</time></trkpt>
   <trkpt lat="51.28361" lon="3.20593"><ele>175.2</ele><time>2030-06-23T10:22:21Z</time></trkpt>
   <trkpt lat="51.28338" lon="3.20595"><ele>174.8</ele><time>2030-06-23T10:22:31Z</time></trkpt>
   <trkpt lat="51.28316" lon="3.20597"><ele>174.3</ele><time>2030-06-23T10:22:41Z</time></trkpt>
   <trkpt lat="51.28294" lon="3.20599"><ele>173.9</ele><time>2030-06-23T10:22:51Z</time></trkpt>
   <trkpt lat="51.28271" lon="3.20601"><ele>173.4</ele><time>2030-06-23T10:23:01Z</time></trkpt>
   <trkpt lat="51.28249" lon="3.20604"><ele>173.0</ele><time>2030-06-23T10:23:11Z</time></trkpt>
   <trkpt lat="51.28227" lon="3.20606"><ele>172.5</ele><time>2030-06-23T10:23:21Z</time></trkpt>
   <trkpt lat="51.28204" lon="3.20608"><ele>172.1</ele><time>2030-06-23T10:23:31Z</time></trkpt>
   <trkpt lat="51.28182" lon="3.20610"><ele>171.6</ele><time>2030-06-23T10:23:41Z</time></trkpt>
   <trkpt lat="51.28160" lon="3.20612"><ele>171.2</ele><time>2030-06-23T10:23:51Z</time></trkpt>
   <trkpt lat="51.28137" lon="3.20614"><ele>170.7</ele><time>2030-06-23T10:24:01Z</time></trkpt>
   <trkpt lat="51.28115" lon="3.20617"><ele>170.3</ele><time>2030-06-23T10:24:11Z</time></trkpt>
   <trkpt lat="51.28093" lon="3.20619"><ele>169.9</ele><time>2030-06-23T10:24:21Z</time></trkpt>
   <trkpt lat="51.28070" lon="3.20621"><ele>169.4</ele><time>2030-06-23T10:24:31Z</time></trkpt>
   <trkpt lat="51.28048" lon="3.20623"><ele>169.0</ele><time>2030-06-23T10:24:41Z</time></trkpt>
   <trkpt lat="51.28025" lon="3.20625"><ele>168.5</ele><time>2030-06-23T10:24:51Z</time></trkpt>
   <trkpt lat="51.28003" lon="3.20627"><ele>168.1</ele><time>2030-06-23T10:25:01Z</time></trkpt>
   <trkpt lat="51.27981" lon="3.20629"><ele>167.6</ele><time>2030-06-23T10:25:11Z</time></trkpt>
   <trkpt lat="51.27958" lon="3.20631"><ele>167.2</ele><time>2030-06-23T10:25:21Z</time></trkpt>
   <trkpt lat="51.27936" lon="3.20633"><ele>166.7</ele><time>2030-06-23T10:25:31Z</time></trkpt>
   <trkpt lat="51.27914" lon="3.20635"><ele>166.3</ele><time>2030-06-23T10:25:41Z</time></trkpt>
   <trkpt lat="51.27891" lon="3.20637"><ele>165.8</ele><time>2030-06-23T10:25:51Z</time></trkpt>
   <trkpt lat="51.27869" lon="3.20640"><ele>165.4</ele><time>2030-06-23T10:26:01Z</time></trkpt>
   <trkpt lat="51.27847" lon="3.20642"><ele>164.9</ele><time>2030-06-23T10:26:11Z</time></trkpt>
   <trkpt lat="51.27824" lon="3.20644"><ele>164.5</ele><time>2030-06-23T10:26:21Z</time></trkpt>
   <trkpt lat="51.27802" lon="3.20646"><ele>164.0</ele><time>2030-06-23T10:26:31Z</time></trkpt>
   <trkpt lat="51.27780" lon="3.20648"><ele>163.6</ele><time>2030-06-23T10:26:41Z</time></trkpt>
   <trkpt lat="51.27757" lon="3.20650"><ele>163.1</ele><time>2030-06-23T10:26:51Z</time></trkpt>
   <trkpt lat="51.27735" lon="3.20652"><ele>162.7</ele><time>2030-06-23T10:27:01Z</time></trkpt>
   <trkpt lat="51.27713" lon="3.20654"><ele>162.3</ele><time>2030-06-23T10:27:11Z</time></trkpt>
   <trkpt lat="51.27690" lon="3.20656"><ele>161.8</ele><time>2030-06-23T10:27:21Z</time></trkpt>
   <trkpt lat="51.27668" lon="3.20658"><ele>161.4</ele><time>2030-06-23T10:27:31Z</time></trkpt>
   <trkpt lat="51.27645" lon="3.20660"><ele>160.9</ele><time>2030-06-23T10:27:41Z</time></trkpt>
   <trkpt lat="51.27623" lon="3.20662"><ele>160.5</ele><time>2030-06-23T10:27:51Z</time></trkpt>
   <trkpt lat="51.27601" lon="3.20664"><ele>160.0</ele><time>2030-06-23T10:28:01Z</time></trkpt>
   <trkpt lat="51.27578" lon="3.20665"><ele>159.6</ele><time>2030-06-23T10:28:11Z</time></trkpt>
   <trkpt lat="51.27556" lon="3.20667"><ele>159.1</ele><time>2030-06-23T10:28:21Z</time></trkpt>
   <trkpt lat="51.27534" lon="3.20669"><ele>158.7</ele><time>2030-06-23T10:28:31Z</time></trkpt>
   <trkpt lat="51.27511" lon="3.20671"><ele>158.2</ele><time>2030-06-23T10:28:41Z</time></trkpt>
   <trkpt lat="51.27489" lon="3.20673"><ele>157.8</ele><time>2030-06-23T10:28:51Z</time></trkpt>
   <trkpt lat="51.27467" lon="3.20675"><ele>157.3</ele><time>2030-06-23T10:29:01Z</time></trkpt>
   <trkpt lat="51.27444" lon="3.20677"><ele>156.9</ele><time>2030-06-23T10:29:11Z</time></trkpt>
   <trkpt lat="51.27422" lon="3.20679"><ele>156.4</ele><time>2030-06-23T10:29:21Z</time></trkpt>
   <trkpt lat="51.27400" lon="3.20681"><ele>156.0</ele><time>2030-06-23T10:29:31Z</time></trkpt>
   <trkpt lat="51.27377" lon="3.20683"><ele>155.5</ele><time>2030-06-23T10:29:41Z</time></trkpt>
   <trkpt lat="51.27355" lon="3.20684"><ele>155.1</ele><time>2030-06-23T10:29:51Z</time></trkpt>
   <trkpt lat="51.27333" lon="3.20686"><ele>154.7</ele><time>2030-06-23T10:30:01Z</time></trkpt>
   <trkpt lat="51.27310" lon="3.20688"><ele>154.2</ele><time>2030-06-23T10:30:11Z</time></trkpt>
   <trkpt lat="51.27288" lon="3.20690"><ele>153.8</ele><time>2030-06-23T10:30:21Z</time></trkpt>
   <trkpt lat="51.27266" lon="3.20692"><ele>153.3</ele><time>2030-06-23T10:30:31Z</time></trkpt>
   <trkpt lat="51.27243" lon="3.20694"><ele>152.9</ele><time>2030-06-23T10:30:41Z</time></trkpt>
   <trkpt lat="51.27221" lon="3.20695"><ele>152.4</ele><time>2030-06-23T10:30:51Z</time></trkpt>
   <trkpt lat="51.27198" lon="3.20697"><ele>152.0</ele><time>2030-06-23T10:31:01Z</time></trkpt>
   <trkpt lat="51.27176" lon="3.20699"><ele>151.5</ele><time>2030-06-23T10:31:11Z</time></trkpt>
   <trkpt lat="51.27154" lon="3.20701"><ele>151.1</ele><time>2030-06-23T10:31:21Z</time></trkpt>
   <trkpt lat="51.27131" lon="3.20702"><ele>150.6</ele><time>2030-06-23T10:31:31Z</time></trkpt>
   <trkpt lat="51.27109" lon="3.20704"><ele>150.2</ele><time>2030-06-23T10:31:41Z</time></trkpt>
   <trkpt lat="51.27087" lon="3.20706"><ele>149.7</ele><time>2030-06-23T10:31:51Z</time></trkpt>
   <trkpt lat="51.27064" lon="3.20708"><ele>149.3</ele><time>2030-06-23T10:32:01Z</time></trkpt>
   <trkpt lat="51.27042" lon="3.20709"><ele>148.8</ele><time>2030-06-23T10:32:11Z</time></trkpt>
   <trkpt lat="51.27020" lon="3.20711"><ele>148.4</ele><time>2030-06-23T10:32:21Z</time></trkpt>
   <trkpt lat="51.26997" lon="3.20713"><ele>147.9</ele><time>2030-06-23T10:32:31Z</time></trkpt>
   <trkpt lat="51.26975" lon="3.20714"><ele>147.5</ele><time>2030-06-23T10:32:41Z</time></trkpt>
   <trkpt lat="51.26953" lon="3.20716"><ele>147.1</ele><time>2030-06-23T10:32:51Z</time></trkpt>
   <trkpt lat="51.26930" lon="3.20718"><ele>146.6</ele><time>2030-06-23T10:33:01Z</time></trkpt>
   <trkpt lat="51.26908" lon="3.20719"><ele>146.2</ele><time>2030-06-23T10:33:11Z</time></trkpt>
   <trkpt lat="51.26886" lon="3.20721"><ele>145.7</ele><time>2030-06-23T10:33:21Z</time></trkpt>
   <trkpt lat="51.26863" lon="3.20722"><ele>145.3</ele><time>2030-06-23T10:33:31Z</time></trkpt>
   <trkpt lat="51.26841" lon="3.20724"><ele>144.8</ele><time>2030-06-23T10:33:41Z</time></trkpt>
   <trkpt lat="51.26818" lon="3.20726"><ele>144.4</ele><time>2030-06-23T10:33:51Z</time></trkpt>
   <trkpt lat="51.26796" lon="3.20727"><ele>143.9</ele><time>2030-06-23T10:34:01Z</time></trkpt>
   <trkpt lat="51.26774" lon="3.20729"><ele>143.5</ele><time>2030-06-23T10:34:11Z</time></trkpt>
   <trkpt lat="51.26751" lon="3.20730"><ele>143.0</ele><time>2030-06-23T10:34:21Z</time></trkpt>
   <trkpt lat="51.26729" lon="3.20732"><ele>142.6</ele><time>2030-06-23T10:34:31Z</time></trkpt>
   <trkpt lat="51.26707" lon="3.20733"><ele>142.1</ele><time>2030-06-23T10:34:41Z</time></trkpt>
   <trkpt lat="51.26684" lon="3.20735"><ele>141.7</ele><time>2030-06-23T10:34:51Z</time></trkpt>
   <trkpt lat="51.26662" lon="3.20736"><ele>141.2</ele><time>2030-06-23T10:35:01Z</time></trkpt>
   <trkpt lat="51.26640" lon="3.20738"><ele>140.8</ele><time>2030-06-23T10:35:11Z</time></trkpt>
   <trkpt lat="51.26617" lon="3.20739"><ele>140.3</ele><time>2030-06-23T10:35:21Z</time></trkpt>
   <trkpt lat="51.26595" lon="3.20741"><ele>139.9</ele><time>2030-06-23T10:35:31Z</time></trkpt>
   <trkpt lat="51.26573" lon="3.20742"><ele>139.5</ele><time>2030-06-23T10:35:41Z</time></trkpt>
   <trkpt lat="51.26550" lon="3.20744"><ele>139.0</ele><time>2030-06-23T10:35:51Z</time></trkpt>
   <trkpt lat="51.26528" lon="3.20745"><ele>138.6</ele><time>2030-06-23T10:36:01Z</time></trkpt>
   <trkpt lat="51.26506" lon="3.20746"><ele>138.1</ele><time>2030-06-23T10:36:11Z</time></trkpt>
   <trkpt lat="51.26483" lon="3.20748"><ele>137.7</ele><time>2030-06-23T10:36:21Z</time></trkpt>
   <trkpt lat="51.26461" lon="3.20749"><ele>137.2</ele><time>2030-06-23T10:36:31Z</time></trkpt>
   <trkpt lat="51.26438" lon="3.20751"><ele>136.8</ele><time>2030-06-23T10:36:41Z</time></trkpt>
   <trkpt lat="51.26416" lon="3.20752"><ele>136.3</ele><time>2030-06-23T10:36:51Z</time></trkpt>
   <trkpt lat="51.26394" lon="3.20753"><ele>135.9</ele><time>2030-06-23T10:37:01Z</time></trkpt>
   <trkpt lat="51.26371" lon="3.20755"><ele>135.4</ele><time>2030-06-23T10:37:11Z</time></trkpt>
   <trkpt lat="51.26349" lon="3.20756"><ele>135.0</ele><time>2030-06-23T10:37:21Z</time></trkpt>
   <trkpt lat="51.26327" lon="3.20757"><ele>134.5</ele><time>2030-06-23T10:37:31Z</time></trkpt>
   <trkpt lat="51.26304" lon="3.20758"><ele>134.1</ele><time>2030-06-23T10:37:41Z</time></trkpt>
   <trkpt lat="51.26282" lon="3.20760"><ele>133.6</ele><time>2030-06-23T10:37:51Z</time></trkpt>
   <trkpt lat="51.26260" lon="3.20761"><ele>133.2</ele><time>2030-06-23T10:38:01Z</time></trkpt>
   <trkpt lat="51.26237" lon="3.20762"><ele>132.7</ele><time>2030-06-23T10:38:11Z</time></trkpt>
   <trkpt lat="51.26215" lon="3.20763"><ele>132.3</ele><time>2030-06-23T10:38:21Z</time></trkpt>
   <trkpt lat="51.26193" lon="3.20765"><ele>131.9</ele><time>2030-06-23T10:38:31Z</time></trkpt>
   <trkpt lat="51.26170" lon="3.20766"><ele>131.4</ele><time>2030-06-23T10:38:41Z</time></trkpt>
   <trkpt lat="51.26148" lon="3.20767"><ele>131.0</ele><time>2030-06-23T10:38:51Z</time></trkpt>
   <trkpt lat="51.26126" lon="3.20768"><ele>130.5</ele><time>2030-06-23T10:39:01Z</time></trkpt>
   <trkpt lat="51.26103" lon="3.20769"><ele>130.1</ele><time>2030-06-23T10:39:11Z</time></trkpt>
   <trkpt lat="51.26081" lon="3.20770"><ele>129.6</ele><time>2030-06-23T10:39:21Z</time></trkpt>
   <trkpt lat="51.26059" lon="3.20771"><ele>129.2</ele><time>2030-06-23T10:39:31Z</time></trkpt>
   <trkpt lat="51.26036" lon="3.20773"><ele>128.7</ele><time>2030-06-23T10:39:41Z</time></trkpt>
   <trkpt lat="51.26014" lon="3.20774"><ele>128.3</ele><time>2030-06-23T10:39:51Z</time></trkpt>
   <trkpt lat="51.25991" lon="3.20775"><ele>127.8</ele><time>2030-06-23T10:40:01Z</time></trkpt>
   <trkpt lat="51.25969" lon="3.20776"><ele>127.4</ele><time>2030-06-23T10:40:11Z</time></trkpt>
   <trkpt lat="51.25947" lon="3.20777"><ele>126.9</ele><time>2030-06-23T10:40:21Z</time></trkpt>
   <trkpt lat="51.25924" lon="3.20778"><ele>126.5</ele><time>2030-06-23T10:40:31Z</time></trkpt>
   <trkpt lat="51.25902" lon="3.20779"><ele>126.0</ele><time>2030-06-23T10:40:41Z</time></trkpt>
   <trkpt lat="51.25880" lon="3.20780"><ele>125.6</ele><time>2030-06-23T10:40:51Z</time></trkpt>
   <trkpt lat="51.25857" lon="3.20781"><ele>125.1</ele><time>2030-06-23T10:41:01Z</time></trkpt>
   <trkpt lat="51.25835" lon="3.20782"><ele>124.7</ele><time>2030-06-23T10:41:11Z</time></trkpt>
   <trkpt lat="51.25813" lon="3.20783"><ele>124.3</ele><time>2030-06-23T10:41:21Z</time></trkpt>
   <trkpt lat="51.25790" lon="3.20784"><ele>123.8</ele><time>2030-06-23T10:41:31Z</time></trkpt>
   <trkpt lat="51.25768" lon="3.20785"><ele>123.4</ele><time>2030-06-23T10:41:41Z</time></trkpt>
   <trkpt lat="51.25746" lon="3.20786"><ele>122.9</ele><time>2030-06-23T10:41:51Z</time></trkpt>
   <trkpt lat="51.25723" lon="3.20786"><ele>122.5</ele><time>2030-06-23T10:42:01Z</time></trkpt>
   <trkpt lat="51.25701" lon="3.20787"><ele>122.0</ele><time>2030-06-23T10:42:11Z</time></trkpt>
   <trkpt lat="51.25679" lon="3.20788"><ele>121.6</ele><time>2030-06-23T10:42:21Z</time></trkpt>
   <trkpt lat="51.25656" lon="3.20789"><ele>121.1</ele><time>2030-06-23T10:42:31Z</time></trkpt>
   <trkpt lat="51.25634" lon="3.20790"><ele>120.7</ele><time>2030-06-23T10:42:41Z</time></trkpt>
   <trkpt lat="51.25611" lon="3.20791"><ele>120.2</ele><time>2030-06-23T10:42:51Z</time></trkpt>
   <trkpt lat="51.25589" lon="3.20791"><ele>119.8</ele><time>2030-06-23T10:43:01Z</time></trkpt>
   <trkpt lat="51.25567" lon="3.20792"><ele>119.3</ele><time>2030-06-23T10:43:11Z</time></trkpt>
   <trkpt lat="51.25544" lon="3.20793"><ele>118.9</ele><time>2030-06-23T10:43:21Z</time></trkpt>
   <trkpt lat="51.25522" lon="3.20794"><ele>118.4</ele><time>2030-06-23T10:43:31Z</time></trkpt>
   <trkpt lat="51.25500" lon="3.20794"><ele>118.0</ele><time>2030-06-23T10:43:41Z</time></trkpt>
   <trkpt lat="51.25477" lon="3.20795"><ele>117.5</ele><time>2030-06-23T10:43:51Z</time></trkpt>
   <trkpt lat="51.25455" lon="3.20796"><ele>117.1</ele><time>2030-06-23T10:44:01Z</time></trkpt>
   <trkpt lat="51.25433" lon="3.20796"><ele>116.7</ele><time>2030-06-23T10:44:11Z</time></trkpt>
   <trkpt lat="51.25410" lon="3.20797"><ele>116.2</ele><time>2030-06-23T10:44:21Z</time></trkpt>
   <trkpt lat="51.25388" lon="3.20798"><ele>115.8</ele><time>2030-06-23T10:44:31Z</time></trkpt>
   <trkpt lat="51.25366" lon="3.20798"><ele>115.3</ele><time>2030-06-23T10:44:41Z</time></trkpt>
   <trkpt lat="51.25343" lon="3.20799"><ele>114.9</ele><time>2030-06-23T10:44:51Z</time></trkpt>
   <trkpt lat="51.25321" lon="3.20800"><ele>114.4</ele><time>2030-06-23T10:45:01Z</time></trkpt>
   <trkpt lat="51.25299" lon="3.20800"><ele>114.0</ele><time>2030-06-23T10:45:11Z</time></trkpt>
   <trkpt lat="51.25276" lon="3.20801"><ele>113.5</ele><time>2030-06-23T10:45:21Z</time></trkpt>
   <trkpt lat="51.25254" lon="3.20801"><ele>113.1</ele><time>2030-06-23T10:45:31Z</time></trkpt>
   <trkpt lat="51.25231" lon="3.20802"><ele>112.6</ele><time>2030-06-23T10:45:41Z</time></trkpt>
   <trkpt lat="51.25209" lon="3.20802"><ele>112.2</ele><time>2030-06-23T10:45:51Z</time></trkpt>
   <trkpt lat="51.25187" lon="3.20803"><ele>111.7</ele><time>2030-06-23T10:46:01Z</time></trkpt>
   <trkpt lat="51.25164" lon="3.20803"><ele>111.3</ele><time>2030-06-23T10:46:11Z</time></trkpt>
   <trkpt lat="51.25142" lon="3.20804"><ele>110.8</ele><time>2030-06-23T10:46:21Z</time></trkpt>
   <trkpt lat="51.25120" lon="3.20804"><ele>110.4</ele><time>2030-06-23T10:46:31Z</time></trkpt>
   <trkpt lat="51.25097" lon="3.20805"><ele>109.9</ele><time>2030-06-23T10:46:41Z</time></trkpt>
   <trkpt lat="51.25075" lon="3.20805"><ele>109.5</ele><time>2030-06-23T10:46:51Z</time></trkpt>
   <trkpt lat="51.25053" lon="3.20806"><ele>109.1</ele><time>2030-06-23T10:47:01Z</time></trkpt>
   <trkpt lat="51.25030" lon="3.20806"><ele>108.6</ele><time>2030-06-23T10:47:11Z</time></trkpt>
   <trkpt lat="51.25008" lon="3.20806"><ele>108.2</ele><time>2030-06-23T10:47:21Z</time></trkpt>
   <trkpt lat="51.24986" lon="3.20807"><ele>107.7</ele><time>2030-06-23T10:47:31Z</time></trkpt>
   <trkpt lat="51.24963" lon="3.20807"><ele>107.3</ele><time>2030-06-23T10:47:41Z</time></trkpt>
   <trkpt lat="51.24941" lon="3.20807"><ele>106.8</ele><time>2030-06-23T10:47:51Z</time></trkpt>
   <trkpt lat="51.24919" lon="3.20808"><ele>106.4</ele><time>2030-06-23T10:48:01Z</time></trkpt>
   <trkpt lat="51.24896" lon="3.20808"><ele>105.9</ele><time>2030-06-23T10:48:11Z</time></trkpt>
   <trkpt lat="51.24874" lon="3.20808"><ele>105.5</ele><time>2030-06-23T10:48:21Z</time></trkpt>
   <trkpt lat="51.24852" lon="3.20808"><ele>105.0</ele><time>2030-06-23T10:48:31Z</time></trkpt>
   <trkpt lat="51.24829" lon="3.20809"><ele>104.6</ele><time>2030-06-23T10:48:41Z</time></trkpt>
   <trkpt lat="51.24807" lon="3.20809"><ele>104.1</ele><time>2030-06-23T10:48:51Z</time></trkpt>
   <trkpt lat="51.24784" lon="3.20809"><ele>103.7</ele><time>2030-06-23T10:49:01Z</time></trkpt>
   <trkpt lat="51.24762" lon="3.20809"><ele>103.2</ele><time>2030-06-23T10:49:11Z</time></trkpt>
   <trkpt lat="51.24740" lon="3.20809"><ele>102.8</ele><time>2030-06-23T10:49:21Z</time></trkpt>
   <trkpt lat="51.24717" lon="3.20809"><ele>102.3</ele><time>2030-06-23T10:49:31Z</time></trkpt>
   <trkpt lat="51.24695" lon="3.20810"><ele>101.9</ele><time>2030-06-23T10:49:41Z</time></trkpt>
   <trkpt lat="51.24673" lon="3.20810"><ele>101.5</ele><time>2030-06-23T10:49:51Z</time></trkpt>
   <trkpt lat="51.24650" lon="3.20810"><ele>101.0</ele><time>2030-06-23T10:50:01Z</time></trkpt>
   <trkpt lat="51.24628" lon="3.20810"><ele>100.6</ele><time>2030-06-23T10:50:11Z</time></trkpt>
   <trkpt lat="51.24606" lon="3.20810"><ele>100.1</ele><time>2030-06-23T10:50:21Z</time></trkpt>
   <trkpt lat="51.24583" lon="3.20810"><ele>99.7</ele><time>2030-06-23T10:50:31Z</time></trkpt>
   <trkpt lat="51.24561" lon="3.20810"><ele>99.2</ele><time>2030-06-23T10:50:41Z</time></trkpt>
   <trkpt lat="51.24539" lon="3.20810"><ele>98.8</ele><time>2030-06-23T10:50:51Z</time></trkpt>
   <trkpt lat="51.24516" lon="3.20810"><ele>98.3</ele><time>2030-06-23T10:51:02Z</time></trkpt>
   <trkpt lat="51.24494" lon="3.20810"><ele>97.9</ele><time>2030-06-23T10:51:12Z</time></trkpt>
   <trkpt lat="51.24472" lon="3.20810"><ele>97.4</ele><time>2030-06-23T10:51:22Z</time></trkpt>
   <trkpt lat="51.24449" lon="3.20810"><ele>97.0</ele><time>2030-06-23T10:51:32Z</time></trkpt>
   <trkpt lat="51.24427" lon="3.20810"><ele>96.5</ele><time>2030-06-23T10:51:42Z</time></trkpt>
   <trkpt lat="51.24404" lon="3.20810"><ele>96.1</ele><time>2030-06-23T10:51:52Z</time></trkpt>
   <trkpt lat="51.24382" lon="3.20810"><ele>95.6</ele><time>2030-06-23T10:52:02Z</time></trkpt>
   <trkpt lat="51.24360" lon="3.20809"><ele>95.2</ele><time>2030-06-23T10:52:12Z</time></trkpt>
   <trkpt lat="51.24337" lon="3.20809"><ele>94.7</ele><time>2030-06-23T10:52:22Z</time></trkpt>
   <trkpt lat="51.24315" lon="3.20809"><ele>94.3</ele><time>2030-06-23T10:52:32Z</time></trkpt>
   <trkpt lat="51.24293" lon="3.20809"><ele>93.9</ele><time>2030-06-23T10:52:42Z</time></trkpt>
   <trkpt lat="51.24270" lon="3.20809"><ele>93.4</ele><time>2030-06-23T10:52:52Z</time></trkpt>
   <trkpt lat="51.24248" lon="3.20809"><ele>93.0</ele><time>2030-06-23T10:53:02Z</time></trkpt>
   <trkpt lat="51.24226" lon="3.20808"><ele>92.5</ele><time>2030-06-23T10:53:12Z</time></trkpt>
   <trkpt lat="51.24203" lon="3.20808"><ele>92.1</ele><time>2030-06-23T10:53:22Z</time></trkpt>
   <trkpt lat="51.24181" lon="3.20808"><ele>91.6</ele><time>2030-06-23T10:53:32Z</time></trkpt>
   <trkpt lat="51.24159" lon="3.20808"><ele>91.2</ele><time>2030-06-23T10:53:42Z</time></trkpt>
   <trkpt lat="51.24136" lon="3.20807"><ele>90.7</ele><time>2030-06-23T10:53:52Z</time></trkpt>
   <trkpt lat="51.24114" lon="3.20807"><ele>90.3</ele><time>2030-06-23T10:54:02Z</time></trkpt>
   <trkpt lat="51.24092" lon="3.20807"><ele>89.8</ele><time>2030-06-23T10:54:12Z</time></trkpt>
   <trkpt lat="51.24069" lon="3.20806"><ele>89.4</ele><time>2030-06-23T10:54:22Z</time></trkpt>
   <trkpt lat="51.24047" lon="3.20806"><ele>88.9</ele><time>2030-06-23T10:54:32Z</time></trkpt>
   <trkpt lat="51.24024" lon="3.20806"><ele>88.5</ele><time>2030-06-23T10:54:42Z</time></trkpt>
   <trkpt lat="51.24002" lon="3.20805"><ele>88.0</ele><time>2030-06-23T10:54:52Z</time></trkpt>
   <trkpt lat="51.23980" lon="3.20805"><ele>87.6</ele><time>2030-06-23T10:55:02Z</time></trkpt>
   <trkpt lat="51.23957" lon="3.20804"><ele>87.1</ele><time>2030-06-23T10:55:12Z</time></trkpt>
   <trkpt lat="51.23935" lon="3.20804"><ele>86.7</ele><time>2030-06-23T10:55:22Z</time></trkpt>
   <trkpt lat="51.23913" lon="3.20803"><ele>86.3</ele><time>2030-06-23T10:55:32Z</time></trkpt>
   <trkpt lat="51.23890" lon="3.20803"><ele>85.8</ele><time>2030-06-23T10:55:42Z</time></trkpt>
   <trkpt lat="51.23868" lon="3.20802"><ele>85.4</ele><time>2030-06-23T10:55:52Z</time></trkpt>
   <trkpt lat="51.23846" lon="3.20802"><ele>84.9</ele><time>2030-06-23T10:56:02Z</time></trkpt>
   <trkpt lat="51.23823" lon="3.20801"><ele>84.5</ele><time>2030-06-23T10:56:12Z</time></trkpt>
   <trkpt lat="51.23801" lon="3.20801"><ele>84.0</ele><time>2030-06-23T10:56:22Z</time></trkpt>
   <trkpt lat="51.23779" lon="3.20800"><ele>83.6</ele><time>2030-06-23T10:56:32Z</time></trkpt>
   <trkpt lat="51.23756" lon="3.20800"><ele>83.1</ele><time>2030-06-23T10:56:42Z</time></trkpt>
   <trkpt lat="51.23734" lon="3.20799"><ele>82.7</ele><time>2030-06-23T10:56:52Z</time></trkpt>
   <trkpt lat="51.23712" lon="3.20798"><ele>82.2</ele><time>2030-06-23T10:57:02Z</time></trkpt>
   <trkpt lat="51.23689" lon="3.20798"><ele>81.8</ele><time>2030-06-23T10:57:12Z</time></trkpt>
   <trkpt lat="51.23667" lon="3.20797"><ele>81.3</ele><time>2030-06-23T10:57:22Z</time></trkpt>
   <trkpt lat="51.23645" lon="3.20796"><ele>80.9</ele><time>2030-06-23T10:57:32Z</time></trkpt>
   <trkpt lat="51.23622" lon="3.20796"><ele>80.4</ele><time>2030-06-23T10:57:42Z</time></trkpt>
   <trkpt lat="51.23600" lon="3.20795"><ele>80.0</ele><time>2030-06-23T10:57:52Z</time></trkpt>
   <trkpt lat="51.23577" lon="3.20794"><ele>79.5</ele><time>2030-06-23T10:58:02Z</time></trkpt>
   <trkpt lat="51.23555" lon="3.20794"><ele>79.1</ele><time>2030-06-23T10:58:12Z</time></trkpt>
   <trkpt lat="51.23533" lon="3.20793"><ele>78.7</ele><time>2030-06-23T10:58:22Z</time></trkpt>
   <trkpt lat="51.23510" lon="3.20792"><ele>78.2</ele><time>2030-06-23T10:58:32Z</time></trkpt>
   <trkpt lat="51.23488" lon="3.20791"><ele>77.8</ele><time>2030-06-23T10:58:42Z</time></trkpt>
   <trkpt lat="51.23466" lon="3.20791"><ele>77.3</ele><time>2030-06-23T10:58:52Z</time></trkpt>
   <trkpt lat="51.23443" lon="3.20790"><ele>76.9</ele><time>2030-06-23T10:59:02Z</time></trkpt>
   <trkpt lat="51.23421" lon="3.20789"><ele>76.4</ele><time>2030-06-23T10:59:12Z</time></trkpt>
   <trkpt lat="51.23399" lon="3.20788"><ele>76.0</ele><time>2030-06-23T10:59:22Z</time></trkpt>
   <trkpt lat="51.23376" lon="3.20787"><ele>75.5</ele><time>2030-06-23T10:59:32Z</time></trkpt>
   <trkpt lat="51.23354" lon="3.20786"><ele>75.1</ele><time>2030-06-23T10:59:42Z</time></trkpt>
   <trkpt lat="51.23332" lon="3.20786"><ele>74.6</ele><time>2030-06-23T10:59:52Z</time></trkpt>
   <trkpt lat="51.23309" lon="3.20785"><ele>74.2</ele><time>2030-06-23T11:00:02Z</time></trkpt>
   <trkpt lat="51.23287" lon="3.20784"><ele>73.7</ele><time>2030-06-23T11:00:12Z</time></trkpt>
   <trkpt lat="51.23265" lon="3.20783"><ele>73.3</ele><time>2030-06-23T11:00:22Z</time></trkpt>
   <trkpt lat="51.23242" lon="3.20782"><ele>72.8</ele><time>2030-06-23T11:00:32Z</time></trkpt>
   <trkpt lat="51.23220" lon="3.20781"><ele>72.4</ele><time>2030-06-23T11:00:42Z</time></trkpt>
   <trkpt lat="51.23197" lon="3.20780"><ele>71.9</ele><time>2030-06-23T11:00:52Z</time></trkpt>
   <trkpt lat="51.23175" lon="3.20779"><ele>71.5</ele><time>2030-06-23T11:01:02Z</time></trkpt>
   <trkpt lat="51.23153" lon="3.20778"><ele>71.1</ele><time>2030-06-23T11:01:12Z</time></trkpt>
   <trkpt lat="51.23130" lon="3.20777"><ele>70.6</ele><time>2030-06-23T11:01:22Z</time></trkpt>
   <trkpt lat="51.23108" lon="3.20776"><ele>70.2</ele><time>2030-06-23T11:01:32Z</time></trkpt>
   <trkpt lat="51.23086" lon="3.20775"><ele>69.7</ele><time>2030-06-23T11:01:42Z</time></trkpt>
   <trkpt lat="51.23063" lon="3.20774"><ele>69.3</ele><time>2030-06-23T11:01:52Z</time></trkpt>
   <trkpt lat="51.23041" lon="3.20773"><ele>68.8</ele><time>2030-06-23T11:02:02Z</time></trkpt>
   <trkpt lat="51.23019" lon="3.20771"><ele>68.4</ele><time>2030-06-23T11:02:12Z</time></trkpt>
   <trkpt lat="51.22996" lon="3.20770"><ele>67.9</ele><time>2030-06-23T11:02:22Z</time></trkpt>
   <trkpt lat="51.22974" lon="3.20769"><ele>67.5</ele><time>2030-06-23T11:02:32Z</time></trkpt>
   <trkpt lat="51.22952" lon="3.20768"><ele>67.0</ele><time>2030-06-23T11:02:42Z</time></trkpt>
   <trkpt lat="51.22929" lon="3.20767"><ele>66.6</ele><time>2030-06-23T11:02:52Z</time></trkpt>
   <trkpt lat="51.22907" lon="3.20766"><ele>66.1</ele><time>2030-06-23T11:03:02Z</time></trkpt>
   <trkpt lat="51.22885" lon="3.20765"><ele>65.7</ele><time>2030-06-23T11:03:12Z</time></trkpt>
   <trkpt lat="51.22862" lon="3.20763"><ele>65.2</ele><time>2030-06-23T11:03:22Z</time></trkpt>
   <trkpt lat="51.22840" lon="3.20762"><ele>64.8</ele><time>2030-06-23T11:03:32Z</time></trkpt>
   <trkpt lat="51.22817" lon="3.20761"><ele>64.3</ele><time>2030-06-23T11:03:42Z</time></trkpt>
   <trkpt lat="51.22795" lon="3.20760"><ele>63.9</ele><time>2030-06-23T11:03:52Z</time></trkpt>
   <trkpt lat="51.22773" lon="3.20758"><ele>63.5</ele><time>2030-06-23T11:04:02Z</time></trkpt>
   <trkpt lat="51.22750" lon="3.20757"><ele>63.0</ele><time>2030-06-23T11:04:12Z</time></trkpt>
   <trkpt lat="51.22728" lon="3.20756"><ele>62.6</ele><time>2030-06-23T11:04:22Z</time></trkpt>
   <trkpt lat="51.22706" lon="3.20755"><ele>62.1</ele><time>2030-06-23T11:04:32Z</time></trkpt>
   <trkpt lat="51.22683" lon="3.20753"><ele>61.7</ele><time>2030-06-23T11:04:42Z</time></trkpt>
   <trkpt lat="51.22661" lon="3.20752"><ele>61.2</ele><time>2030-06-23T11:04:52Z</time></trkpt>
   <trkpt lat="51.22639" lon="3.20751"><ele>60.8</ele><time>2030-06-23T11:05:02Z</time></trkpt>
   <trkpt lat="51.22616" lon="3.20749"><ele>60.3</ele><time>2030-06-23T11:05:12Z</time></trkpt>
   <trkpt lat="51.22594" lon="3.20748"><ele>59.9</ele><time>2030-06-23T11:05:22Z</time></trkpt>
   <trkpt lat="51.22572" lon="3.20746"><ele>59.4</ele><time>2030-06-23T11:05:32Z</time></trkpt>
   <trkpt lat="51.22549" lon="3.20745"><ele>59.0</ele><time>2030-06-23T11:05:42Z</time></trkpt>
   <trkpt lat="51.22527" lon="3.20744"><ele>58.5</ele><time>2030-06-23T11:05:52Z</time></trkpt>
   <trkpt lat="51.22505" lon="3.20742"><ele>58.1</ele><time>2030-06-23T11:06:02Z</time></trkpt>
   <trkpt lat="51.22482" lon="3.20741"><ele>57.6</ele><time>2030-06-23T11:06:12Z</time></trkpt>
   <trkpt lat="51.22460" lon="3.20739"><ele>57.2</ele><time>2030-06-23T11:06:22Z</time></trkpt>
   <trkpt lat="51.22438" lon="3.20738"><ele>56.8</ele><time>2030-06-23T11:06:32Z</time></trkpt>
   <trkpt lat="51.22415" lon="3.20736"><ele>56.3</ele><time>2030-06-23T11:06:42Z</time></trkpt>
   <trkpt lat="51.22393" lon="3.20735"><ele>55.9</ele><time>2030-06-23T11:06:52Z</time></trkpt>
   <trkpt lat="51.22370" lon="3.20733"><ele>55.4</ele><time>2030-06-23T11:07:02Z</time></trkpt>
   <trkpt lat="51.22348" lon="3.20732"><ele>55.0</ele><time>2030-06-23T11:07:12Z</time></trkpt>
   <trkpt lat="51.22326" lon="3.20730"><ele>54.5</ele><time>2030-06-23T11:07:22Z</time></trkpt>
   <trkpt lat="51.22303" lon="3.20729"><ele>54.1</ele><time>2030-06-23T11:07:32Z</time></trkpt>
   <trkpt lat="51.22281" lon="3.20727"><ele>53.6</ele><time>2030-06-23T11:07:42Z</time></trkpt>
   <trkpt lat="51.22259" lon="3.20726"><ele>53.2</ele><time>2030-06-23T11:07:52Z</time></trkpt>
   <trkpt lat="51.22236" lon="3.20724"><ele>52.7</ele><time>2030-06-23T11:08:02Z</time></trkpt>
   <trkpt lat="51.22214" lon="3.20722"><ele>52.3</ele><time>2030-06-23T11:08:12Z</time></trkpt>
   <trkpt lat="51.22192" lon="3.20721"><ele>51.8</ele><time>2030-06-23T11:08:22Z</time></trkpt>
   <trkpt lat="51.22169" lon="3.20719"><ele>51.4</ele><time>2030-06-23T11:08:32Z</time></trkpt>
   <trkpt lat="51.22147" lon="3.20718"><ele>50.9</ele><time>2030-06-23T11:08:42Z</time></trkpt>
   <trkpt lat="51.22125" lon="3.20716"><ele>50.5</ele><time>2030-06-23T11:08:52Z</time></trkpt>
   <trkpt lat="51.22102" lon="3.20714"><ele>50.0</ele><time>2030-06-23T11:09:02Z</time></trkpt>
   <trkpt lat="51.22080" lon="3.20713"><ele>49.6</ele><time>2030-06-23T11:09:12Z</time></trkpt>
   <trkpt lat="51.22058" lon="3.20711"><ele>49.2</ele><time>2030-06-23T11:09:22Z</time></trkpt>
   <trkpt lat="51.22035" lon="3.20709"><ele>48.7</ele><time>2030-06-23T11:09:32Z</time></trkpt>
   <trkpt lat="51.22013" lon="3.20708"><ele>48.3</ele><time>2030-06-23T11:09:42Z</time></trkpt>
   <trkpt lat="51.21990" lon="3.20706"><ele>47.8</ele><time>2030-06-23T11:09:52Z</time></trkpt>
   <trkpt lat="51.21968" lon="3.20704"><ele>47.4</ele><time>2030-06-23T11:10:02Z</time></trkpt>
   <trkpt lat="51.21946" lon="3.20702"><ele>46.9</ele><time>2030-06-23T11:10:12Z</time></trkpt>
   <trkpt lat="51.21923" lon="3.20701"><ele>46.5</ele><time>2030-06-23T11:10:22Z</time></trkpt>
   <trkpt lat="51.21901" lon="3.20699"><ele>46.0</ele><time>2030-06-23T11:10:32Z</time></trkpt>
   <trkpt lat="51.21879" lon="3.20697"><ele>45.6</ele><time>2030-06-23T11:10:42Z</time></trkpt>
   <trkpt lat="51.21856" lon="3.20695"><ele>45.1</ele><time>2030-06-23T11:10:52Z</time></trkpt>
   <trkpt lat="51.21834" lon="3.20694"><ele>44.7</ele><time>2030-06-23T11:11:02Z</time></trkpt>
   <trkpt lat="51.21812" lon="3.20692"><ele>44.2</ele><time>2030-06-23T11:11:12Z</time></trkpt>
   <trkpt lat="51.21789" lon="3.20690"><ele>43.8</ele><time>2030-06-23T11:11:22Z</time></trkpt>
   <trkpt lat="51.21767" lon="3.20688"><ele>43.3</ele><time>2030-06-23T11:11:32Z</time></trkpt>
   <trkpt lat="51.21745" lon="3.20686"><ele>42.9</ele><time>2030-06-23T11:11:42Z</time></trkpt>
   <trkpt lat="51.21722" lon="3.20684"><ele>42.4</ele><time>2030-06-23T11:11:52Z</time></trkpt>
   <trkpt lat="51.21700" lon="3.20683"><ele>42.0</ele><time>2030-06-23T11:12:02Z</time></trkpt>
   <trkpt lat="51.21678" lon="3.20681"><ele>41.6</ele><time>2030-06-23T11:12:12Z</time></trkpt>
   <trkpt lat="51.21655" lon="3.20679"><ele>41.1</ele><time>2030-06-23T11:12:22Z</time></trkpt>
   <trkpt lat="51.21633" lon="3.20677"><ele>40.7</ele><time>2030-06-23T11:12:32Z</time></trkpt>
   <trkpt lat="51.21610" lon="3.20675"><ele>40.2</ele><time>2030-06-23T11:12:42Z</time></trkpt>
   <trkpt lat="51.21588" lon="3.20673"><ele>39.8</ele><time>2030-06-23T11:12:52Z</time></trkpt>
   <trkpt lat="51.21566" lon="3.20671"><ele>39.3</ele><time>2030-06-23T11:13:02Z</time></trkpt>
   <trkpt lat="51.21543" lon="3.20669"><ele>38.9</ele><time>2030-06-23T11:13:12Z</time></trkpt>
   <trkpt lat="51.21521" lon="3.20667"><ele>38.4</ele><time>2030-06-23T11:13:22Z</time></trkpt>
   <trkpt lat="51.21499" lon="3.20665"><ele>38.0</ele><time>2030-06-23T11:13:32Z</time></trkpt>
   <trkpt lat="51.21476" lon="3.20664"><ele>37.5</ele><time>2030-06-23T11:13:42Z</time></trkpt>
   <trkpt lat="51.21454" lon="3.20662"><ele>37.1</ele><time>2030-06-23T11:13:52Z</time></trkpt>
   <trkpt lat="51.21432" lon="3.20660"><ele>36.6</ele><time>2030-06-23T11:14:02Z</time></trkpt>
   <trkpt lat="51.21409" lon="3.20658"><ele>36.2</ele><time>2030-06-23T11:14:12Z</time></trkpt>
   <trkpt lat="51.21387" lon="3.20656"><ele>35.7</ele><time>2030-06-23T11:14:22Z</time></trkpt>
   <trkpt lat="51.21365" lon="3.20654"><ele>35.3</ele><time>2030-06-23T11:14:32Z</time></trkpt>
   <trkpt lat="51.21342" lon="3.20652"><ele>34.8</ele><time>2030-06-23T11:14:42Z</time></trkpt>
   <trkpt lat="51.21320" lon="3.20650"><ele>34.4</ele><time>2030-06-23T11:14:52Z</time></trkpt>
   <trkpt lat="51.21298" lon="3.20648"><ele>34.0</ele><time>2030-06-23T11:15:02Z</time></trkpt>
   <trkpt lat="51.21275" lon="3.20646"><ele>33.5</ele><time>2030-06-23T11:15:12Z</time></trkpt>
   <trkpt lat="51.21253" lon="3.20644"><ele>33.1</ele><time>2030-06-23T11:15:22Z</time></trkpt>
   <trkpt lat="51.21231" lon="3.20642"><ele>32.6</ele><time>2030-06-23T11:15:32Z</time></trkpt>
   <trkpt lat="51.21208" lon="3.20640"><ele>32.2</ele><time>2030-06-23T11:15:42Z</time></trkpt>
   <trkpt lat="51.21186" lon="3.20637"><ele>31.7</ele><time>2030-06-23T11:15:52Z</time></trkpt>
   <trkpt lat="51.21163" lon="3.20635"><ele>31.3</ele><time>2030-06-23T11:16:02Z</time></trkpt>
   <trkpt lat="51.21141" lon="3.20633"><ele>30.8</ele><time>2030-06-23T11:16:12Z</time></trkpt>
   <trkpt lat="51.21119" lon="3.20631"><ele>30.4</ele><time>2030-06-23T11:16:22Z</time></trkpt>
   <trkpt lat="51.21096" lon="3.20629"><ele>29.9</ele><time>2030-06-23T11:16:32Z</time></trkpt>
   <trkpt lat="51.21074" lon="3.20627"><ele>29.5</ele><time>2030-06-23T11:16:42Z</time></trkpt>
   <trkpt lat="51.21052" lon="3.20625"><ele>29.0</ele><time>2030-06-23T11:16:52Z</time></trkpt>
   <trkpt lat="51.21029" lon="3.20623"><ele>28.6</ele><time>2030-06-23T11:17:02Z</time></trkpt>
   <trkpt lat="51.21007" lon="3.20621"><ele>28.1</ele><time>2030-06-23T11:17:12Z</time></trkpt>
   <trkpt lat="51.20985" lon="3.20619"><ele>27.7</ele><time>2030-06-23T11:17:22Z</time></trkpt>
   <trkpt lat="51.20962" lon="3.20617"><ele>27.2</ele><time>2030-06-23T11:17:32Z</time></trkpt>
   <trkpt lat="51.20940" lon="3.20614"><ele>26.8</ele><time>2030-06-23T11:17:42Z</time></trkpt>
   <trkpt lat="51.20918" lon="3.20612"><ele>26.4</ele><time>2030-06-23T11:17:52Z</time></trkpt>
   <trkpt lat="51.20895" lon="3.20610"><ele>25.9</ele><time>2030-06-23T11:18:02Z</time></trkpt>
   <trkpt lat="51.20873" lon="3.20608"><ele>25.5</ele><time>2030-06-23T11:18:12Z</time></trkpt>
   <trkpt lat="51.20851" lon="3.20606"><ele>25.0</ele><time>2030-06-23T11:18:22Z</time></trkpt>
   <trkpt lat="51.20828" lon="3.20604"><ele>24.6</ele><time>2030-06-23T11:18:32Z</time></trkpt>
   <trkpt lat="51.20806" lon="3.20601"><ele>24.1</ele><time>2030-06-23T11:18:42Z</time></trkpt>
   <trkpt lat="51.20783" lon="3.20599"><ele>23.7</ele><time>2030-06-23T11:18:52Z</time></trkpt>
   <trkpt lat="51.20761" lon="3.20597"><ele>23.2</ele><time>2030-06-23T11:19:02Z</time></trkpt>
   <trkpt lat="51.20739" lon="3.20595"><ele>22.8</ele><time>2030-06-23T11:19:12Z</time></trkpt>
   <trkpt lat="51.20716" lon="3.20593"><ele>22.3</ele><time>2030-06-23T11:19:22Z</time></trkpt>
   <trkpt lat="51.20694" lon="3.20591"><ele>21.9</ele><time>2030-06-23T11:19:32Z</time></trkpt>
   <trkpt lat="51.20672" lon="3.20588"><ele>21.4</ele><time>2030-06-23T11:19:42Z</time></trkpt>
   <trkpt lat="51.20649" lon="3.20586"><ele>21.0</ele><time>2030-06-23T11:19:52Z</time></trkpt>
   <trkpt lat="51.20627" lon="3.20584"><ele>20.5</ele><time>2030-06-23T11:20:02Z</time></trkpt>
   <trkpt lat="51.20605" lon="3.20582"><ele>20.1</ele><time>2030-06-23T11:20:12Z</time></trkpt>
   <trkpt lat="51.20582" lon="3.20579"><ele>19.6</ele><time>2030-06-23T11:20:22Z</time></trkpt>
   <trkpt lat="51.20560" lon="3.20577"><ele>19.2</ele><time>2030-06-23T11:20:32Z</time></trkpt>
   <trkpt lat="51.20538" lon="3.20575"><ele>18.8</ele><time>2030-06-23T11:20:42Z</time></trkpt>
   <trkpt lat="51.20515" lon="3.20573"><ele>18.3</ele><time>2030-06-23T11:20:52Z</time></trkpt>
   <trkpt lat="51.20493" lon="3.20571"><ele>17.9</ele><time>2030-06-23T11:21:02Z</time></trkpt>
   <trkpt lat="51.20471" lon="3.20568"><ele>17.4</ele><time>2030-06-23T11:21:12Z</time></trkpt>
   <trkpt lat="51.20448" lon="3.20566"><ele>17.0</ele><time>2030-06-23T11:21:22Z</time></trkpt>
   <trkpt lat="51.20426" lon="3.20564"><ele>16.5</ele><time>2030-06-23T11:21:32Z</time></trkpt>
   <trkpt lat="51.20403" lon="3.20562"><ele>16.1</ele><time>2030-06-23T11:21:42Z</time></trkpt>
   <trkpt lat="51.20381" lon="3.20559"><ele>15.6</ele><time>2030-06-23T11:21:52Z</time></trkpt>
   <trkpt lat="51.20359" lon="3.20557"><ele>15.2</ele><time>2030-06-23T11:22:02Z</time></trkpt>
   <trkpt lat="51.20336" lon="3.20555"><ele>14.7</ele><time>2030-06-23T11:22:12Z</time></trkpt>
   <trkpt lat="51.20314" lon="3.20553"><ele>14.3</ele><time>2030-06-23T11:22:22Z</time></trkpt>
   <trkpt lat="51.20292" lon="3.20550"><ele>13.8</ele><time>2030-06-23T11:22:32Z</time></trkpt>
   <trkpt lat="51.20269" lon="3.20548"><ele>13.4</ele><time>2030-06-23T11:22:42Z</time></trkpt>
   <trkpt lat="51.20247" lon="3.20546"><ele>12.9</ele><time>2030-06-23T11:22:52Z</time></trkpt>
   <trkpt lat="51.20225" lon="3.20543"><ele>12.5</ele><time>2030-06-23T11:23:02Z</time></trkpt>
   <trkpt lat="51.20202" lon="3.20541"><ele>12.0</ele><time>2030-06-23T11:23:12Z</time></trkpt>
   <trkpt lat="51.20180" lon="3.20539"><ele>11.6</ele><time>2030-06-23T11:23:22Z</time></trkpt>
   <trkpt lat="51.20158" lon="3.20537"><ele>11.2</ele><time>2030-06-23T11:23:32Z</time></trkpt>
   <trkpt lat="51.20135" lon="3.20534"><ele>10.7</ele><time>2030-06-23T11:23:42Z</time></trkpt>
   <trkpt lat="51.20113" lon="3.20532"><ele>10.3</ele><time>2030-06-23T11:23:52Z</time></trkpt>
   <trkpt lat="51.20091" lon="3.20530"><ele>9.8</ele><time>2030-06-23T11:24:02Z</time></trkpt>
   <trkpt lat="51.20068" lon="3.20528"><ele>9.4</ele><time>2030-06-23T11:24:12Z</time></trkpt>
   <trkpt lat="51.20046" lon="3.20525"><ele>8.9</ele><time>2030-06-23T11:24:22Z</time></trkpt>
   <trkpt lat="51.20024" lon="3.20523"><ele>8.5</ele><time>2030-06-23T11:24:32Z</time></trkpt>
   <trkpt lat="51.20001" lon="3.20521"><ele>8.0</ele><time>2030-06-23T11:24:42Z</time></trkpt>
   <trkpt lat="51.19979" lon="3.20518"><ele>7.6</ele><time>2030-06-23T11:24:52Z</time></trkpt>
   <trkpt lat="51.19956" lon="3.20516"><ele>7.1</ele><time>2030-06-23T11:25:02Z</time></trkpt>
   <trkpt lat="51.19934" lon="3.20514"><ele>6.7</ele><time>2030-06-23T11:25:12Z</time></trkpt>
   <trkpt lat="51.19912" lon="3.20511"><ele>6.2</ele><time>2030-06-23T11:25:22Z</time></trkpt>
   <trkpt lat="51.19889" lon="3.20509"><ele>5.8</ele><time>2030-06-23T11:25:32Z</time></trkpt>
   <trkpt lat="51.19867" lon="3.20507"><ele>5.3</ele><time>2030-06-23T11:25:42Z</time></trkpt>
   <trkpt lat="51.19845" lon="3.20505"><ele>4.9</ele><time>2030-06-23T11:25:52Z</time></trkpt>
   <trkpt lat="51.19822" lon="3.20502"><ele>4.4</ele><time>2030-06-23T11:26:02Z</time></trkpt>
   <trkpt lat="51.19800" lon="3.20500"><ele>4.0</ele><time>2030-06-23T11:26:12Z</time></trkpt>
 </trkseg></trk>
</gpx>
