<?xml version="1.0" encoding="UTF-8"?>
<gpx version="1.1" creator="vitai-demo" xmlns="http://www.topografix.com/GPX/1/1">
 <trk><name>river-ten</name><trkseg>
   <trkpt lat="51.19800" lon="3.20500"><ele>4.0</ele><time>2030-06-30T09:20:00Z</time></trkpt>
   <trkpt lat="51.19823" lon="3.20505"><ele>4.5</ele><time>2030-06-30T09:20:10Z</time></trkpt>
   <trkpt lat="51.19846" lon="3.20511"><ele>4.9</ele><time>2030-06-30T09:20:20Z</time></trkpt>
   <trkpt lat="51.19869" lon="3.20516"><ele>5.4</ele><time>2030-06-30T09:20:30Z</time></trkpt>
   <trkpt lat="51.19892" lon="3.20521"><ele>5.8</ele><time>2030-06-30T09:20:40Z</time></trkpt>
   <trkpt lat="51.19915" lon="3.20526"><ele>6.3</ele><time>2030-06-30T09:20:50Z</time></trkpt>
   <trkpt lat="51.19938" lon="3.20532"><ele>6.8</ele><time>2030-06-30T09:21:00Z</time></trkpt>
   <trkpt lat="51.19961" lon="3.20537"><ele>7.2</ele><time>2030-06-30T09:21:10Z</time></trkpt>
   <trkpt lat="51.19984" lon="3.20542"><ele>7.7</ele><time>2030-06-30T09:21:20Z</time></trkpt>
   <trkpt lat="51.20007" lon="3.20547"><ele>8.1</ele><time>2030-06-30T09:21:30Z</time></trkpt>
   <trkpt lat="51.20030" lon="3.20553"><ele>8.6</ele><time>2030-06-30T09:21:40Z</time></trkpt>
   <trkpt lat="51.20053" lon="3.20558"><ele>9.1</ele><time>2030-06-30T09:21:50Z</time></trkpt>
   <trkpt lat="51.20076" lon="3.20563"><ele>9.5</ele><time>2030-06-30T09:22:00Z</time></trkpt>
   <trkpt lat="51.20099" lon="3.20568"><ele>10.0</ele><time>2030-06-30T09:22:10Z</time></trkpt>
   <trkpt lat="51.20122" lon="3.20573"><ele>10.4</ele><time>2030-06-30T09:22:20Z</time></trkpt>
   <trkpt lat="51.20145" lon="3.20579"><ele>10.9</ele><time>2030-06-30T09:22:30Z</time></trkpt>
   <trkpt lat="51.20168" lon="3.20584"><ele>11.4</ele><time>2030-06-30T09:22:40Z</time></trkpt>
   <trkpt lat="51.20190" lon="3.20589"><ele>11.8</ele><time>2030-06-30T09:22:50Z</time></trkpt>
   <trkpt lat="51.20213" lon="3.20594"><ele>12.3</ele><time>2030-06-30T09:23:00Z</time></trkpt>
   <trkpt lat="51.20236" lon="3.20599"><ele>12.7</ele><time>2030-06-30T09:23:10Z</time></trkpt>
   <trkpt lat="51.20259" lon="3.20604"><ele>13.2</ele><time>2030-06-30T09:23:20Z</time></trkpt>
   <trkpt lat="51.20282" lon="3.20609"><ele>13.6</ele><time>2030-06-30T09:23:31Z</time></trkpt>
   <trkpt lat="51.20305" lon="3.20614"><ele>14.1</ele><time>2030-06-30T09:23:41Z</time></trkpt>
   <trkpt lat="51.20328" lon="3.20619"><ele>14.6</ele><time>2030-06-30T09:23:51Z</time></trkpt>
   <trkpt lat="51.20351" lon="3.20624"><ele>15.0</ele><time>2030-06-30T09:24:01Z</time></trkpt>
   <trkpt lat="51.20374" lon="3.20628"><ele>15.5</ele><time>2030-06-30T09:24:11Z</time></trkpt>
   <trkpt lat="51.20397" lon="3.20633"><ele>15.9</ele><time>2030-06-30T09:24:21Z</time></trkpt>
   <trkpt lat="51.20420" lon="3.20638"><ele>16.4</ele><time>2030-06-30T09:24:31Z</time></trkpt>
   <trkpt lat="51.20443" lon="3.20643"><ele>16.9</ele><time>2030-06-30T09:24:41Z</time></trkpt>
   <trkpt lat="51.20466" lon="3.20647"><ele>17.3</ele><time>2030-06-30T09:24:51Z</time></trkpt>
   <trkpt lat="51.20489" lon="3.20652"><ele>17.8</ele><time>2030-06-30T09:25:01Z</time></trkpt>
   <trkpt lat="51.20512" lon="3.20657"><ele>18.2</ele><time>2030-06-30T09:25:11Z</time></trkpt>
   <trkpt lat="51.20535" lon="3.20661"><ele>18.7</ele><time>2030-06-30T09:25:21Z</time></trkpt>
   <trkpt lat="51.20558" lon="3.20666"><ele>19.2</ele><time>2030-06-30T09:25:31Z</time></trkpt>
   <trkpt lat="51.20581" lon="3.20670"><ele>19.6</ele><time>2030-06-30T09:25:41Z</time></trkpt>
   <trkpt lat="51.20604" lon="3.20674"><ele>20.1</ele><time>2030-06-30T09:25:51Z</time></trkpt>
   <trkpt lat="51.20627" lon="3.20679"><ele>20.5</ele><time>2030-06-30T09:26:01Z</time></trkpt>
   <trkpt lat="51.20650" lon="3.20683"><ele>21.0</ele><time>2030-06-30T09:26:11Z</time></trkpt>
   <trkpt lat="51.20673" lon="3.20687"><ele>21.5</ele><time>2030-06-30T09:26:21Z</time></trkpt>
   <trkpt lat="51.20696" lon="3.20692"><ele>21.9</ele><time>2030-06-30T09:26:31Z</time></trkpt>
   <trkpt lat="51.20719" lon="3.20696"><ele>22.4</ele><time>2030-06-30T09:26:41Z</time></trkpt>
   <trkpt lat="51.20742" lon="3.20700"><ele>22.8</ele><time>2030-06-30T09:26:51Z</time></trkpt>
   <trkpt lat="51.20765" lon="3.20704"><ele>23.3</ele><time>2030-06-30T09:27:01Z</time></trkpt>
   <trkpt lat="51.20788" lon="3.20708"><ele>23.8</ele><time>2030-06-30T09:27:11Z</time></trkpt>
   <trkpt lat="51.20811" lon="3.20712"><ele>24.2</ele><time>2030-06-30T09:27:21Z</time></trkpt>
   <trkpt lat="51.20834" lon="3.20715"><ele>24.7</ele><time>2030-06-30T09:27:31Z</time></trkpt>
   <trkpt lat="51.20857" lon="3.20719"><ele>25.1</ele><time>2030-06-30T09:27:41Z</time></trkpt>
   <trkpt lat="51.20880" lon="3.20723"><ele>25.6</ele><time>2030-06-30T09:27:51Z</time></trkpt>
   <trkpt lat="51.20903" lon="3.20727"><ele>26.1</ele><time>2030-06-30T09:28:01Z</time></trkpt>
   <trkpt lat="51.20926" lon="3.20730"><ele>26.5</ele><time>2030-06-30T09:28:11Z</time></trkpt>
   <trkpt lat="51.20949" lon="3.20734"><ele>27.0</ele><time>2030-06-30T09:28:21Z</time></trkpt>
   <trkpt lat="51.20971" lon="3.20737"><ele>27.4</ele><time>2030-06-30T09:28:31Z</time></trkpt>
   <trkpt lat="51.20994" lon="3.20740"><ele>27.9</ele><time>2030-06-30T09:28:41Z</time></trkpt>
   <trkpt lat="51.21017" lon="3.20744"><ele>28.3</ele><time>2030-06-30T09:28:51Z</time></trkpt>
   <trkpt lat="51.21040" lon="3.20747"><ele>28.8</ele><time>2030-06-30T09:29:01Z</time></trkpt>
   <trkpt lat="51.21063" lon="3.20750"><ele>29.3</ele><time>2030-06-30T09:29:11Z</time></trkpt>
   <trkpt lat="51.21086" lon="3.20753"><ele>29.7</ele><time>2030-06-30T09:29:21Z</time></trkpt>
   <trkpt lat="51.21109" lon="3.20756"><ele>30.2</ele><time>2030-06-30T09:29:31Z</time></trkpt>
   <trkpt lat="51.21132" lon="3.20759"><ele>30.6</ele><time>2030-06-30T09:29:41Z</time></trkpt>
   <trkpt lat="51.21155" lon="3.20762"><ele>31.1</ele><time>2030-06-30T09:29:51Z</time></trkpt>
   <trkpt lat="51.21178" lon="3.20765"><ele>31.6</ele><time>2030-06-30T09:30:01Z</time></trkpt>
   <trkpt lat="51.21201" lon="3.20768"><ele>32.0</ele><time>2030-06-30T09:30:11Z</time></trkpt>
   <trkpt lat="51.21224" lon="3.20770"><ele>32.5</ele><time>2030-06-30T09:30:22Z</time></trkpt>
   <trkpt lat="51.21247" lon="3.20773"><ele>32.9</ele><time>2030-06-30T09:30:32Z</time></trkpt>
   <trkpt lat="51.21270" lon="3.20775"><ele>33.4</ele><time>2030-06-30T09:30:42Z</time></trkpt>
   <trkpt lat="51.21293" lon="3.20778"><ele>33.9</ele><time>2030-06-30T09:30:52Z</time></trkpt>
   <trkpt lat="51.21316" lon="3.20780"><ele>34.3</ele><time>2030-06-30T09:31:02Z</time></trkpt>
   <trkpt lat="51.21339" lon="3.20782"><ele>34.8</ele><time>2030-06-30T09:31:12Z</time></trkpt>
   <trkpt lat="51.21362" lon="3.20784"><ele>35.2</ele><time>2030-06-30T09:31:22Z</time></trkpt>
   <trkpt lat="51.21385" lon="3.20786"><ele>35.7</ele><time>2030-06-30T09:31:32Z</time></trkpt>
   <trkpt lat="51.21408" lon="3.20788"><ele>36.2</ele><time>2030-06-30T09:31:42Z</time></trkpt>
   <trkpt lat="51.21431" lon="3.20790"><ele>36.6</ele><time>2030-06-30T09:31:52Z</time></trkpt>
   <trkpt lat="51.21454" lon="3.20792"><ele>37.1</ele><time>2030-06-30T09:32:02Z</time></trkpt>
   <trkpt lat="51.21477" lon="3.20794"><ele>37.5</ele><time>2030-06-30T09:32:12Z</time></trkpt>
   <trkpt lat="51.21500" lon="3.20795"><ele>38.0</ele><time>2030-06-30T09:32:22Z</time></trkpt>
   <trkpt lat="51.21523" lon="3.20797"><ele>38.5</ele><time>2030-06-30T09:32:32Z</time></trkpt>
   <trkpt lat="51.21546" lon="3.20799"><ele>38.9</ele><time>2030-06-30T09:32:42Z</time></trkpt>
   <trkpt lat="51.21569" lon="3.20800"><ele>39.4</ele><time>2030-06-30T09:32:52Z</time></trkpt>
   <trkpt lat="51.21592" lon="3.20801"><ele>39.8</ele><time>2030-06-30T09:33:02Z</time></trkpt>
   <trkpt lat="51.21615" lon="3.20802"><ele>40.3</ele><time>2030-06-30T09:33:12Z</time></trkpt>
   <trkpt lat="51.21638" lon="3.20804"><ele>40.8</ele><time>2030-06-30T09:33:22Z</time></trkpt>
   <trkpt lat="51.21661" lon="3.20805"><ele>41.2</ele><time>2030-06-30T09:33:32Z</time></trkpt>
   <trkpt lat="51.21684" lon="3.20805"><ele>41.7</ele><time>2030-06-30T09:33:42Z</time></trkpt>
   <trkpt lat="51.21707" lon="3.20806"><ele>42.1</ele><time>2030-06-30T09:33:52Z</time></trkpt>
   <trkpt lat="51.21730" lon="3.20807"><ele>42.6</ele><time>2030-06-30T09:34:02Z</time></trkpt>
   <trkpt lat="51.21752" lon="3.20808"><ele>43.0</ele><time>2030-06-30T09:34:12Z</time></trkpt>
   <trkpt lat="51.21775" lon="3.20808"><ele>43.5</ele><time>2030-06-30T09:34:22Z</time></trkpt>
   <trkpt lat="51.21798" lon="3.20809"><ele>44.0</ele><time>2030-06-30T09:34:32Z</time></trkpt>
   <trkpt lat="51.21821" lon="3.20809"><ele>44.4</ele><time>2030-06-30T09:34:42Z</time></trkpt>
   <trkpt lat="51.21844" lon="3.20810"><ele>44.9</ele><time>2030-06-30T09:34:52Z</time></trkpt>
   <trkpt lat="51.21867" lon="3.20810"><ele>45.3</ele><time>2030-06-30T09:35:02Z</time></trkpt>
   <trkpt lat="51.21890" lon="3.20810"><ele>45.8</ele><time>2030-06-30T09:35:12Z</time></trkpt>
   <trkpt lat="51.21913" lon="3.20810"><ele>46.3</ele><time>2030-06-30T09:35:22Z</time></trkpt>
   <trkpt lat="51.21936" lon="3.20810"><ele>46.7</ele><time>2030-06-30T09:35:32Z</time></trkpt>
   <trkpt lat="51.21959" lon="3.20810"><ele>47.2</ele><time>2030-06-30T09:35:42Z</time></trkpt>
   <trkpt lat="51.21982" lon="3.20810"><ele>47.6</ele><time>2030-06-30T09:35:52Z</time></trkpt>
   <trkpt lat="51.22005" lon="3.20809"><ele>48.1</ele><time>2030-06-30T09:36:02Z</time></trkpt>
   <trkpt lat="51.22028" lon="3.20809"><ele>48.6</ele><time>2030-06-30T09:36:12Z</time></trkpt>
   <trkpt lat="51.22051" lon="3.20808"><ele>49.0</ele><time>2030-06-30T09:36:22Z</time></trkpt>
   <trkpt lat="51.22074" lon="3.20808"><ele>49.5</ele><time>2030-06-30T09:36:32Z</time></trkpt>
   <trkpt lat="51.22097" lon="3.20807"><ele>49.9</ele><time>2030-06-30T09:36:42Z</time></trkpt>
   <trkpt lat="51.22120" lon="3.20806"><ele>50.4</ele><time>2030-06-30T09:36:52Z</time></trkpt>
   <trkpt lat="51.22143" lon="3.20805"><ele>50.9</ele><time>2030-06-30T09:37:02Z</time></trkpt>
   <trkpt lat="51.22166" lon="3.20805"><ele>51.3</ele><time>2030-06-30T09:37:13Z</time></trkpt>
   <trkpt lat="51.22189" lon="3.20804"><ele>51.8</ele><time>2030-06-30T09:37:23Z</time></trkpt>
   <trkpt lat="51.22212" lon="3.20802"><ele>52.2</ele><time>2030-06-30T09:37:33Z</time></trkpt>
   <trkpt lat="51.22235" lon="3.20801"><ele>52.7</ele><time>2030-06-30T09:37:43Z</time></trkpt>
   <trkpt lat="51.22258" lon="3.20800"><ele>53.2</ele><time>2030-06-30T09:37:53Z</time></trkpt>
   <trkpt lat="51.22281" lon="3.20799"><ele>53.6</ele><time>2030-06-30T09:38:03Z</time></trkpt>
   <trkpt lat="51.22304" lon="3.20797"><ele>54.1</ele><time>2030-06-30T09:38:13Z</time></trkpt>
   <trkpt lat="51.22327" lon="3.20795"><ele>54.5</ele><time>2030-06-30T09:38:23Z</time></trkpt>
   <trkpt lat="51.22350" lon="3.20794"><ele>55.0</ele><time>2030-06-30T09:38:33Z</time></trkpt>
   <trkpt lat="51.22373" lon="3.20792"><ele>55.5</ele><time>2030-06-30T09:38:43Z</time></trkpt>
   <trkpt lat="51.22396" lon="3.20790"><ele>55.9</ele><time>2030-06-30T09:38:53Z</time></trkpt>
   <trkpt lat="51.22419" lon="3.20788"><ele>56.4</ele><time>2030-06-30T09:39:03Z</time></trkpt>
   <trkpt lat="51.22442" lon="3.20786"><ele>56.8</ele><time>2030-06-30T09:39:13Z</time></trkpt>
   <trkpt lat="51.22465" lon="3.20784"><ele>57.3</ele><time>2030-06-30T09:39:23Z</time></trkpt>
   <trkpt lat="51.22488" lon="3.20782"><ele>57.8</ele><time>2030-06-30T09:39:33Z</time></trkpt>
   <trkpt lat="51.22511" lon="3.20780"><ele>58.2</ele><time>2030-06-30T09:39:43Z</time></trkpt>
   <trkpt lat="51.22533" lon="3.20778"><ele>58.7</ele><time>2030-06-30T09:39:53Z</time></trkpt>
   <trkpt lat="51.22556" lon="3.20775"><ele>59.1</ele><time>2030-06-30T09:40:03Z</time></trkpt>
   <trkpt lat="51.22579" lon="3.20773"><ele>59.6</ele><time>2030-06-30T09:40:13Z</time></trkpt>
   <trkpt lat="51.22602" lon="3.20770"><ele>60.0</ele><time>2030-06-30T09:40:23Z</time></trkpt>
   <trkpt lat="51.22625" lon="3.20768"><ele>60.5</ele><time>2030-06-30T09:40:33Z</time></trkpt>
   <trkpt lat="51.22648" lon="3.20765"><ele>61.0</ele><time>2030-06-30T09:40:43Z</time></trkpt>
   <trkpt lat="51.22671" lon="3.20762"><ele>61.4</ele><time>2030-06-30T09:40:53Z</time></trkpt>
   <trkpt lat="51.22694" lon="3.20759"><ele>61.9</ele><time>2030-06-30T09:41:03Z</time></trkpt>
   <trkpt lat="51.22717" lon="3.20756"><ele>62.3</ele><time>2030-06-30T09:41:13Z</time></trkpt>
   <trkpt lat="51.22740" lon="3.20753"><ele>62.8</ele><time>2030-06-30T09:41:23Z</time></trkpt>
   <trkpt lat="51.22763" lon="3.20750"><ele>63.3</ele><time>2030-06-30T09:41:33Z</time></trkpt>
   <trkpt lat="51.22786" lon="3.20747"><ele>63.7</ele><time>2030-06-30T09:41:43Z</time></trkpt>
   <trkpt lat="51.22809" lon="3.20744"><ele>64.2</ele><time>2030-06-30T09:41:53Z</time></trkpt>
   <trkpt lat="51.22832" lon="3.20740"><ele>64.6</ele><time>2030-06-30T09:42:03Z</time></trkpt>
   <trkpt lat="51.22855" lon="3.20737"><ele>65.1</ele><time>2030-06-30T09:42:13Z</time></trkpt>
   <trkpt lat="51.22878" lon="3.20734"><ele>65.6</ele><time>2030-06-30T09:42:23Z</time></trkpt>
   <trkpt lat="51.22901" lon="3.20730"><ele>66.0</ele><time>2030-06-30T09:42:33Z</time></trkpt>
   <trkpt lat="51.22924" lon="3.20727"><ele>66.5</ele><time>2030-06-30T09:42:43Z</time></trkpt>
   <trkpt lat="51.22947" lon="3.20723"><ele>66.9</ele><time>2030-06-30T09:42:53Z</time></trkpt>
   <trkpt lat="51.22970" lon="3.20719"><ele>67.4</ele><time>2030-06-30T09:43:03Z</time></trkpt>
   <trkpt lat="51.22993" lon="3.20715"><ele>67.9</ele><time>2030-06-30T09:43:13Z</time></trkpt>
   <trkpt lat="51.23016" lon="3.20712"><ele>68.3</ele><time>2030-06-30T09:43:23Z</time></trkpt>
   <trkpt lat="51.23039" lon="3.20708"><ele>68.8</ele><time>2030-06-30T09:43:33Z</time></trkpt>
   <trkpt lat="51.23062" lon="3.20704"><ele>69.2</ele><time>2030-06-30T09:43:43Z</time></trkpt>
   <trkpt lat="51.23085" lon="3.20700"><ele>69.7</ele><time>2030-06-30T09:43:53Z</time></trkpt>
   <trkpt lat="51.23108" lon="3.20696"><ele>70.2</ele><time>2030-06-30T09:44:04Z</time></trkpt>
   <trkpt lat="51.23131" lon="3.20692"><ele>70.6</ele><time>2030-06-30T09:44:14Z</time></trkpt>
   <trkpt lat="51.23154" lon="3.20687"><ele>71.1</ele><time>2030-06-30T09:44:24Z</time></trkpt>
   <trkpt lat="51.23177" lon="3.20683"><ele>71.5</ele><time>2030-06-30T09:44:34Z</time></trkpt>
   <trkpt lat="51.23200" lon="3.20679"><ele>72.0</ele><time>2030-06-30T09:44:44Z</time></trkpt>
   <trkpt lat="51.23223" lon="3.20674"><ele>72.5</ele><time>2030-06-30T09:44:54Z</time></trkpt>
   <trkpt lat="51.23246" lon="3.20670"><ele>72.9</ele><time>2030-06-30T09:45:04Z</time></trkpt>
   <trkpt lat="51.23269" lon="3.20666"><ele>73.4</ele><time>2030-06-30T09:45:14Z</time></trkpt>
   <trkpt lat="51.23292" lon="3.20661"><ele>73.8</ele><time>2030-06-30T09:45:24Z</time></trkpt>
   <trkpt lat="51.23314" lon="3.20657"><ele>74.3</ele><time>2030-06-30T09:45:34Z</time></trkpt>
   <trkpt lat="51.23337" lon="3.20652"><ele>74.7</ele><time>2030-06-30T09:45:44Z</time></trkpt>
   <trkpt lat="51.23360" lon="3.20647"><ele>75.2</ele><time>2030-06-30T09:45:54Z</time></trkpt>
   <trkpt lat="51.23383" lon="3.20643"><ele>75.7</ele><time>2030-06-30T09:46:04Z</time></trkpt>
   <trkpt lat="51.23406" lon="3.20638"><ele>76.1</ele><time>2030-06-30T09:46:14Z</time></trkpt>
   <trkpt lat="51.23429" lon="3.20633"><ele>76.6</ele><time>2030-06-30T09:46:24Z</time></trkpt>
   <trkpt lat="51.23452" lon="3.20628"><ele>77.0</ele><time>2030-06-30T09:46:34Z</time></trkpt>
   <trkpt lat="51.23475" lon="3.20624"><ele>77.5</ele><time>2030-06-30T09:46:44Z</time></trkpt>
   <trkpt lat="51.23498" lon="3.20619"><ele>78.0</ele><time>2030-06-30T09:46:54Z</time></trkpt>
   <trkpt lat="51.23521" lon="3.20614"><ele>78.4</ele><time>2030-06-30T09:47:04Z</time></trkpt>
   <trkpt lat="51.23544" lon="3.20609"><ele>78.9</ele><time>2030-06-30T09:47:14Z</time></trkpt>
   <trkpt lat="51.23567" lon="3.20604"><ele>79.3</ele><time>2030-06-30T09:47:24Z</time></trkpt>
   <trkpt lat="51.23590" lon="3.20599"><ele>79.8</ele><time>2030-06-30T09:47:34Z</time></trkpt>
   <trkpt lat="51.23613" lon="3.20594"><ele>80.3</ele><time>2030-06-30T09:47:44Z</time></trkpt>
   <trkpt lat="51.23636" lon="3.20589"><ele>80.7</ele><time>2030-06-30T09:47:54Z</time></trkpt>
   <trkpt lat="51.23659" lon="3.20584"><ele>81.2</ele><time>2030-06-30T09:48:04Z</time></trkpt>
   <trkpt lat="51.23682" lon="3.20579"><ele>81.6</ele><time>2030-06-30T09:48:14Z</time></trkpt>
   <trkpt lat="51.23705" lon="3.20573"><ele>82.1</ele><time>2030-06-30T09:48:24Z</time></trkpt>
   <trkpt lat="51.23728" lon="3.20568"><ele>82.6</ele><time>2030-06-30T09:48:34Z</time></trkpt>
   <trkpt lat="51.23751" lon="3.20563"><ele>83.0</ele><time>2030-06-30T09:48:44Z</time></trkpt>
   <trkpt lat="51.23774" lon="3.20558"><ele>83.5</ele><time>2030-06-30T09:48:54Z</time></trkpt>
   <trkpt lat="51.23797" lon="3.20553"><ele>83.9</ele><time>2030-06-30T09:49:04Z</time></trkpt>
   <trkpt lat="51.23820" lon="3.20547"><ele>84.4</ele><time>2030-06-30T09:49:14Z</time></trkpt>
   <trkpt lat="51.23843" lon="3.20542"><ele>84.9</ele><time>2030-06-30T09:49:24Z</time></trkpt>
   <trkpt lat="51.23866" lon="3.20537"><ele>85.3</ele><time>2030-06-30T09:49:34Z</time></trkpt>
   <trkpt lat="51.23889" lon="3.20532"><ele>85.8</ele><time>2030-06-30T09:49:44Z</time></trkpt>
   <trkpt lat="51.23912" lon="3.20526"><ele>86.2</ele><time>2030-06-30T09:49:54Z</time></trkpt>
   <trkpt lat="51.23935" lon="3.20521"><ele>86.7</ele><time>2030-06-30T09:50:04Z</time></trkpt>
   <trkpt lat="51.23958" lon="3.20516"><ele>87.2</ele><time>2030-06-30T09:50:14Z</time></trkpt>
   <trkpt lat="51.23981" lon="3.20511"><ele>87.6</ele><time>2030-06-30T09:50:24Z</time></trkpt>
   <trkpt lat="51.24004" lon="3.20505"><ele>88.1</ele><time>2030-06-30T09:50:34Z</time></trkpt>
   <trkpt lat="51.24004" lon="3.20505"><ele>88.1</ele><time>2030-06-30T09:50:44Z</time></trkpt>
   <trkpt lat="51.23981" lon="3.20511"><ele>87.6</ele><time>2030-06-30T09:50:55Z</time></trkpt>
   <trkpt lat="51.23958" lon="3.20516"><ele>87.2</ele><time>2030-06-30T09:51:05Z</time></trkpt>
   <trkpt lat="51.23935" lon="3.20521"><ele>86.7</ele><time>2030-06-30T09:51:15Z</time></trkpt>
   <trkpt lat="51.23912" lon="3.20526"><ele>86.2</ele><time>2030-06-30T09:51:25Z</time></trkpt>
   <trkpt lat="51.23889" lon="3.20532"><ele>85.8</ele><time>2030-06-30T09:51:35Z</time></trkpt>
   <trkpt lat="51.23866" lon="3.20537"><ele>85.3</ele><time>2030-06-30T09:51:45Z</time></trkpt>
   <trkpt lat="51.23843" lon="3.20542"><ele>84.9</ele><time>2030-06-30T09:51:55Z</time></trkpt>
   <trkpt lat="51.23820" lon="3.20547"><ele>84.4</ele><time>2030-06-30T09:52:05Z</time></trkpt>
   <trkpt lat="51.23797" lon="3.20553"><ele>83.9</ele><time>2030-06-30T09:52:15Z</time></trkpt>
   <trkpt lat="51.23774" lon="3.20558"><ele>83.5</ele><time>2030-06-30T09:52:25Z</time></trkpt>
   <trkpt lat="51.23751" lon="3.20563"><ele>83.0</ele><time>2030-06-30T09:52:35Z</time></trkpt>
   <trkpt lat="51.23728" lon="3.20568"><ele>82.6</ele><time>2030-06-30T09:52:45Z</time></trkpt>
   <trkpt lat="51.23705" lon="3.20573"><ele>82.1</ele><time>2030-06-30T09:52:55Z</time></trkpt>
   <trkpt lat="51.23682" lon="3.20579"><ele>81.6</ele><time>2030-06-30T09:53:05Z</time></trkpt>
   <trkpt lat="51.23659" lon="3.20584"><ele>81.2</ele><time>2030-06-30T09:53:15Z</time></trkpt>
   <trkpt lat="51.23636" lon="3.20589"><ele>80.7</ele><time>2030-06-30T09:53:25Z</time></trkpt>
   <trkpt lat="51.23613" lon="3.20594"><ele>80.3</ele><time>2030-06-30T09:53:35Z</time></trkpt>
   <trkpt lat="51.23590" lon="3.20599"><ele>79.8</ele><time>2030-06-30T09:53:45Z</time></trkpt>
   <trkpt lat="51.23567" lon="3.20604"><ele>79.3</ele><time>2030-06-30T09:53:55Z</time></trkpt>
   <trkpt lat="51.23544" lon="3.20609"><ele>78.9</ele><time>2030-06-30T09:54:05Z</time></trkpt>
   <trkpt lat="51.23521" lon="3.20614"><ele>78.4</ele><time>2030-06-30T09:54:15Z</time></trkpt>
   <trkpt lat="51.23498" lon="3.20619"><ele>78.0</ele><time>2030-06-30T09:54:25Z</time></trkpt>
   <trkpt lat="51.23475" lon="3.20624"><ele>77.5</ele><time>2030-06-30T09:54:35Z</time></trkpt>
   <trkpt lat="51.23452" lon="3.20628"><ele>77.0</ele><time>2030-06-30T09:54:45Z</time></trkpt>
   <trkpt lat="51.23429" lon="3.20633"><ele>76.6</ele><time>2030-06-30T09:54:55Z</time></trkpt>
   <trkpt lat="51.23406" lon="3.20638"><ele>76.1</ele><time>2030-06-30T09:55:05Z</time></trkpt>
   <trkpt lat="51.23383" lon="3.20643"><ele>75.7</ele><time>2030-06-30T09:55:15Z</time></trkpt>
   <trkpt lat="51.23360" lon="3.20647"><ele>75.2</ele><time>2030-06-30T09:55:25Z</time></trkpt>
   <trkpt lat="51.23337" lon="3.20652"><ele>74.7</ele><time>2030-06-30T09:55:35Z</time></trkpt>
   <trkpt lat="51.23314" lon="3.20657"><ele>74.3</ele><time>2030-06-30T09:55:45Z</time></trkpt>
   <trkpt lat="51.23292" lon="3.20661"><ele>73.8</ele><time>2030-06-30T09:55:55Z</time></trkpt>
   <trkpt lat="51.23269" lon="3.20666"><ele>73.4</ele><time>2030-06-30T09:56:05Z</time></trkpt>
   <trkpt lat="51.23246" lon="3.20670"><ele>72.9</ele><time>2030-06-30T09:56:15Z</time></trkpt>
   <trkpt lat="51.23223" lon="3.20674"><ele>72.5</ele><time>2030-06-30T09:56:25Z</time></trkpt>
   <trkpt lat="51.23200" lon="3.20679"><ele>72.0</ele><time>2030-06-30T09:56:35Z</time></trkpt>
   <trkpt lat="51.23177" lon="3.20683"><ele>71.5</ele><time>2030-06-30T09:56:45Z</time></trkpt>
   <trkpt lat="51.23154" lon="3.20687"><ele>71.1</ele><time>2030-06-30T09:56:55Z</time></trkpt>
   <trkpt lat="51.23131" lon="3.20692"><ele>70.6</ele><time>2030-06-30T09:57:05Z</time></trkpt>
   <trkpt lat="51.23108" lon="3.20696"><ele>70.2</ele><time>2030-06-30T09:57:15Z</time></trkpt>
   <trkpt lat="51.23085" lon="3.20700"><ele>69.7</ele><time>2030-06-30T09:57:25Z</time></trkpt>
   <trkpt lat="51.23062" lon="3.20704"><ele>69.2</ele><time>2030-06-30T09:57:36Z</time></trkpt>
   <trkpt lat="51.23039" lon="3.20708"><ele>68.8</ele><time>2030-06-30T09:57:46Z</time></trkpt>
   <trkpt lat="51.23016" lon="3.20712"><ele>68.3</ele><time>2030-06-30T09:57:56Z</time></trkpt>
   <trkpt lat="51.22993" lon="3.20715"><ele>67.9</ele><time>2030-06-30T09:58:06Z</time></trkpt>
   <trkpt lat="51.22970" lon="3.20719"><ele>67.4</ele><time>2030-06-30T09:58:16Z</time></trkpt>
   <trkpt lat="51.22947" lon="3.20723"><ele>66.9</ele><time>2030-06-30T09:58:26Z</time></trkpt>
   <trkpt lat="51.22924" lon="3.20727"><ele>66.5</ele><time>2030-06-30T09:58:36Z</time></trkpt>
   <trkpt lat="51.22901" lon="3.20730"><ele>66.0</ele><time>2030-06-30T09:58:46Z</time></trkpt>
   <trkpt lat="51.22878" lon="3.20734"><ele>65.6</ele><time>2030-06-30T09:58:56Z</time></trkpt>
   <trkpt lat="51.22855" lon="3.20737"><ele>65.1</ele><time>2030-06-30T09:59:06Z</time></trkpt>
   <trkpt lat="51.22832" lon="3.20740"><ele>64.6</ele><time>2030-06-30T09:59:16Z</time></trkpt>
   <trkpt lat="51.22809" lon="3.20744"><ele>64.2</ele><time>2030-06-30T09:59:26Z</time></trkpt>
   <trkpt lat="51.22786" lon="3.20747"><ele>63.7</ele><time>2030-06-30T09:59:36Z</time></trkpt>
   <trkpt lat="51.22763" lon="3.20750"><ele>63.3</ele><time>2030-06-30T09:59:46Z</time></trkpt>
   <trkpt lat="51.22740" lon="3.20753"><ele>62.8</ele><time>2030-06-30T09:59:56Z</time></trkpt>
   <trkpt lat="51.22717" lon="3.20756"><ele>62.3</ele><time>2030-06-30T10:00:06Z</time></trkpt>
   <trkpt lat="51.22694" lon="3.20759"><ele>61.9</ele><time>2030-06-30T10:00:16Z</time></trkpt>
   <trkpt lat="51.22671" lon="3.20762"><ele>61.4</ele><time>2030-06-30T10:00:26Z</time></trkpt>
   <trkpt lat="51.22648" lon="3.20765"><ele>61.0</ele><time>2030-06-30T10:00:36Z</time></trkpt>
   <trkpt lat="51.22625" lon="3.20768"><ele>60.5</ele><time>2030-06-30T10:00:46Z</time></trkpt>
   <trkpt lat="51.22602" lon="3.20770"><ele>60.0</ele><time>2030-06-30T10:00:56Z</time></trkpt>
   <trkpt lat="51.22579" lon="3.20773"><ele>59.6</ele><time>2030-06-30T10:01:06Z</time></trkpt>
   <trkpt lat="51.22556" lon="3.20775"><ele>59.1</ele><time>2030-06-30T10:01:16Z</time></trkpt>
   <trkpt lat="51.22533" lon="3.20778"><ele>58.7</ele><time>2030-06-30T10:01:26Z</time></trkpt>
   <trkpt lat="51.22511" lon="3.20780"><ele>58.2</ele><time>2030-06-30T10:01:36Z</time></trkpt>
   <trkpt lat="51.22488" lon="3.20782"><ele>57.8</ele><time>2030-06-30T10:01:46Z</time></trkpt>
   <trkpt lat="51.22465" lon="3.20784"><ele>57.3</ele><time>2030-06-30T10:01:56Z</time></trkpt>
   <trkpt lat="51.22442" lon="3.20786"><ele>56.8</ele><time>2030-06-30T10:02:06Z</time></trkpt>
   <trkpt lat="51.22419" lon="3.20788"><ele>56.4</ele><time>2030-06-30T10:02:16Z</time></trkpt>
   <trkpt lat="51.22396" lon="3.20790"><ele>55.9</ele><time>2030-06-30T10:02:26Z</time></trkpt>
   <trkpt lat="51.22373" lon="3.20792"><ele>55.5</ele><time>2030-06-30T10:02:36Z</time></trkpt>
   <trkpt lat="51.22350" lon="3.20794"><ele>55.0</ele><time>2030-06-30T10:02:46Z</time></trkpt>
   <trkpt lat="51.22327" lon="3.20795"><ele>54.5</ele><time>2030-06-30T10:02:56Z</time></trkpt>
   <trkpt lat="51.22304" lon="3.20797"><ele>54.1</ele><time>2030-06-30T10:03:06Z</time></trkpt>
   <trkpt lat="51.22281" lon="3.20799"><ele>53.6</ele><time>2030-06-30T10:03:16Z</time></trkpt>
   <trkpt lat="51.22258" lon="3.20800"><ele>53.2</ele><time>2030-06-30T10:03:26Z</time></trkpt>
   <trkpt lat="51.22235" lon="3.20801"><ele>52.7</ele><time>2030-06-30T10:03:36Z</time></trkpt>
   <trkpt lat="51.22212" lon="3.20802"><ele>52.2</ele><time>2030-06-30T10:03:46Z</time></trkpt>
   <trkpt lat="51.22189" lon="3.20804"><ele>51.8</ele><time>2030-06-30T10:03:56Z</time></trkpt>
   <trkpt lat="51.22166" lon="3.20805"><ele>51.3</ele><time>2030-06-30T10:04:06Z</time></trkpt>
   <trkpt lat="51.22143" lon="3.20805"><ele>50.9</ele><time>2030-06-30T10:04:16Z</time></trkpt>
   <trkpt lat="51.22120" lon="3.20806"><ele>50.4</ele><time>2030-06-30T10:04:27Z</time></trkpt>
   <trkpt lat="51.22097" lon="3.20807"><ele>49.9</ele><time>2030-06-30T10:04:37Z</time></trkpt>
   <trkpt lat="51.22074" lon="3.20808"><ele>49.5</ele><time>2030-06-30T10:04:47Z</time></trkpt>
   <trkpt lat="51.22051" lon="3.20808"><ele>49.0</ele><time>2030-06-30T10:04:57Z</time></trkpt>
   <trkpt lat="51.22028" lon="3.20809"><ele>48.6</ele><time>2030-06-30T10:05:07Z</time></trkpt>
   <trkpt lat="51.22005" lon="3.20809"><ele>48.1</ele><time>2030-06-30T10:05:17Z</time></trkpt>
   <trkpt lat="51.21982" lon="3.20810"><ele>47.6</ele><time>2030-06-30T10:05:27Z</time></trkpt>
   <trkpt lat="51.21959" lon="3.20810"><ele>47.2</ele><time>2030-06-30T10:05:37Z</time></trkpt>
   <trkpt lat="51.21936" lon="3.20810"><ele>46.7</ele><time>2030-06-30T10:05:47Z</time></trkpt>
   <trkpt lat="51.21913" lon="3.20810"><ele>46.3</ele><time>2030-06-30T10:05:57Z</time></trkpt>
   <trkpt lat="51.21890" lon="3.20810"><ele>45.8</ele><time>2030-06-30T10:06:07Z</time></trkpt>
   <trkpt lat="51.21867" lon="3.20810"><ele>45.3</ele><time>2030-06-30T10:06:17Z</time></trkpt>
   <trkpt lat="51.21844" lon="3.20810"><ele>44.9</ele><time>2030-06-30T10:06:27Z</time></trkpt>
   <trkpt lat="51.21821" lon="3.20809"><ele>44.4</ele><time>2030-06-30T10:06:37Z</time></trkpt>
   <trkpt lat="51.21798" lon="3.20809"><ele>44.0</ele><time>2030-06-30T10:06:47Z</time></trkpt>
   <trkpt lat="51.21775" lon="3.20808"><ele>43.5</ele><time>2030-06-30T10:06:57Z</time></trkpt>
   <trkpt lat="51.21752" lon="3.20808"><ele>43.0</ele><time>2030-06-30T10:07:07Z</time></trkpt>
   <trkpt lat="51.21730" lon="3.20807"><ele>42.6</ele><time>2030-06-30T10:07:17Z</time></trkpt>
   <trkpt lat="51.21707" lon="3.20806"><ele>42.1</ele><time>2030-06-30T10:07:27Z</time></trkpt>
   <trkpt lat="51.21684" lon="3.20805"><ele>41.7</ele><time>2030-06-30T10:07:37Z</time></trkpt>
   <trkpt lat="51.21661" lon="3.20805"><ele>41.2</ele><time>2030-06-30T10:07:47Z</time></trkpt>
   <trkpt lat="51.21638" lon="3.20804"><ele>40.8</ele><time>2030-06-30T10:07:57Z</time></trkpt>
   <trkpt lat="51.21615" lon="3.20802"><ele>40.3</ele><time>2030-06-30T10:08:07Z</time></trkpt>
   <trkpt lat="51.21592" lon="3.20801"><ele>39.8</ele><time>2030-06-30T10:08:17Z</time></trkpt>
   <trkpt lat="51.21569" lon="3.20800"><ele>39.4</ele><time>2030-06-30T10:08:27Z</time></trkpt>
   <trkpt lat="51.21546" lon="3.20799"><ele>38.9</ele><time>2030-06-30T10:08:37Z</time></trkpt>
   <trkpt lat="51.21523" lon="3.20797"><ele>38.5</ele><time>2030-06-30T10:08:47Z</time></trkpt>
   <trkpt lat="51.21500" lon="3.20795"><ele>38.0</ele><time>2030-06-30T10:08:57Z</time></trkpt>
   <trkpt lat="51.21477" lon="3.20794"><ele>37.5</ele><time>2030-06-30T10:09:07Z</time></trkpt>
   <trkpt lat="51.21454" lon="3.20792"><ele>37.1</ele><time>2030-06-30T10:09:17Z</time></trkpt>
   <trkpt lat="51.21431" lon="3.20790"><ele>36.6</ele><time>2030-06-30T10:09:27Z</time></trkpt>
   <trkpt lat="51.21408" lon="3.20788"><ele>36.2</ele><time>2030-06-30T10:09:37Z</time></trkpt>
   <trkpt lat="51.21385" lon="3.20786"><ele>35.7</ele><time>2030-06-30T10:09:47Z</time></trkpt>
   <trkpt lat="51.21362" lon="3.20784"><ele>35.2</ele><time>2030-06-30T10:09:57Z</time></trkpt>
   <trkpt lat="51.21339" lon="3.20782"><ele>34.8</ele><time>2030-06-30T10:10:07Z</time></trkpt>
   <trkpt lat="51.21316" lon="3.20780"><ele>34.3</ele><time>2030-06-30T10:10:17Z</time></trkpt>
   <trkpt lat="51.21293" lon="3.20778"><ele>33.9</ele><time>2030-06-30T10:10:27Z</time></trkpt>
   <trkpt lat="51.21270" lon="3.20775"><ele>33.4</ele><time>2030-06-30T10:10:37Z</time></trkpt>
   <trkpt lat="51.21247" lon="3.20773"><ele>32.9</ele><time>2030-06-30T10:10:47Z</time></trkpt>
   <trkpt lat="51.21224" lon="3.20770"><ele>32.5</ele><time>2030-06-30T10:10:57Z</time></trkpt>
   <trkpt lat="51.21201" lon="3.20768"><ele>32.0</ele><time>2030-06-30T10:11:07Z</time></trkpt>
   <trkpt lat="51.21178" lon="3.20765"><ele>31.6</ele><time>2030-06-30T10:11:18Z</time></trkpt>
   <trkpt lat="51.21155" lon="3.20762"><ele>31.1</ele><time>2030-06-30T10:11:28Z</time></trkpt>
   <trkpt lat="51.21132" lon="3.20759"><ele>30.6</ele><time>2030-06-30T10:11:38Z</time></trkpt>
   <trkpt lat="51.21109" lon="3.20756"><ele>30.2</ele><time>2030-06-30T10:11:48Z</time></trkpt>
   <trkpt lat="51.21086" lon="3.20753"><ele>29.7</ele><time>2030-06-30T10:11:58Z</time></trkpt>
   <trkpt lat="51.21063" lon="3.20750"><ele>29.3</ele><time>2030-06-30T10:12:08Z</time></trkpt>
   <trkpt lat="51.21040" lon="3.20747"><ele>28.8</ele><time>2030-06-30T10:12:18Z</time></trkpt>
   <trkpt lat="51.21017" lon="3.20744"><ele>28.3</ele><time>2030-06-30T10:12:28Z</time></trkpt>
   <trkpt lat="51.20994" lon="3.20740"><ele>27.9</ele><time>2030-06-30T10:12:38Z</time></trkpt>
   <trkpt lat="51.20971" lon="3.20737"><ele>27.4</ele><time>2030-06-30T10:12:48Z</time></trkpt>
   <trkpt lat="51.20949" lon="3.20734"><ele>27.0</ele><time>2030-06-30T10:12:58Z</time></trkpt>
   <trkpt lat="51.20926" lon="3.20730"><ele>26.5</ele><time>2030-06-30T10:13:08Z</time></trkpt>
   <trkpt lat="51.20903" lon="3.20727"><ele>26.1</ele><time>2030-06-30T10:13:18Z</time></trkpt>
   <trkpt lat="51.20880" lon="3.20723"><ele>25.6</ele><time>2030-06-30T10:13:28Z</time></trkpt>
   <trkpt lat="51.20857" lon="3.20719"><ele>25.1</ele><time>2030-06-30T10:13:38Z</time></trkpt>
   <trkpt lat="51.20834" lon="3.20715"><ele>24.7</ele><time>2030-06-30T10:13:48Z</time></trkpt>
   <trkpt lat="51.20811" lon="3.20712"><ele>24.2</ele><time>2030-06-30T10:13:58Z</time></trkpt>
   <trkpt lat="51.20788" lon="3.20708"><ele>23.8</ele><time>2030-06-30T10:14:08Z</time></trkpt>
   <trkpt lat="51.20765" lon="3.20704"><ele>23.3</ele><time>2030-06-30T10:14:18Z</time></trkpt>
   <trkpt lat="51.20742" lon="3.20700"><ele>22.8</ele><time>2030-06-30T10:14:28Z</time></trkpt>
   <trkpt lat="51.20719" lon="3.20696"><ele>22.4</ele><time>2030-06-30T10:14:38Z</time></trkpt>
   <trkpt lat="51.20696" lon="3.20692"><ele>21.9</ele><time>2030-06-30T10:14:48Z</time></trkpt>
   <trkpt lat="51.20673" lon="3.20687"><ele>21.5</ele><time>2030-06-30T10:14:58Z</time></trkpt>
   <trkpt lat="51.20650" lon="3.20683"><ele>21.0</ele><time>2030-06-30T10:15:08Z</time></trkpt>
   <trkpt lat="51.20627" lon="3.20679"><ele>20.5</ele><time>2030-06-30T10:15:18Z</time></trkpt>
   <trkpt lat="51.20604" lon="3.20674"><ele>20.1</ele><time>2030-06-30T10:15:28Z</time></trkpt>
   <trkpt lat="51.20581" lon="3.20670"><ele>19.6</ele><time>2030-06-30T10:15:38Z</time></trkpt>
   <trkpt lat="51.20558" lon="3.20666"><ele>19.2</ele><time>2030-06-30T10:15:48Z</time></trkpt>
   <trkpt lat="51.20535" lon="3.20661"><ele>18.7</ele><time>2030-06-30T10:15:58Z</time></trkpt>
   <trkpt lat="51.20512" lon="3.20657"><ele>18.2</ele><time>2030-06-30T10:16:08Z</time></trkpt>
   <trkpt lat="51.20489" lon="3.20652"><ele>17.8</ele><time>2030-06-30T10:16:18Z</time></trkpt>
   <trkpt lat="51.20466" lon="3.20647"><ele>17.3</ele><time>2030-06-30T10:16:28Z</time></trkpt>
   <trkpt lat="51.20443" lon="3.20643"><ele>16.9</ele><time>2030-06-30T10:16:38Z</time></trkpt>
   <trkpt lat="51.20420" lon="3.20638"><ele>16.4</ele><time>2030-06-30T10:16:48Z</time></trkpt>
   <trkpt lat="51.20397" lon="3.20633"><ele>15.9</ele><time>2030-06-30T10:16:58Z</time></trkpt>
   <trkpt lat="51.20374" lon="3.20628"><ele>15.5</ele><time>2030-06-30T10:17:08Z</time></trkpt>
   <trkpt lat="51.20351" lon="3.20624"><ele>15.0</ele><time>2030-06-30T10:17:18Z</time></trkpt>
   <trkpt lat="51.20328" lon="3.20619"><ele>14.6</ele><time>2030-06-30T10:17:28Z</time></trkpt>
   <trkpt lat="51.20305" lon="3.20614"><ele>14.1</ele><time>2030-06-30T10:17:38Z</time></trkpt>
   <trkpt lat="51.20282" lon="3.20609"><ele>13.6</ele><time>2030-06-30T10:17:48Z</time></trkpt>
   <trkpt lat="51.20259" lon="3.20604"><ele>13.2</ele><time>2030-06-30T10:17:58Z</time></trkpt>
   <trkpt lat="51.20236" lon="3.20599"><ele>12.7</ele><time>2030-06-30T10:18:09Z</time></trkpt>
   <trkpt lat="51.20213" lon="3.20594"><ele>12.3</ele><time>2030-06-30T10:18:19Z</time></trkpt>
   <trkpt lat="51.20190" lon="3.20589"><ele>11.8</ele><time>2030-06-30T10:18:29Z</time></trkpt>
   <trkpt lat="51.20168" lon="3.20584"><ele>11.4</ele><time>2030-06-30T10:18:39Z</time></trkpt>
   <trkpt lat="51.20145" lon="3.20579"><ele>10.9</ele><time>2030-06-30T10:18:49Z</time></trkpt>
   <trkpt lat="51.20122" lon="3.20573"><ele>10.4</ele><time>2030-06-30T10:18:59Z</time></trkpt>
   <trkpt lat="51.20099" lon="3.20568"><ele>10.0</ele><time>2030-06-30T10:19:09Z</time></trkpt>
   <trkpt lat="51.20076" lon="3.20563"><ele>9.5</ele><time>2030-06-30T10:19:19Z</time></trkpt>
   <trkpt lat="51.20053" lon="3.20558"><ele>9.1</ele><time>2030-06-30T10:19:29Z</time></trkpt>
   <trkpt lat="51.20030" lon="3.20553"><ele>8.6</ele><time>2030-06-30T10:19:39Z</time></trkpt>
   <trkpt lat="51.20007" lon="3.20547"><ele>8.1</ele><time>2030-06-30T10:19:49Z</time></trkpt>
   <trkpt lat="51.19984" lon="3.20542"><ele>7.7</ele><time>2030-06-30T10:19:59Z</time></trkpt>
   <trkpt lat="51.19961" lon="3.20537"><ele>7.2</ele><time>2030-06-30T10:20:09Z</time></trkpt>
   <trkpt lat="51.19938" lon="3.20532"><ele>6.8</ele><time>2030-06-30T10:20:19Z</time></trkpt>
   <trkpt lat="51.19915" lon="3.20526"><ele>6.3</ele><time>2030-06-30T10:20:29Z</time></trkpt>
   <trkpt lat="51.19892" lon="3.20521"><ele>5.8</ele><time>2030-06-30T10:20:39Z</time></trkpt>
   <trkpt lat="51.19869" lon="3.20516"><ele>5.4</ele><time>2030-06-30T10:20:49Z</time></trkpt>
   <trkpt lat="51.19846" lon="3.20511"><ele>4.9</ele><time>2030-06-30T10:20:59Z</time></trkpt>
   <trkpt lat="51.19823" lon="3.20505"><ele>4.5</ele><time>2030-06-30T10:21:09Z</time></trkpt>
   <trkpt lat="51.19800" lon="3.20500"><ele>4.0</ele><time>2030-06-30T10:21:19Z</time></trkpt>
 </trkseg></trk>
</gpx>
