<?xml version="1.0" encoding="UTF-8"?>
<gpx version="1.1" creator="vitai-demo" xmlns="http://www.topografix.com/GPX/1/1">
 <trk><name>river-ten</name><trkseg>
   <trkpt lat="51.19800" lon="3.20500"><ele>4.0</ele><time>2030-06-02T09:20:00Z</time></trkpt>
   <trkpt lat="51.19822" lon="3.20505"><ele>4.4</ele><time>2030-06-02T09:20:10Z</time></trkpt>
   <trkpt lat="51.19844" lon="3.20510"><ele>4.9</ele><time>2030-06-02T09:20:20Z</time></trkpt>
   <trkpt lat="51.19867" lon="3.20515"><ele>5.3</ele><time>2030-06-02T09:20:30Z</time></trkpt>
   <trkpt lat="51.19889" lon="3.20520"><ele>5.8</ele><time>2030-06-02T09:20:40Z</time></trkpt>
   <trkpt lat="51.19911" lon="3.20525"><ele>6.2</ele><time>2030-06-02T09:20:50Z</time></trkpt>
   <trkpt lat="51.19933" lon="3.20530"><ele>6.7</ele><time>2030-06-02T09:21:00Z</time></trkpt>
   <trkpt lat="51.19956" lon="3.20535"><ele>7.1</ele><time>2030-06-02T09:21:10Z</time></trkpt>
   <trkpt lat="51.19978" lon="3.20540"><ele>7.6</ele><time>2030-06-02T09:21:20Z</time></trkpt>
   <trkpt lat="51.20000" lon="3.20545"><ele>8.0</ele><time>2030-06-02T09:21:30Z</time></trkpt>
   <trkpt lat="51.20022" lon="3.20550"><ele>8.4</ele><time>2030-06-02T09:21:40Z</time></trkpt>
   <trkpt lat="51.20045" lon="3.20555"><ele>8.9</ele><time>2030-06-02T09:21:50Z</time></trkpt>
   <trkpt lat="51.20067" lon="3.20560"><ele>9.3</ele><time>2030-06-02T09:22:00Z</time></trkpt>
   <trkpt lat="51.20089" lon="3.20565"><ele>9.8</ele><time>2030-06-02T09:22:10Z</time></trkpt>
   <trkpt lat="51.20111" lon="3.20570"><ele>10.2</ele><time>2030-06-02T09:22:20Z</time></trkpt>
   <trkpt lat="51.20134" lon="3.20575"><ele>10.7</ele><time>2030-06-02T09:22:30Z</time></trkpt>
   <trkpt lat="51.20156" lon="3.20579"><ele>11.1</ele><time>2030-06-02T09:22:40Z</time></trkpt>
   <trkpt lat="51.20178" lon="3.20584"><ele>11.6</ele><time>2030-06-02T09:22:50Z</time></trkpt>
   <trkpt lat="51.20200" lon="3.20589"><ele>12.0</ele><time>2030-06-02T09:23:00Z</time></trkpt>
   <trkpt lat="51.20223" lon="3.20594"><ele>12.5</ele><time>2030-06-02T09:23:10Z</time></trkpt>
   <trkpt lat="51.20245" lon="3.20599"><ele>12.9</ele><time>2030-06-02T09:23:20Z</time></trkpt>
   <trkpt lat="51.20267" lon="3.20603"><ele>13.3</ele><time>2030-06-02T09:23:30Z</time></trkpt>
   <trkpt lat="51.20289" lon="3.20608"><ele>13.8</ele><time>2030-06-02T09:23:40Z</time></trkpt>
   <trkpt lat="51.20312" lon="3.20613"><ele>14.2</ele><time>2030-06-02T09:23:50Z</time></trkpt>
   <trkpt lat="51.20334" lon="3.20617"><ele>14.7</ele><time>2030-06-02T09:24:00Z</time></trkpt>
   <trkpt lat="51.20356" lon="3.20622"><ele>15.1</ele><time>2030-06-02T09:24:10Z</time></trkpt>
   <trkpt lat="51.20378" lon="3.20627"><ele>15.6</ele><time>2030-06-02T09:24:20Z</time></trkpt>
   <trkpt lat="51.20401" lon="3.20631"><ele>16.0</ele><time>2030-06-02T09:24:30Z</time></trkpt>
   <trkpt lat="51.20423" lon="3.20636"><ele>16.5</ele><time>2030-06-02T09:24:40Z</time></trkpt>
   <trkpt lat="51.20445" lon="3.20640"><ele>16.9</ele><time>2030-06-02T09:24:50Z</time></trkpt>
   <trkpt lat="51.20467" lon="3.20645"><ele>17.3</ele><time>2030-06-02T09:25:00Z</time></trkpt>
   <trkpt lat="51.20490" lon="3.20649"><ele>17.8</ele><time>2030-06-02T09:25:10Z</time></trkpt>
   <trkpt lat="51.20512" lon="3.20654"><ele>18.2</ele><time>2030-06-02T09:25:20Z</time></trkpt>
   <trkpt lat="51.20534" lon="3.20658"><ele>18.7</ele><time>2030-06-02T09:25:30Z</time></trkpt>
   <trkpt lat="51.20556" lon="3.20662"><ele>19.1</ele><time>2030-06-02T09:25:40Z</time></trkpt>
   <trkpt lat="51.20579" lon="3.20666"><ele>19.6</ele><time>2030-06-02T09:25:50Z</time></trkpt>
   <trkpt lat="51.20601" lon="3.20671"><ele>20.0</ele><time>2030-06-02T09:26:00Z</time></trkpt>
   <trkpt lat="51.20623" lon="3.20675"><ele>20.5</ele><time>2030-06-02T09:26:10Z</time></trkpt>
   <trkpt lat="51.20645" lon="3.20679"><ele>20.9</ele><time>2030-06-02T09:26:20Z</time></trkpt>
   <trkpt lat="51.20668" lon="3.20683"><ele>21.4</ele><time>2030-06-02T09:26:30Z</time></trkpt>
   <trkpt lat="51.20690" lon="3.20687"><ele>21.8</ele><time>2030-06-02T09:26:40Z</time></trkpt>
   <trkpt lat="51.20712" lon="3.20691"><ele>22.2</ele><time>2030-06-02T09:26:50Z</time></trkpt>
   <trkpt lat="51.20734" lon="3.20695"><ele>22.7</ele><time>2030-06-02T09:27:00Z</time></trkpt>
   <trkpt lat="51.20757" lon="3.20699"><ele>23.1</ele><time>2030-06-02T09:27:10Z</time></trkpt>
   <trkpt lat="51.20779" lon="3.20703"><ele>23.6</ele><time>2030-06-02T09:27:20Z</time></trkpt>
   <trkpt lat="51.20801" lon="3.20706"><ele>24.0</ele><time>2030-06-02T09:27:30Z</time></trkpt>
   <trkpt lat="51.20823" lon="3.20710"><ele>24.5</ele><time>2030-06-02T09:27:40Z</time></trkpt>
   <trkpt lat="51.20846" lon="3.20714"><ele>24.9</ele><time>2030-06-02T09:27:50Z</time></trkpt>
   <trkpt lat="51.20868" lon="3.20717"><ele>25.4</ele><time>2030-06-02T09:28:00Z</time></trkpt>
   <trkpt lat="51.20890" lon="3.20721"><ele>25.8</ele><time>2030-06-02T09:28:10Z</time></trkpt>
   <trkpt lat="51.20912" lon="3.20724"><ele>26.2</ele><time>2030-06-02T09:28:20Z</time></trkpt>
   <trkpt lat="51.20935" lon="3.20728"><ele>26.7</ele><time>2030-06-02T09:28:30Z</time></trkpt>
   <trkpt lat="51.20957" lon="3.20731"><ele>27.1</ele><time>2030-06-02T09:28:40Z</time></trkpt>
   <trkpt lat="51.20979" lon="3.20735"><ele>27.6</ele><time>2030-06-02T09:28:50Z</time></trkpt>
   <trkpt lat="51.21001" lon="3.20738"><ele>28.0</ele><time>2030-06-02T09:29:00Z</time></trkpt>
   <trkpt lat="51.21024" lon="3.20741"><ele>28.5</ele><time>2030-06-02T09:29:10Z</time></trkpt>
   <trkpt lat="51.21046" lon="3.20744"><ele>28.9</ele><time>2030-06-02T09:29:20Z</time></trkpt>
   <trkpt lat="51.21068" lon="3.20747"><ele>29.4</ele><time>2030-06-02T09:29:30Z</time></trkpt>
   <trkpt lat="51.21090" lon="3.20750"><ele>29.8</ele><time>2030-06-02T09:29:40Z</time></trkpt>
   <trkpt lat="51.21113" lon="3.20753"><ele>30.3</ele><time>2030-06-02T09:29:50Z</time></trkpt>
   <trkpt lat="51.21135" lon="3.20756"><ele>30.7</ele><time>2030-06-02T09:30:00Z</time></trkpt>
   <trkpt lat="51.21157" lon="3.20759"><ele>31.1</ele><time>2030-06-02T09:30:10Z</time></trkpt>
   <trkpt lat="51.21179" lon="3.20762"><ele>31.6</ele><time>2030-06-02T09:30:20Z</time></trkpt>
   <trkpt lat="51.21202" lon="3.20764"><ele>32.0</ele><time>2030-06-02T09:30:30Z</time></trkpt>
   <trkpt lat="51.21224" lon="3.20767"><ele>32.5</ele><time>2030-06-02T09:30:40Z</time></trkpt>
   <trkpt lat="51.21246" lon="3.20769"><ele>32.9</ele><time>2030-06-02T09:30:50Z</time></trkpt>
   <trkpt lat="51.21268" lon="3.20772"><ele>33.4</ele><time>2030-06-02T09:31:00Z</time></trkpt>
   <trkpt lat="51.21291" lon="3.20774"><ele>33.8</ele><time>2030-06-02T09:31:10Z</time></trkpt>
   <trkpt lat="51.21313" lon="3.20776"><ele>34.3</ele><time>2030-06-02T09:31:20Z</time></trkpt>
   <trkpt lat="51.21335" lon="3.20779"><ele>34.7</ele><time>2030-06-02T09:31:30Z</time></trkpt>
   <trkpt lat="51.21357" lon="3.20781"><ele>35.1</ele><time>2030-06-02T09:31:40Z</time></trkpt>
   <trkpt lat="51.21380" lon="3.20783"><ele>35.6</ele><time>2030-06-02T09:31:50Z</time></trkpt>
   <trkpt lat="51.21402" lon="3.20785"><ele>36.0</ele><time>2030-06-02T09:32:00Z</time></trkpt>
   <trkpt lat="51.21424" lon="3.20787"><ele>36.5</ele><time>2030-06-02T09:32:10Z</time></trkpt>
   <trkpt lat="51.21446" lon="3.20789"><ele>36.9</ele><time>2030-06-02T09:32:20Z</time></trkpt>
   <trkpt lat="51.21469" lon="3.20791"><ele>37.4</ele><time>2030-06-02T09:32:30Z</time></trkpt>
   <trkpt lat="51.21491" lon="3.20792"><ele>37.8</ele><time>2030-06-02T09:32:40Z</time></trkpt>
   <trkpt lat="51.21513" lon="3.20794"><ele>38.3</ele><time>2030-06-02T09:32:50Z</time></trkpt>
   <trkpt lat="51.21535" lon="3.20795"><ele>38.7</ele><time>2030-06-02T09:33:00Z</time></trkpt>
   <trkpt lat="51.21558" lon="3.20797"><ele>39.2</ele><time>2030-06-02T09:33:10Z</time></trkpt>
   <trkpt lat="51.21580" lon="3.20798"><ele>39.6</ele><time>2030-06-02T09:33:20Z</time></trkpt>
   <trkpt lat="51.21602" lon="3.20800"><ele>40.0</ele><time>2030-06-02T09:33:30Z</time></trkpt>
   <trkpt lat="51.21624" lon="3.20801"><ele>40.5</ele><time>2030-06-02T09:33:40Z</time></trkpt>
   <trkpt lat="51.21647" lon="3.20802"><ele>40.9</ele><time>2030-06-02T09:33:50Z</time></trkpt>
   <trkpt lat="51.21669" lon="3.20803"><ele>41.4</ele><time>2030-06-02T09:34:00Z</time></trkpt>
   <trkpt lat="51.21691" lon="3.20804"><ele>41.8</ele><time>2030-06-02T09:34:10Z</time></trkpt>
   <trkpt lat="51.21713" lon="3.20805"><ele>42.3</ele><time>2030-06-02T09:34:20Z</time></trkpt>
   <trkpt lat="51.21736" lon="3.20806"><ele>42.7</ele><time>2030-06-02T09:34:30Z</time></trkpt>
   <trkpt lat="51.21758" lon="3.20807"><ele>43.2</ele><time>2030-06-02T09:34:40Z</time></trkpt>
   <trkpt lat="51.21780" lon="3.20807"><ele>43.6</ele><time>2030-06-02T09:34:50Z</time></trkpt>
   <trkpt lat="51.21802" lon="3.20808"><ele>44.0</ele><time>2030-06-02T09:35:00Z</time></trkpt>
   <trkpt lat="51.21825" lon="3.20809"><ele>44.5</ele><time>2030-06-02T09:35:10Z</time></trkpt>
   <trkpt lat="51.21847" lon="3.20809"><ele>44.9</ele><time>2030-06-02T09:35:20Z</time></trkpt>
   <trkpt lat="51.21869" lon="3.20809"><ele>45.4</ele><time>2030-06-02T09:35:30Z</time></trkpt>
   <trkpt lat="51.21891" lon="3.20810"><ele>45.8</ele><time>2030-06-02T09:35:40Z</time></trkpt>
   <trkpt lat="51.21914" lon="3.20810"><ele>46.3</ele><time>2030-06-02T09:35:50Z</time></trkpt>
   <trkpt lat="51.21936" lon="3.20810"><ele>46.7</ele><time>2030-06-02T09:36:00Z</time></trkpt>
   <trkpt lat="51.21958" lon="3.20810"><ele>47.2</ele><time>2030-06-02T09:36:10Z</time></trkpt>
   <trkpt lat="51.21980" lon="3.20810"><ele>47.6</ele><time>2030-06-02T09:36:21Z</time></trkpt>
   <trkpt lat="51.22003" lon="3.20810"><ele>48.1</ele><time>2030-06-02T09:36:31Z</time></trkpt>
   <trkpt lat="51.22025" lon="3.20810"><ele>48.5</ele><time>2030-06-02T09:36:41Z</time></trkpt>
   <trkpt lat="51.22047" lon="3.20809"><ele>48.9</ele><time>2030-06-02T09:36:51Z</time></trkpt>
   <trkpt lat="51.22069" lon="3.20809"><ele>49.4</ele><time>2030-06-02T09:37:01Z</time></trkpt>
   <trkpt lat="51.22092" lon="3.20809"><ele>49.8</ele><time>2030-06-02T09:37:11Z</time></trkpt>
   <trkpt lat="51.22114" lon="3.20808"><ele>50.3</ele><time>2030-06-02T09:37:21Z</time></trkpt>
   <trkpt lat="51.22136" lon="3.20807"><ele>50.7</ele><time>2030-06-02T09:37:31Z</time></trkpt>
   <trkpt lat="51.22158" lon="3.20807"><ele>51.2</ele><time>2030-06-02T09:37:41Z</time></trkpt>
   <trkpt lat="51.22181" lon="3.20806"><ele>51.6</ele><time>2030-06-02T09:37:51Z</time></trkpt>
   <trkpt lat="51.22203" lon="3.20805"><ele>52.1</ele><time>2030-06-02T09:38:01Z</time></trkpt>
   <trkpt lat="51.22225" lon="3.20804"><ele>52.5</ele><time>2030-06-02T09:38:11Z</time></trkpt>
   <trkpt lat="51.22247" lon="3.20803"><ele>52.9</ele><time>2030-06-02T09:38:21Z</time></trkpt>
   <trkpt lat="51.22270" lon="3.20802"><ele>53.4</ele><time>2030-06-02T09:38:31Z</time></trkpt>
   <trkpt lat="51.22292" lon="3.20801"><ele>53.8</ele><time>2030-06-02T09:38:41Z</time></trkpt>
   <trkpt lat="51.22314" lon="3.20800"><ele>54.3</ele><time>2030-06-02T09:38:51Z</time></trkpt>
   <trkpt lat="51.22336" lon="3.20798"><ele>54.7</ele><time>2030-06-02T09:39:01Z</time></trkpt>
   <trkpt lat="51.22359" lon="3.20797"><ele>55.2</ele><time>2030-06-02T09:39:11Z</time></trkpt>
   <trkpt lat="51.22381" lon="3.20795"><ele>55.6</ele><time>2030-06-02T09:39:21Z</time></trkpt>
   <trkpt lat="51.22403" lon="3.20794"><ele>56.1</ele><time>2030-06-02T09:39:31Z</time></trkpt>
   <trkpt lat="51.22425" lon="3.20792"><ele>56.5</ele><time>2030-06-02T09:39:41Z</time></trkpt>
   <trkpt lat="51.22448" lon="3.20791"><ele>57.0</ele><time>2030-06-02T09:39:51Z</time></trkpt>
   <trkpt lat="51.22470" lon="3.20789"><ele>57.4</ele><time>2030-06-02T09:40:01Z</time></trkpt>
   <trkpt lat="51.22492" lon="3.20787"><ele>57.8</ele><time>2030-06-02T09:40:11Z</time></trkpt>
   <trkpt lat="51.22514" lon="3.20785"><ele>58.3</ele><time>2030-06-02T09:40:21Z</time></trkpt>
   <trkpt lat="51.22537" lon="3.20783"><ele>58.7</ele><time>2030-06-02T09:40:31Z</time></trkpt>
   <trkpt lat="51.22559" lon="3.20781"><ele>59.2</ele><time>2030-06-02T09:40:41Z</time></trkpt>
   <trkpt lat="51.22581" lon="3.20779"><ele>59.6</ele><time>2030-06-02T09:40:51Z</time></trkpt>
   <trkpt lat="51.22603" lon="3.20776"><ele>60.1</ele><time>2030-06-02T09:41:01Z</time></trkpt>
   <trkpt lat="51.22626" lon="3.20774"><ele>60.5</ele><time>2030-06-02T09:41:11Z</time></trkpt>
   <trkpt lat="51.22648" lon="3.20772"><ele>61.0</ele><time>2030-06-02T09:41:21Z</time></trkpt>
   <trkpt lat="51.22670" lon="3.20769"><ele>61.4</ele><time>2030-06-02T09:41:31Z</time></trkpt>
   <trkpt lat="51.22692" lon="3.20767"><ele>61.8</ele><time>2030-06-02T09:41:41Z</time></trkpt>
   <trkpt lat="51.22715" lon="3.20764"><ele>62.3</ele><time>2030-06-02T09:41:51Z</time></trkpt>
   <trkpt lat="51.22737" lon="3.20762"><ele>62.7</ele><time>2030-06-02T09:42:01Z</time></trkpt>
   <trkpt lat="51.22759" lon="3.20759"><ele>63.2</ele><time>2030-06-02T09:42:11Z</time></trkpt>
   <trkpt lat="51.22781" lon="3.20756"><ele>63.6</ele><time>2030-06-02T09:42:21Z</time></trkpt>
   <trkpt lat="51.22804" lon="3.20753"><ele>64.1</ele><time>2030-06-02T09:42:31Z</time></trkpt>
   <trkpt lat="51.22826" lon="3.20750"><ele>64.5</ele><time>2030-06-02T09:42:41Z</time></trkpt>
   <trkpt lat="51.22848" lon="3.20747"><ele>65.0</ele><time>2030-06-02T09:42:51Z</time></trkpt>
   <trkpt lat="51.22870" lon="3.20744"><ele>65.4</ele><time>2030-06-02T09:43:01Z</time></trkpt>
   <trkpt lat="51.22893" lon="3.20741"><ele>65.9</ele><time>2030-06-02T09:43:11Z</time></trkpt>
   <trkpt lat="51.22915" lon="3.20738"><ele>66.3</ele><time>2030-06-02T09:43:21Z</time></trkpt>
   <trkpt lat="51.22937" lon="3.20735"><ele>66.7</ele><time>2030-06-02T09:43:31Z</time></trkpt>
   <trkpt lat="51.22959" lon="3.20731"><ele>67.2</ele><time>2030-06-02T09:43:41Z</time></trkpt>
   <trkpt lat="51.22982" lon="3.20728"><ele>67.6</ele><time>2030-06-02T09:43:51Z</time></trkpt>
   <trkpt lat="51.23004" lon="3.20724"><ele>68.1</ele><time>2030-06-02T09:44:01Z</time></trkpt>
   <trkpt lat="51.23026" lon="3.20721"><ele>68.5</ele><time>2030-06-02T09:44:11Z</time></trkpt>
   <trkpt lat="51.23048" lon="3.20717"><ele>69.0</ele><time>2030-06-02T09:44:21Z</time></trkpt>
   <trkpt lat="51.23071" lon="3.20714"><ele>69.4</ele><time>2030-06-02T09:44:31Z</time></trkpt>
   <trkpt lat="51.23093" lon="3.20710"><ele>69.9</ele><time>2030-06-02T09:44:41Z</time></trkpt>
   <trkpt lat="51.23115" lon="3.20706"><ele>70.3</ele><time>2030-06-02T09:44:51Z</time></trkpt>
   <trkpt lat="51.23137" lon="3.20703"><ele>70.7</ele><time>2030-06-02T09:45:01Z</time></trkpt>
   <trkpt lat="51.23160" lon="3.20699"><ele>71.2</ele><time>2030-06-02T09:45:11Z</time></trkpt>
   <trkpt lat="51.23182" lon="3.20695"><ele>71.6</ele><time>2030-06-02T09:45:21Z</time></trkpt>
   <trkpt lat="51.23204" lon="3.20691"><ele>72.1</ele><time>2030-06-02T09:45:31Z</time></trkpt>
   <trkpt lat="51.23226" lon="3.20687"><ele>72.5</ele><time>2030-06-02T09:45:41Z</time></trkpt>
   <trkpt lat="51.23249" lon="3.20683"><ele>73.0</ele><time>2030-06-02T09:45:51Z</time></trkpt>
   <trkpt lat="51.23271" lon="3.20679"><ele>73.4</ele><time>2030-06-02T09:46:01Z</time></trkpt>
   <trkpt lat="51.23293" lon="3.20675"><ele>73.9</ele><time>2030-06-02T09:46:11Z</time></trkpt>
   <trkpt lat="51.23315" lon="3.20671"><ele>74.3</ele><time>2030-06-02T09:46:21Z</time></trkpt>
   <trkpt lat="51.23338" lon="3.20666"><ele>74.8</ele><time>2030-06-02T09:46:31Z</time></trkpt>
   <trkpt lat="51.23360" lon="3.20662"><ele>75.2</ele><time>2030-06-02T09:46:41Z</time></trkpt>
   <trkpt lat="51.23382" lon="3.20658"><ele>75.6</ele><time>2030-06-02T09:46:51Z</time></trkpt>
   <trkpt lat="51.23404" lon="3.20654"><ele>76.1</ele><time>2030-06-02T09:47:01Z</time></trkpt>
   <trkpt lat="51.23427" lon="3.20649"><ele>76.5</ele><time>2030-06-02T09:47:11Z</time></trkpt>
   <trkpt lat="51.23449" lon="3.20645"><ele>77.0</ele><time>2030-06-02T09:47:21Z</time></trkpt>
   <trkpt lat="51.23471" lon="3.20640"><ele>77.4</ele><time>2030-06-02T09:47:31Z</time></trkpt>
   <trkpt lat="51.23493" lon="3.20636"><ele>77.9</ele><time>2030-06-02T09:47:41Z</time></trkpt>
   <trkpt lat="51.23516" lon="3.20631"><ele>78.3</ele><time>2030-06-02T09:47:51Z</time></trkpt>
   <trkpt lat="51.23538" lon="3.20627"><ele>78.8</ele><time>2030-06-02T09:48:01Z</time></trkpt>
   <trkpt lat="51.23560" lon="3.20622"><ele>79.2</ele><time>2030-06-02T09:48:11Z</time></trkpt>
   <trkpt lat="51.23582" lon="3.20617"><ele>79.6</ele><time>2030-06-02T09:48:21Z</time></trkpt>
   <trkpt lat="51.23605" lon="3.20613"><ele>80.1</ele><time>2030-06-02T09:48:31Z</time></trkpt>
   <trkpt lat="51.23627" lon="3.20608"><ele>80.5</ele><time>2030-06-02T09:48:41Z</time></trkpt>
   <trkpt lat="51.23649" lon="3.20603"><ele>81.0</ele><time>2030-06-02T09:48:51Z</time></trkpt>
   <trkpt lat="51.23671" lon="3.20599"><ele>81.4</ele><time>2030-06-02T09:49:01Z</time></trkpt>
   <trkpt lat="51.23694" lon="3.20594"><ele>81.9</ele><time>2030-06-02T09:49:11Z</time></trkpt>
   <trkpt lat="51.23716" lon="3.20589"><ele>82.3</ele><time>2030-06-02T09:49:21Z</time></trkpt>
   <trkpt lat="51.23738" lon="3.20584"><ele>82.8</ele><time>2030-06-02T09:49:31Z</time></trkpt>
   <trkpt lat="51.23760" lon="3.20579"><ele>83.2</ele><time>2030-06-02T09:49:41Z</time></trkpt>
   <trkpt lat="51.23783" lon="3.20575"><ele>83.7</ele><time>2030-06-02T09:49:51Z</time></trkpt>
   <trkpt lat="51.23805" lon="3.20570"><ele>84.1</ele><time>2030-06-02T09:50:01Z</time></trkpt>
   <trkpt lat="51.23827" lon="3.20565"><ele>84.5</ele><time>2030-06-02T09:50:11Z</time></trkpt>
   <trkpt lat="51.23849" lon="3.20560"><ele>85.0</ele><time>2030-06-02T09:50:21Z</time></trkpt>
   <trkpt lat="51.23872" lon="3.20555"><ele>85.4</ele><time>2030-06-02T09:50:31Z</time></trkpt>
   <trkpt lat="51.23894" lon="3.20550"><ele>85.9</ele><time>2030-06-02T09:50:41Z</time></trkpt>
   <trkpt lat="51.23916" lon="3.20545"><ele>86.3</ele><time>2030-06-02T09:50:51Z</time></trkpt>
   <trkpt lat="51.23938" lon="3.20540"><ele>86.8</ele><time>2030-06-02T09:51:01Z</time></trkpt>
   <trkpt lat="51.23961" lon="3.20535"><ele>87.2</ele><time>2030-06-02T09:51:11Z</time></trkpt>
   <trkpt lat="51.23983" lon="3.20530"><ele>87.7</ele><time>2030-06-02T09:51:21Z</time></trkpt>
   <trkpt lat="51.24005" lon="3.20525"><ele>88.1</ele><time>2030-06-02T09:51:31Z</time></trkpt>
   <trkpt lat="51.24027" lon="3.20520"><ele>88.5</ele><time>2030-06-02T09:51:41Z</time></trkpt>
   <trkpt lat="51.24050" lon="3.20515"><ele>89.0</ele><time>2030-06-02T09:51:51Z</time></trkpt>
   <trkpt lat="51.24072" lon="3.20510"><ele>89.4</ele><time>2030-06-02T09:52:01Z</time></trkpt>
   <trkpt lat="51.24094" lon="3.20505"><ele>89.9</ele><time>2030-06-02T09:52:11Z</time></trkpt>
   <trkpt lat="51.24094" lon="3.20505"><ele>89.9</ele><time>2030-06-02T09:52:21Z</time></trkpt>
   <trkpt lat="51.24072" lon="3.20510"><ele>89.4</ele><time>2030-06-02T09:52:31Z</time></trkpt>
   <trkpt lat="51.24050" lon="3.20515"><ele>89.0</ele><time>2030-06-02T09:52:41Z</time></trkpt>
   <trkpt lat="51.24027" lon="3.20520"><ele>88.5</ele><time>2030-06-02T09:52:51Z</time></trkpt>
   <trkpt lat="51.24005" lon="3.20525"><ele>88.1</ele><time>2030-06-02T09:53:01Z</time></trkpt>
   <trkpt lat="51.23983" lon="3.20530"><ele>87.7</ele><time>2030-06-02T09:53:11Z</time></trkpt>
   <trkpt lat="51.23961" lon="3.20535"><ele>87.2</ele><time>2030-06-02T09:53:21Z</time></trkpt>
   <trkpt lat="51.23938" lon="3.20540"><ele>86.8</ele><time>2030-06-02T09:53:31Z</time></trkpt>
   <trkpt lat="51.23916" lon="3.20545"><ele>86.3</ele><time>2030-06-02T09:53:41Z</time></trkpt>
   <trkpt lat="51.23894" lon="3.20550"><ele>85.9</ele><time>2030-06-02T09:53:51Z</time></trkpt>
   <trkpt lat="51.23872" lon="3.20555"><ele>85.4</ele><time>2030-06-02T09:54:01Z</time></trkpt>
   <trkpt lat="51.23849" lon="3.20560"><ele>85.0</ele><time>2030-06-02T09:54:11Z</time></trkpt>
   <trkpt lat="51.23827" lon="3.20565"><ele>84.5</ele><time>2030-06-02T09:54:21Z</time></trkpt>
   <trkpt lat="51.23805" lon="3.20570"><ele>84.1</ele><time>2030-06-02T09:54:31Z</time></trkpt>
   <trkpt lat="51.23783" lon="3.20575"><ele>83.7</ele><time>2030-06-02T09:54:41Z</time></trkpt>
   <trkpt lat="51.23760" lon="3.20579"><ele>83.2</ele><time>2030-06-02T09:54:51Z</time></trkpt>
   <trkpt lat="51.23738" lon="3.20584"><ele>82.8</ele><time>2030-06-02T09:55:01Z</time></trkpt>
   <trkpt lat="51.23716" lon="3.20589"><ele>82.3</ele><time>2030-06-02T09:55:11Z</time></trkpt>
   <trkpt lat="51.23694" lon="3.20594"><ele>81.9</ele><time>2030-06-02T09:55:21Z</time></trkpt>
   <trkpt lat="51.23671" lon="3.20599"><ele>81.4</ele><time>2030-06-02T09:55:31Z</time></trkpt>
   <trkpt lat="51.23649" lon="3.20603"><ele>81.0</ele><time>2030-06-02T09:55:41Z</time></trkpt>
   <trkpt lat="51.23627" lon="3.20608"><ele>80.5</ele><time>2030-06-02T09:55:51Z</time></trkpt>
   <trkpt lat="51.23605" lon="3.20613"><ele>80.1</ele><time>2030-06-02T09:56:01Z</time></trkpt>
   <trkpt lat="51.23582" lon="3.20617"><ele>79.6</ele><time>2030-06-02T09:56:11Z</time></trkpt>
   <trkpt lat="51.23560" lon="3.20622"><ele>79.2</ele><time>2030-06-02T09:56:21Z</time></trkpt>
   <trkpt lat="51.23538" lon="3.20627"><ele>78.8</ele><time>2030-06-02T09:56:31Z</time></trkpt>
   <trkpt lat="51.23516" lon="3.20631"><ele>78.3</ele><time>2030-06-02T09:56:41Z</time></trkpt>
   <trkpt lat="51.23493" lon="3.20636"><ele>77.9</ele><time>2030-06-02T09:56:51Z</time></trkpt>
   <trkpt lat="51.23471" lon="3.20640"><ele>77.4</ele><time>2030-06-02T09:57:01Z</time></trkpt>
   <trkpt lat="51.23449" lon="3.20645"><ele>77.0</ele><time>2030-06-02T09:57:11Z</time></trkpt>
   <trkpt lat="51.23427" lon="3.20649"><ele>76.5</ele><time>2030-06-02T09:57:21Z</time></trkpt>
   <trkpt lat="51.23404" lon="3.20654"><ele>76.1</ele><time>2030-06-02T09:57:31Z</time></trkpt>
   <trkpt lat="51.23382" lon="3.20658"><ele>75.6</ele><time>2030-06-02T09:57:41Z</time></trkpt>
   <trkpt lat="51.23360" lon="3.20662"><ele>75.2</ele><time>2030-06-02T09:57:51Z</time></trkpt>
   <trkpt lat="51.23338" lon="3.20666"><ele>74.8</ele><time>2030-06-02T09:58:01Z</time></trkpt>
   <trkpt lat="51.23315" lon="3.20671"><ele>74.3</ele><time>2030-06-02T09:58:11Z</time></trkpt>
   <trkpt lat="51.23293" lon="3.20675"><ele>73.9</ele><time>2030-06-02T09:58:21Z</time></trkpt>
   <trkpt lat="51.23271" lon="3.20679"><ele>73.4</ele><time>2030-06-02T09:58:31Z</time></trkpt>
   <trkpt lat="51.23249" lon="3.20683"><ele>73.0</ele><time>2030-06-02T09:58:41Z</time></trkpt>
   <trkpt lat="51.23226" lon="3.20687"><ele>72.5</ele><time>2030-06-02T09:58:51Z</time></trkpt>
   <trkpt lat="51.23204" lon="3.20691"><ele>72.1</ele><time>2030-06-02T09:59:01Z</time></trkpt>
   <trkpt lat="51.23182" lon="3.20695"><ele>71.6</ele><time>2030-06-02T09:59:11Z</time></trkpt>
   <trkpt lat="51.23160" lon="3.20699"><ele>71.2</ele><time>2030-06-02T09:59:21Z</time></trkpt>
   <trkpt lat="51.23137" lon="3.20703"><ele>70.7</ele><time>2030-06-02T09:59:31Z</time></trkpt>
   <trkpt lat="51.23115" lon="3.20706"><ele>70.3</ele><time>2030-06-02T09:59:41Z</time></trkpt>
   <trkpt lat="51.23093" lon="3.20710"><ele>69.9</ele><time>2030-06-02T09:59:51Z</time></trkpt>
   <trkpt lat="51.23071" lon="3.20714"><ele>69.4</ele><time>2030-06-02T10:00:01Z</time></trkpt>
   <trkpt lat="51.23048" lon="3.20717"><ele>69.0</ele><time>2030-06-02T10:00:11Z</time></trkpt>
   <trkpt lat="51.23026" lon="3.20721"><ele>68.5</ele><time>2030-06-02T10:00:21Z</time></trkpt>
   <trkpt lat="51.23004" lon="3.20724"><ele>68.1</ele><time>2030-06-02T10:00:31Z</time></trkpt>
   <trkpt lat="51.22982" lon="3.20728"><ele>67.6</ele><time>2030-06-02T10:00:41Z</time></trkpt>
   <trkpt lat="51.22959" lon="3.20731"><ele>67.2</ele><time>2030-06-02T10:00:51Z</time></trkpt>
   <trkpt lat="51.22937" lon="3.20735"><ele>66.7</ele><time>2030-06-02T10:01:01Z</time></trkpt>
   <trkpt lat="51.22915" lon="3.20738"><ele>66.3</ele><time>2030-06-02T10:01:11Z</time></trkpt>
   <trkpt lat="51.22893" lon="3.20741"><ele>65.9</ele><time>2030-06-02T10:01:21Z</time></trkpt>
   <trkpt lat="51.22870" lon="3.20744"><ele>65.4</ele><time>2030-06-02T10:01:31Z</time></trkpt>
   <trkpt lat="51.22848" lon="3.20747"><ele>65.0</ele><time>2030-06-02T10:01:41Z</time></trkpt>
   <trkpt lat="51.22826" lon="3.20750"><ele>64.5</ele><time>2030-06-02T10:01:51Z</time></trkpt>
   <trkpt lat="51.22804" lon="3.20753"><ele>64.1</ele><time>2030-06-02T10:02:01Z</time></trkpt>
   <trkpt lat="51.22781" lon="3.20756"><ele>63.6</ele><time>2030-06-02T10:02:11Z</time></trkpt>
   <trkpt lat="51.22759" lon="3.20759"><ele>63.2</ele><time>2030-06-02T10:02:21Z</time></trkpt>
   <trkpt lat="51.22737" lon="3.20762"><ele>62.7</ele><time>2030-06-02T10:02:31Z</time></trkpt>
   <trkpt lat="51.22715" lon="3.20764"><ele>62.3</ele><time>2030-06-02T10:02:41Z</time></trkpt>
   <trkpt lat="51.22692" lon="3.20767"><ele>61.8</ele><time>2030-06-02T10:02:51Z</time></trkpt>
   <trkpt lat="51.22670" lon="3.20769"><ele>61.4</ele><time>2030-06-02T10:03:01Z</time></trkpt>
   <trkpt lat="51.22648" lon="3.20772"><ele>61.0</ele><time>2030-06-02T10:03:11Z</time></trkpt>
   <trkpt lat="51.22626" lon="3.20774"><ele>60.5</ele><time>2030-06-02T10:03:21Z</time></trkpt>
   <trkpt lat="51.22603" lon="3.20776"><ele>60.1</ele><time>2030-06-02T10:03:31Z</time></trkpt>
   <trkpt lat="51.22581" lon="3.20779"><ele>59.6</ele><time>2030-06-02T10:03:41Z</time></trkpt>
   <trkpt lat="51.22559" lon="3.20781"><ele>59.2</ele><time>2030-06-02T10:03:51Z</time></trkpt>
   <trkpt lat="51.22537" lon="3.20783"><ele>58.7</ele><time>2030-06-02T10:04:01Z</time></trkpt>
   <trkpt lat="51.22514" lon="3.20785"><ele>58.3</ele><time>2030-06-02T10:04:11Z</time></trkpt>
   <trkpt lat="51.22492" lon="3.20787"><ele>57.8</ele><time>2030-06-02T10:04:21Z</time></trkpt>
   <trkpt lat="51.22470" lon="3.20789"><ele>57.4</ele><time>2030-06-02T10:04:31Z</time></trkpt>
   <trkpt lat="51.22448" lon="3.20791"><ele>57.0</ele><time>2030-06-02T10:04:41Z</time></trkpt>
   <trkpt lat="51.22425" lon="3.20792"><ele>56.5</ele><time>2030-06-02T10:04:51Z</time></trkpt>
   <trkpt lat="51.22403" lon="3.20794"><ele>56.1</ele><time>2030-06-02T10:05:01Z</time></trkpt>
   <trkpt lat="51.22381" lon="3.20795"><ele>55.6</ele><time>2030-06-02T10:05:11Z</time></trkpt>
   <trkpt lat="51.22359" lon="3.20797"><ele>55.2</ele><time>2030-06-02T10:05:21Z</time></trkpt>
   <trkpt lat="51.22336" lon="3.20798"><ele>54.7</ele><time>2030-06-02T10:05:31Z</time></trkpt>
   <trkpt lat="51.22314" lon="3.20800"><ele>54.3</ele><time>2030-06-02T10:05:41Z</time></trkpt>
   <trkpt lat="51.22292" lon="3.20801"><ele>53.8</ele><time>2030-06-02T10:05:51Z</time></trkpt>
   <trkpt lat="51.22270" lon="3.20802"><ele>53.4</ele><time>2030-06-02T10:06:01Z</time></trkpt>
   <trkpt lat="51.22247" lon="3.20803"><ele>52.9</ele><time>2030-06-02T10:06:11Z</time></trkpt>
   <trkpt lat="51.22225" lon="3.20804"><ele>52.5</ele><time>2030-06-02T10:06:21Z</time></trkpt>
   <trkpt lat="51.22203" lon="3.20805"><ele>52.1</ele><time>2030-06-02T10:06:31Z</time></trkpt>
   <trkpt lat="51.22181" lon="3.20806"><ele>51.6</ele><time>2030-06-02T10:06:41Z</time></trkpt>
   <trkpt lat="51.22158" lon="3.20807"><ele>51.2</ele><time>2030-06-02T10:06:51Z</time></trkpt>
   <trkpt lat="51.22136" lon="3.20807"><ele>50.7</ele><time>2030-06-02T10:07:01Z</time></trkpt>
   <trkpt lat="51.22114" lon="3.20808"><ele>50.3</ele><time>2030-06-02T10:07:11Z</time></trkpt>
   <trkpt lat="51.22092" lon="3.20809"><ele>49.8</ele><time>2030-06-02T10:07:21Z</time></trkpt>
   <trkpt lat="51.22069" lon="3.20809"><ele>49.4</ele><time>2030-06-02T10:07:31Z</time></trkpt>
   <trkpt lat="51.22047" lon="3.20809"><ele>48.9</ele><time>2030-06-02T10:07:41Z</time></trkpt>
   <trkpt lat="51.22025" lon="3.20810"><ele>48.5</ele><time>2030-06-02T10:07:51Z</time></trkpt>
   <trkpt lat="51.22003" lon="3.20810"><ele>48.1</ele><time>2030-06-02T10:08:01Z</time></trkpt>
   <trkpt lat="51.21980" lon="3.20810"><ele>47.6</ele><time>2030-06-02T10:08:11Z</time></trkpt>
   <trkpt lat="51.21958" lon="3.20810"><ele>47.2</ele><time>2030-06-02T10:08:21Z</time></trkpt>
   <trkpt lat="51.21936" lon="3.20810"><ele>46.7</ele><time>2030-06-02T10:08:32Z</time></trkpt>
   <trkpt lat="51.21914" lon="3.20810"><ele>46.3</ele><time>2030-06-02T10:08:42Z</time></trkpt>
   <trkpt lat="51.21891" lon="3.20810"><ele>45.8</ele><time>2030-06-02T10:08:52Z</time></trkpt>
   <trkpt lat="51.21869" lon="3.20809"><ele>45.4</ele><time>2030-06-02T10:09:02Z</time></trkpt>
   <trkpt lat="51.21847" lon="3.20809"><ele>44.9</ele><time>2030-06-02T10:09:12Z</time></trkpt>
   <trkpt lat="51.21825" lon="3.20809"><ele>44.5</ele><time>2030-06-02T10:09:22Z</time></trkpt>
   <trkpt lat="51.21802" lon="3.20808"><ele>44.0</ele><time>2030-06-02T10:09:32Z</time></trkpt>
   <trkpt lat="51.21780" lon="3.20807"><ele>43.6</ele><time>2030-06-02T10:09:42Z</time></trkpt>
   <trkpt lat="51.21758" lon="3.20807"><ele>43.2</ele><time>2030-06-02T10:09:52Z</time></trkpt>
   <trkpt lat="51.21736" lon="3.20806"><ele>42.7</ele><time>2030-06-02T10:10:02Z</time></trkpt>
   <trkpt lat="51.21713" lon="3.20805"><ele>42.3</ele><time>2030-06-02T10:10:12Z</time></trkpt>
   <trkpt lat="51.21691" lon="3.20804"><ele>41.8</ele><time>2030-06-02T10:10:22Z</time></trkpt>
   <trkpt lat="51.21669" lon="3.20803"><ele>41.4</ele><time>2030-06-02T10:10:32Z</time></trkpt>
   <trkpt lat="51.21647" lon="3.20802"><ele>40.9</ele><time>2030-06-02T10:10:42Z</time></trkpt>
   <trkpt lat="51.21624" lon="3.20801"><ele>40.5</ele><time>2030-06-02T10:10:52Z</time></trkpt>
   <trkpt lat="51.21602" lon="3.20800"><ele>40.0</ele><time>2030-06-02T10:11:02Z</time></trkpt>
   <trkpt lat="51.21580" lon="3.20798"><ele>39.6</ele><time>2030-06-02T10:11:12Z</time></trkpt>
   <trkpt lat="51.21558" lon="3.20797"><ele>39.2</ele><time>2030-06-02T10:11:22Z</time></trkpt>
   <trkpt lat="51.21535" lon="3.20795"><ele>38.7</ele><time>2030-06-02T10:11:32Z</time></trkpt>
   <trkpt lat="51.21513" lon="3.20794"><ele>38.3</ele><time>2030-06-02T10:11:42Z</time></trkpt>
   <trkpt lat="51.21491" lon="3.20792"><ele>37.8</ele><time>2030-06-02T10:11:52Z</time></trkpt>
   <trkpt lat="51.21469" lon="3.20791"><ele>37.4</ele><time>2030-06-02T10:12:02Z</time></trkpt>
   <trkpt lat="51.21446" lon="3.20789"><ele>36.9</ele><time>2030-06-02T10:12:12Z</time></trkpt>
   <trkpt lat="51.21424" lon="3.20787"><ele>36.5</ele><time>2030-06-02T10:12:22Z</time></trkpt>
   <trkpt lat="51.21402" lon="3.20785"><ele>36.0</ele><time>2030-06-02T10:12:32Z</time></trkpt>
   <trkpt lat="51.21380" lon="3.20783"><ele>35.6</ele><time>2030-06-02T10:12:42Z</time></trkpt>
   <trkpt lat="51.21357" lon="3.20781"><ele>35.1</ele><time>2030-06-02T10:12:52Z</time></trkpt>
   <trkpt lat="51.21335" lon="3.20779"><ele>34.7</ele><time>2030-06-02T10:13:02Z</time></trkpt>
   <trkpt lat="51.21313" lon="3.20776"><ele>34.3</ele><time>2030-06-02T10:13:12Z</time></trkpt>
   <trkpt lat="51.21291" lon="3.20774"><ele>33.8</ele><time>2030-06-02T10:13:22Z</time></trkpt>
   <trkpt lat="51.21268" lon="3.20772"><ele>33.4</ele><time>2030-06-02T10:13:32Z</time></trkpt>
   <trkpt lat="51.21246" lon="3.20769"><ele>32.9</ele><time>2030-06-02T10:13:42Z</time></trkpt>
   <trkpt lat="51.21224" lon="3.20767"><ele>32.5</ele><time>2030-06-02T10:13:52Z</time></trkpt>
   <trkpt lat="51.21202" lon="3.20764"><ele>32.0</ele><time>2030-06-02T10:14:02Z</time></trkpt>
   <trkpt lat="51.21179" lon="3.20762"><ele>31.6</ele><time>2030-06-02T10:14:12Z</time></trkpt>
   <trkpt lat="51.21157" lon="3.20759"><ele>31.1</ele><time>2030-06-02T10:14:22Z</time></trkpt>
   <trkpt lat="51.21135" lon="3.20756"><ele>30.7</ele><time>2030-06-02T10:14:32Z</time></trkpt>
   <trkpt lat="51.21113" lon="3.20753"><ele>30.3</ele><time>2030-06-02T10:14:42Z</time></trkpt>
   <trkpt lat="51.21090" lon="3.20750"><ele>29.8</ele><time>2030-06-02T10:14:52Z</time></trkpt>
   <trkpt lat="51.21068" lon="3.20747"><ele>29.4</ele><time>2030-06-02T10:15:02Z</time></trkpt>
   <trkpt lat="51.21046" lon="3.20744"><ele>28.9</ele><time>2030-06-02T10:15:12Z</time></trkpt>
   <trkpt lat="51.21024" lon="3.20741"><ele>28.5</ele><time>2030-06-02T10:15:22Z</time></trkpt>
   <trkpt lat="51.21001" lon="3.20738"><ele>28.0</ele><time>2030-06-02T10:15:32Z</time></trkpt>
   <trkpt lat="51.20979" lon="3.20735"><ele>27.6</ele><time>2030-06-02T10:15:42Z</time></trkpt>
   <trkpt lat="51.20957" lon="3.20731"><ele>27.1</ele><time>2030-06-02T10:15:52Z</time></trkpt>
   <trkpt lat="51.20935" lon="3.20728"><ele>26.7</ele><time>2030-06-02T10:16:02Z</time></trkpt>
   <trkpt lat="51.20912" lon="3.20724"><ele>26.2</ele><time>2030-06-02T10:16:12Z</time></trkpt>
   <trkpt lat="51.20890" lon="3.20721"><ele>25.8</ele><time>2030-06-02T10:16:22Z</time></trkpt>
   <trkpt lat="51.20868" lon="3.20717"><ele>25.4</ele><time>2030-06-02T10:16:32Z</time></trkpt>
   <trkpt lat="51.20846" lon="3.20714"><ele>24.9</ele><time>2030-06-02T10:16:42Z</time></trkpt>
   <trkpt lat="51.20823" lon="3.20710"><ele>24.5</ele><time>2030-06-02T10:16:52Z</time></trkpt>
   <trkpt lat="51.20801" lon="3.20706"><ele>24.0</ele><time>2030-06-02T10:17:02Z</time></trkpt>
   <trkpt lat="51.20779" lon="3.20703"><ele>23.6</ele><time>2030-06-02T10:17:12Z</time></trkpt>
   <trkpt lat="51.20757" lon="3.20699"><ele>23.1</ele><time>2030-06-02T10:17:22Z</time></trkpt>
   <trkpt lat="51.20734" lon="3.20695"><ele>22.7</ele><time>2030-06-02T10:17:32Z</time></trkpt>
   <trkpt lat="51.20712" lon="3.20691"><ele>22.2</ele><time>2030-06-02T10:17:42Z</time></trkpt>
   <trkpt lat="51.20690" lon="3.20687"><ele>21.8</ele><time>2030-06-02T10:17:52Z</time></trkpt>
   <trkpt lat="51.20668" lon="3.20683"><ele>21.4</ele><time>2030-06-02T10:18:02Z</time></trkpt>
   <trkpt lat="51.20645" lon="3.20679"><ele>20.9</ele><time>2030-06-02T10:18:12Z</time></trkpt>
   <trkpt lat="51.20623" lon="3.20675"><ele>20.5</ele><time>2030-06-02T10:18:22Z</time></trkpt>
   <trkpt lat="51.20601" lon="3.20671"><ele>20.0</ele><time>2030-06-02T10:18:32Z</time></trkpt>
   <trkpt lat="51.20579" lon="3.20666"><ele>19.6</ele><time>2030-06-02T10:18:42Z</time></trkpt>
   <trkpt lat="51.20556" lon="3.20662"><ele>19.1</ele><time>2030-06-02T10:18:52Z</time></trkpt>
   <trkpt lat="51.20534" lon="3.20658"><ele>18.7</ele><time>2030-06-02T10:19:02Z</time></trkpt>
   <trkpt lat="51.20512" lon="3.20654"><ele>18.2</ele><time>2030-06-02T10:19:12Z</time></trkpt>
   <trkpt lat="51.20490" lon="3.20649"><ele>17.8</ele><time>2030-06-02T10:19:22Z</time></trkpt>
   <trkpt lat="51.20467" lon="3.20645"><ele>17.3</ele><time>2030-06-02T10:19:32Z</time></trkpt>
   <trkpt lat="51.20445" lon="3.20640"><ele>16.9</ele><time>2030-06-02T10:19:42Z</time></trkpt>
   <trkpt lat="51.20423" lon="3.20636"><ele>16.5</ele><time>2030-06-02T10:19:52Z</time></trkpt>
   <trkpt lat="51.20401" lon="3.20631"><ele>16.0</ele><time>2030-06-02T10:20:02Z</time></trkpt>
   <trkpt lat="51.20378" lon="3.20627"><ele>15.6</ele><time>2030-06-02T10:20:12Z</time></trkpt>
   <trkpt lat="51.20356" lon="3.20622"><ele>15.1</ele><time>2030-06-02T10:20:22Z</time></trkpt>
   <trkpt lat="51.20334" lon="3.20617"><ele>14.7</ele><time>2030-06-02T10:20:32Z</time></trkpt>
   <trkpt lat="51.20312" lon="3.20613"><ele>14.2</ele><time>2030-06-02T10:20:42Z</time></trkpt>
   <trkpt lat="51.20289" lon="3.20608"><ele>13.8</ele><time>2030-06-02T10:20:52Z</time></trkpt>
   <trkpt lat="51.20267" lon="3.20603"><ele>13.3</ele><time>2030-06-02T10:21:02Z</time></trkpt>
   <trkpt lat="51.20245" lon="3.20599"><ele>12.9</ele><time>2030-06-02T10:21:12Z</time></trkpt>
   <trkpt lat="51.20223" lon="3.20594"><ele>12.5</ele><time>2030-06-02T10:21:22Z</time></trkpt>
   <trkpt lat="51.20200" lon="3.20589"><ele>12.0</ele><time>2030-06-02T10:21:32Z</time></trkpt>
   <trkpt lat="51.20178" lon="3.20584"><ele>11.6</ele><time>2030-06-02T10:21:42Z</time></trkpt>
   <trkpt lat="51.20156" lon="3.20579"><ele>11.1</ele><time>2030-06-02T10:21:52Z</time></trkpt>
   <trkpt lat="51.20134" lon="3.20575"><ele>10.7</ele><time>2030-06-02T10:22:02Z</time></trkpt>
   <trkpt lat="51.20111" lon="3.20570"><ele>10.2</ele><time>2030-06-02T10:22:12Z</time></trkpt>
   <trkpt lat="51.20089" lon="3.20565"><ele>9.8</ele><time>2030-06-02T10:22:22Z</time></trkpt>
   <trkpt lat="51.20067" lon="3.20560"><ele>9.3</ele><time>2030-06-02T10:22:32Z</time></trkpt>
   <trkpt lat="51.20045" lon="3.20555"><ele>8.9</ele><time>2030-06-02T10:22:42Z</time></trkpt>
   <trkpt lat="51.20022" lon="3.20550"><ele>8.4</ele><time>2030-06-02T10:22:52Z</time></trkpt>
   <trkpt lat="51.20000" lon="3.20545"><ele>8.0</ele><time>2030-06-02T10:23:02Z</time></trkpt>
   <trkpt lat="51.19978" lon="3.20540"><ele>7.6</ele><time>2030-06-02T10:23:12Z</time></trkpt>
   <trkpt lat="51.19956" lon="3.20535"><ele>7.1</ele><time>2030-06-02T10:23:22Z</time></trkpt>
   <trkpt lat="51.19933" lon="3.20530"><ele>6.7</ele><time>2030-06-02T10:23:32Z</time></trkpt>
   <trkpt lat="51.19911" lon="3.20525"><ele>6.2</ele><time>2030-06-02T10:23:42Z</time></trkpt>
   <trkpt lat="51.19889" lon="3.20520"><ele>5.8</ele><time>2030-06-02T10:23:52Z</time></trkpt>
   <trkpt lat="51.19867" lon="3.20515"><ele>5.3</ele><time>2030-06-02T10:24:02Z</time></trkpt>
   <trkpt lat="51.19844" lon="3.20510"><ele>4.9</ele><time>2030-06-02T10:24:12Z</time></trkpt>
   <trkpt lat="51.19822" lon="3.20505"><ele>4.4</ele><time>2030-06-02T10:24:22Z</time></trkpt>
   <trkpt lat="51.19800" lon="3.20500"><ele>4.0</ele><time>2030-06-02T10:24:32Z</time></trkpt>
 </trkseg></trk>
</gpx>
