<?xml version="1.0" encoding="UTF-8"?>
<gpx version="1.1" creator="vitai-demo" xmlns="http://www.topografix.com/GPX/1/1">
 <trk><name>river-ten</name><trkseg>
   <trkpt lat="51.19800" lon="3.20500"><ele>4.0</ele><time>2030-06-16T09:20:00Z</time></trkpt>
   <trkpt lat="51.19825" lon="3.20505"><ele>4.5</ele><time>2030-06-16T09:20:10Z</time></trkpt>
   <trkpt lat="51.19850" lon="3.20510"><ele>5.0</ele><time>2030-06-16T09:20:20Z</time></trkpt>
   <trkpt lat="51.19875" lon="3.20515"><ele>5.5</ele><time>2030-06-16T09:20:30Z</time></trkpt>
   <trkpt lat="51.19900" lon="3.20521"><ele>6.0</ele><time>2030-06-16T09:20:40Z</time></trkpt>
   <trkpt lat="51.19925" lon="3.20526"><ele>6.5</ele><time>2030-06-16T09:20:50Z</time></trkpt>
   <trkpt lat="51.19949" lon="3.20531"><ele>7.0</ele><time>2030-06-16T09:21:00Z</time></trkpt>
   <trkpt lat="51.19974" lon="3.20536"><ele>7.5</ele><time>2030-06-16T09:21:10Z</time></trkpt>
   <trkpt lat="51.19999" lon="3.20541"><ele>8.0</ele><time>2030-06-16T09:21:20Z</time></trkpt>
   <trkpt lat="51.20024" lon="3.20546"><ele>8.5</ele><time>2030-06-16T09:21:30Z</time></trkpt>
   <trkpt lat="51.20049" lon="3.20551"><ele>9.0</ele><time>2030-06-16T09:21:40Z</time></trkpt>
   <trkpt lat="51.20074" lon="3.20556"><ele>9.5</ele><time>2030-06-16T09:21:50Z</time></trkpt>
   <trkpt lat="51.20099" lon="3.20561"><ele>10.0</ele><time>2030-06-16T09:22:00Z</time></trkpt>
   <trkpt lat="51.20124" lon="3.20566"><ele>10.5</ele><time>2030-06-16T09:22:10Z</time></trkpt>
   <trkpt lat="51.20149" lon="3.20571"><ele>11.0</ele><time>2030-06-16T09:22:20Z</time></trkpt>
   <trkpt lat="51.20174" lon="3.20576"><ele>11.5</ele><time>2030-06-16T09:22:30Z</time></trkpt>
   <trkpt lat="51.20198" lon="3.20581"><ele>12.0</ele><time>2030-06-16T09:22:40Z</time></trkpt>
   <trkpt lat="51.20223" lon="3.20586"><ele>12.5</ele><time>2030-06-16T09:22:50Z</time></trkpt>
   <trkpt lat="51.20248" lon="3.20591"><ele>13.0</ele><time>2030-06-16T09:23:00Z</time></trkpt>
   <trkpt lat="51.20273" lon="3.20596"><ele>13.5</ele><time>2030-06-16T09:23:10Z</time></trkpt>
   <trkpt lat="51.20298" lon="3.20601"><ele>14.0</ele><time>2030-06-16T09:23:20Z</time></trkpt>
   <trkpt lat="51.20323" lon="3.20606"><ele>14.5</ele><time>2030-06-16T09:23:30Z</time></trkpt>
   <trkpt lat="51.20348" lon="3.20611"><ele>15.0</ele><time>2030-06-16T09:23:40Z</time></trkpt>
   <trkpt lat="51.20373" lon="3.20616"><ele>15.5</ele><time>2030-06-16T09:23:50Z</time></trkpt>
   <trkpt lat="51.20398" lon="3.20620"><ele>16.0</ele><time>2030-06-16T09:24:00Z</time></trkpt>
   <trkpt lat="51.20423" lon="3.20625"><ele>16.5</ele><time>2030-06-16T09:24:10Z</time></trkpt>
   <trkpt lat="51.20448" lon="3.20630"><ele>17.0</ele><time>2030-06-16T09:24:20Z</time></trkpt>
   <trkpt lat="51.20472" lon="3.20635"><ele>17.4</ele><time>2030-06-16T09:24:30Z</time></trkpt>
   <trkpt lat="51.20497" lon="3.20639"><ele>17.9</ele><time>2030-06-16T09:24:40Z</time></trkpt>
   <trkpt lat="51.20522" lon="3.20644"><ele>18.4</ele><time>2030-06-16T09:24:50Z</time></trkpt>
   <trkpt lat="51.20547" lon="3.20648"><ele>18.9</ele><time>2030-06-16T09:25:00Z</time></trkpt>
   <trkpt lat="51.20572" lon="3.20653"><ele>19.4</ele><time>2030-06-16T09:25:10Z</time></trkpt>
   <trkpt lat="51.20597" lon="3.20657"><ele>19.9</ele><time>2030-06-16T09:25:20Z</time></trkpt>
   <trkpt lat="51.20622" lon="3.20662"><ele>20.4</ele><time>2030-06-16T09:25:30Z</time></trkpt>
   <trkpt lat="51.20647" lon="3.20666"><ele>20.9</ele><time>2030-06-16T09:25:40Z</time></trkpt>
   <trkpt lat="51.20672" lon="3.20670"><ele>21.4</ele><time>2030-06-16T09:25:50Z</time></trkpt>
   <trkpt lat="51.20697" lon="3.20675"><ele>21.9</ele><time>2030-06-16T09:26:00Z</time></trkpt>
   <trkpt lat="51.20722" lon="3.20679"><ele>22.4</ele><time>2030-06-16T09:26:10Z</time></trkpt>
   <trkpt lat="51.20746" lon="3.20683"><ele>22.9</ele><time>2030-06-16T09:26:20Z</time></trkpt>
   <trkpt lat="51.20771" lon="3.20687"><ele>23.4</ele><time>2030-06-16T09:26:30Z</time></trkpt>
   <trkpt lat="51.20796" lon="3.20691"><ele>23.9</ele><time>2030-06-16T09:26:40Z</time></trkpt>
   <trkpt lat="51.20821" lon="3.20695"><ele>24.4</ele><time>2030-06-16T09:26:50Z</time></trkpt>
   <trkpt lat="51.20846" lon="3.20699"><ele>24.9</ele><time>2030-06-16T09:27:00Z</time></trkpt>
   <trkpt lat="51.20871" lon="3.20703"><ele>25.4</ele><time>2030-06-16T09:27:10Z</time></trkpt>
   <trkpt lat="51.20896" lon="3.20707"><ele>25.9</ele><time>2030-06-16T09:27:20Z</time></trkpt>
   <trkpt lat="51.20921" lon="3.20711"><ele>26.4</ele><time>2030-06-16T09:27:30Z</time></trkpt>
   <trkpt lat="51.20946" lon="3.20715"><ele>26.9</ele><time>2030-06-16T09:27:40Z</time></trkpt>
   <trkpt lat="51.20971" lon="3.20718"><ele>27.4</ele><time>2030-06-16T09:27:50Z</time></trkpt>
   <trkpt lat="51.20995" lon="3.20722"><ele>27.9</ele><time>2030-06-16T09:28:00Z</time></trkpt>
   <trkpt lat="51.21020" lon="3.20725"><ele>28.4</ele><time>2030-06-16T09:28:10Z</time></trkpt>
   <trkpt lat="51.21045" lon="3.20729"><ele>28.9</ele><time>2030-06-16T09:28:20Z</time></trkpt>
   <trkpt lat="51.21070" lon="3.20732"><ele>29.4</ele><time>2030-06-16T09:28:30Z</time></trkpt>
   <trkpt lat="51.21095" lon="3.20736"><ele>29.9</ele><time>2030-06-16T09:28:40Z</time></trkpt>
   <trkpt lat="51.21120" lon="3.20739"><ele>30.4</ele><time>2030-06-16T09:28:50Z</time></trkpt>
   <trkpt lat="51.21145" lon="3.20742"><ele>30.9</ele><time>2030-06-16T09:29:00Z</time></trkpt>
   <trkpt lat="51.21170" lon="3.20746"><ele>31.4</ele><time>2030-06-16T09:29:10Z</time></trkpt>
   <trkpt lat="51.21195" lon="3.20749"><ele>31.9</ele><time>2030-06-16T09:29:20Z</time></trkpt>
   <trkpt lat="51.21220" lon="3.20752"><ele>32.4</ele><time>2030-06-16T09:29:30Z</time></trkpt>
   <trkpt lat="51.21245" lon="3.20755"><ele>32.9</ele><time>2030-06-16T09:29:40Z</time></trkpt>
   <trkpt lat="51.21269" lon="3.20758"><ele>33.4</ele><time>2030-06-16T09:29:50Z</time></trkpt>
   <trkpt lat="51.21294" lon="3.20760"><ele>33.9</ele><time>2030-06-16T09:30:00Z</time></trkpt>
   <trkpt lat="51.21319" lon="3.20763"><ele>34.4</ele><time>2030-06-16T09:30:10Z</time></trkpt>
   <trkpt lat="51.21344" lon="3.20766"><ele>34.9</ele><time>2030-06-16T09:30:20Z</time></trkpt>
   <trkpt lat="51.21369" lon="3.20768"><ele>35.4</ele><time>2030-06-16T09:30:30Z</time></trkpt>
   <trkpt lat="51.21394" lon="3.20771"><ele>35.9</ele><time>2030-06-16T09:30:41Z</time></trkpt>
   <trkpt lat="51.21419" lon="3.20773"><ele>36.4</ele><time>2030-06-16T09:30:51Z</time></trkpt>
   <trkpt lat="51.21444" lon="3.20776"><ele>36.9</ele><time>2030-06-16T09:31:01Z</time></trkpt>
   <trkpt lat="51.21469" lon="3.20778"><ele>37.4</ele><time>2030-06-16T09:31:11Z</time></trkpt>
   <trkpt lat="51.21494" lon="3.20780"><ele>37.9</ele><time>2030-06-16T09:31:21Z</time></trkpt>
   <trkpt lat="51.21518" lon="3.20783"><ele>38.4</ele><time>2030-06-16T09:31:31Z</time></trkpt>
   <trkpt lat="51.21543" lon="3.20785"><ele>38.9</ele><time>2030-06-16T09:31:41Z</time></trkpt>
   <trkpt lat="51.21568" lon="3.20787"><ele>39.4</ele><time>2030-06-16T09:31:51Z</time></trkpt>
   <trkpt lat="51.21593" lon="3.20789"><ele>39.9</ele><time>2030-06-16T09:32:01Z</time></trkpt>
   <trkpt lat="51.21618" lon="3.20790"><ele>40.4</ele><time>2030-06-16T09:32:11Z</time></trkpt>
   <trkpt lat="51.21643" lon="3.20792"><ele>40.9</ele><time>2030-06-16T09:32:21Z</time></trkpt>
   <trkpt lat="51.21668" lon="3.20794"><ele>41.4</ele><time>2030-06-16T09:32:31Z</time></trkpt>
   <trkpt lat="51.21693" lon="3.20795"><ele>41.9</ele><time>2030-06-16T09:32:41Z</time></trkpt>
   <trkpt lat="51.21718" lon="3.20797"><ele>42.4</ele><time>2030-06-16T09:32:51Z</time></trkpt>
   <trkpt lat="51.21743" lon="3.20798"><ele>42.9</ele><time>2030-06-16T09:33:01Z</time></trkpt>
   <trkpt lat="51.21768" lon="3.20800"><ele>43.4</ele><time>2030-06-16T09:33:11Z</time></trkpt>
   <trkpt lat="51.21792" lon="3.20801"><ele>43.8</ele><time>2030-06-16T09:33:21Z</time></trkpt>
   <trkpt lat="51.21817" lon="3.20802"><ele>44.3</ele><time>2030-06-16T09:33:31Z</time></trkpt>
   <trkpt lat="51.21842" lon="3.20803"><ele>44.8</ele><time>2030-06-16T09:33:41Z</time></trkpt>
   <trkpt lat="51.21867" lon="3.20804"><ele>45.3</ele><time>2030-06-16T09:33:51Z</time></trkpt>
   <trkpt lat="51.21892" lon="3.20805"><ele>45.8</ele><time>2030-06-16T09:34:01Z</time></trkpt>
   <trkpt lat="51.21917" lon="3.20806"><ele>46.3</ele><time>2030-06-16T09:34:11Z</time></trkpt>
   <trkpt lat="51.21942" lon="3.20807"><ele>46.8</ele><time>2030-06-16T09:34:21Z</time></trkpt>
   <trkpt lat="51.21967" lon="3.20808"><ele>47.3</ele><time>2030-06-16T09:34:31Z</time></trkpt>
   <trkpt lat="51.21992" lon="3.20808"><ele>47.8</ele><time>2030-06-16T09:34:41Z</time></trkpt>
   <trkpt lat="51.22017" lon="3.20809"><ele>48.3</ele><time>2030-06-16T09:34:51Z</time></trkpt>
   <trkpt lat="51.22042" lon="3.20809"><ele>48.8</ele><time>2030-06-16T09:35:01Z</time></trkpt>
   <trkpt lat="51.22066" lon="3.20809"><ele>49.3</ele><time>2030-06-16T09:35:11Z</time></trkpt>
   <trkpt lat="51.22091" lon="3.20810"><ele>49.8</ele><time>2030-06-16T09:35:21Z</time></trkpt>
   <trkpt lat="51.22116" lon="3.20810"><ele>50.3</ele><time>2030-06-16T09:35:31Z</time></trkpt>
   <trkpt lat="51.22141" lon="3.20810"><ele>50.8</ele><time>2030-06-16T09:35:41Z</time></trkpt>
   <trkpt lat="51.22166" lon="3.20810"><ele>51.3</ele><time>2030-06-16T09:35:51Z</time></trkpt>
   <trkpt lat="51.22191" lon="3.20810"><ele>51.8</ele><time>2030-06-16T09:36:01Z</time></trkpt>
   <trkpt lat="51.22216" lon="3.20810"><ele>52.3</ele><time>2030-06-16T09:36:11Z</time></trkpt>
   <trkpt lat="51.22241" lon="3.20809"><ele>52.8</ele><time>2030-06-16T09:36:21Z</time></trkpt>
   <trkpt lat="51.22266" lon="3.20809"><ele>53.3</ele><time>2030-06-16T09:36:31Z</time></trkpt>
   <trkpt lat="51.22291" lon="3.20809"><ele>53.8</ele><time>2030-06-16T09:36:41Z</time></trkpt>
   <trkpt lat="51.22315" lon="3.20808"><ele>54.3</ele><time>2030-06-16T09:36:51Z</time></trkpt>
   <trkpt lat="51.22340" lon="3.20808"><ele>54.8</ele><time>2030-06-16T09:37:01Z</time></trkpt>
   <trkpt lat="51.22365" lon="3.20807"><ele>55.3</ele><time>2030-06-16T09:37:11Z</time></trkpt>
   <trkpt lat="51.22390" lon="3.20806"><ele>55.8</ele><time>2030-06-16T09:37:21Z</time></trkpt>
   <trkpt lat="51.22415" lon="3.20805"><ele>56.3</ele><time>2030-06-16T09:37:31Z</time></trkpt>
   <trkpt lat="51.22440" lon="3.20804"><ele>56.8</ele><time>2030-06-16T09:37:41Z</time></trkpt>
   <trkpt lat="51.22465" lon="3.20803"><ele>57.3</ele><time>2030-06-16T09:37:51Z</time></trkpt>
   <trkpt lat="51.22490" lon="3.20802"><ele>57.8</ele><time>2030-06-16T09:38:01Z</time></trkpt>
   <trkpt lat="51.22515" lon="3.20801"><ele>58.3</ele><time>2030-06-16T09:38:11Z</time></trkpt>
   <trkpt lat="51.22540" lon="3.20800"><ele>58.8</ele><time>2030-06-16T09:38:21Z</time></trkpt>
   <trkpt lat="51.22565" lon="3.20798"><ele>59.3</ele><time>2030-06-16T09:38:31Z</time></trkpt>
   <trkpt lat="51.22589" lon="3.20797"><ele>59.8</ele><time>2030-06-16T09:38:41Z</time></trkpt>
   <trkpt lat="51.22614" lon="3.20795"><ele>60.3</ele><time>2030-06-16T09:38:51Z</time></trkpt>
   <trkpt lat="51.22639" lon="3.20794"><ele>60.8</ele><time>2030-06-16T09:39:01Z</time></trkpt>
   <trkpt lat="51.22664" lon="3.20792"><ele>61.3</ele><time>2030-06-16T09:39:11Z</time></trkpt>
   <trkpt lat="51.22689" lon="3.20790"><ele>61.8</ele><time>2030-06-16T09:39:21Z</time></trkpt>
   <trkpt lat="51.22714" lon="3.20789"><ele>62.3</ele><time>2030-06-16T09:39:31Z</time></trkpt>
   <trkpt lat="51.22739" lon="3.20787"><ele>62.8</ele><time>2030-06-16T09:39:41Z</time></trkpt>
   <trkpt lat="51.22764" lon="3.20785"><ele>63.3</ele><time>2030-06-16T09:39:51Z</time></trkpt>
   <trkpt lat="51.22789" lon="3.20783"><ele>63.8</ele><time>2030-06-16T09:40:01Z</time></trkpt>
   <trkpt lat="51.22814" lon="3.20780"><ele>64.3</ele><time>2030-06-16T09:40:11Z</time></trkpt>
   <trkpt lat="51.22838" lon="3.20778"><ele>64.8</ele><time>2030-06-16T09:40:21Z</time></trkpt>
   <trkpt lat="51.22863" lon="3.20776"><ele>65.3</ele><time>2030-06-16T09:40:31Z</time></trkpt>
   <trkpt lat="51.22888" lon="3.20773"><ele>65.8</ele><time>2030-06-16T09:40:41Z</time></trkpt>
   <trkpt lat="51.22913" lon="3.20771"><ele>66.3</ele><time>2030-06-16T09:40:51Z</time></trkpt>
   <trkpt lat="51.22938" lon="3.20768"><ele>66.8</ele><time>2030-06-16T09:41:01Z</time></trkpt>
   <trkpt lat="51.22963" lon="3.20766"><ele>67.3</ele><time>2030-06-16T09:41:11Z</time></trkpt>
   <trkpt lat="51.22988" lon="3.20763"><ele>67.8</ele><time>2030-06-16T09:41:21Z</time></trkpt>
   <trkpt lat="51.23013" lon="3.20760"><ele>68.3</ele><time>2030-06-16T09:41:31Z</time></trkpt>
   <trkpt lat="51.23038" lon="3.20758"><ele>68.8</ele><time>2030-06-16T09:41:41Z</time></trkpt>
   <trkpt lat="51.23063" lon="3.20755"><ele>69.3</ele><time>2030-06-16T09:41:51Z</time></trkpt>
   <trkpt lat="51.23088" lon="3.20752"><ele>69.8</ele><time>2030-06-16T09:42:01Z</time></trkpt>
   <trkpt lat="51.23112" lon="3.20749"><ele>70.2</ele><time>2030-06-16T09:42:11Z</time></trkpt>
   <trkpt lat="51.23137" lon="3.20746"><ele>70.7</ele><time>2030-06-16T09:42:21Z</time></trkpt>
   <trkpt lat="51.23162" lon="3.20742"><ele>71.2</ele><time>2030-06-16T09:42:31Z</time></trkpt>
   <trkpt lat="51.23187" lon="3.20739"><ele>71.7</ele><time>2030-06-16T09:42:41Z</time></trkpt>
   <trkpt lat="51.23212" lon="3.20736"><ele>72.2</ele><time>2030-06-16T09:42:51Z</time></trkpt>
   <trkpt lat="51.23237" lon="3.20732"><ele>72.7</ele><time>2030-06-16T09:43:01Z</time></trkpt>
   <trkpt lat="51.23262" lon="3.20729"><ele>73.2</ele><time>2030-06-16T09:43:11Z</time></trkpt>
   <trkpt lat="51.23287" lon="3.20725"><ele>73.7</ele><time>2030-06-16T09:43:21Z</time></trkpt>
   <trkpt lat="51.23312" lon="3.20722"><ele>74.2</ele><time>2030-06-16T09:43:31Z</time></trkpt>
   <trkpt lat="51.23337" lon="3.20718"><ele>74.7</ele><time>2030-06-16T09:43:41Z</time></trkpt>
   <trkpt lat="51.23361" lon="3.20715"><ele>75.2</ele><time>2030-06-16T09:43:51Z</time></trkpt>
   <trkpt lat="51.23386" lon="3.20711"><ele>75.7</ele><time>2030-06-16T09:44:01Z</time></trkpt>
   <trkpt lat="51.23411" lon="3.20707"><ele>76.2</ele><time>2030-06-16T09:44:11Z</time></trkpt>
   <trkpt lat="51.23436" lon="3.20703"><ele>76.7</ele><time>2030-06-16T09:44:21Z</time></trkpt>
   <trkpt lat="51.23461" lon="3.20699"><ele>77.2</ele><time>2030-06-16T09:44:31Z</time></trkpt>
   <trkpt lat="51.23486" lon="3.20695"><ele>77.7</ele><time>2030-06-16T09:44:41Z</time></trkpt>
   <trkpt lat="51.23511" lon="3.20691"><ele>78.2</ele><time>2030-06-16T09:44:51Z</time></trkpt>
   <trkpt lat="51.23536" lon="3.20687"><ele>78.7</ele><time>2030-06-16T09:45:01Z</time></trkpt>
   <trkpt lat="51.23561" lon="3.20683"><ele>79.2</ele><time>2030-06-16T09:45:11Z</time></trkpt>
   <trkpt lat="51.23586" lon="3.20679"><ele>79.7</ele><time>2030-06-16T09:45:21Z</time></trkpt>
   <trkpt lat="51.23611" lon="3.20675"><ele>80.2</ele><time>2030-06-16T09:45:31Z</time></trkpt>
   <trkpt lat="51.23635" lon="3.20670"><ele>80.7</ele><time>2030-06-16T09:45:41Z</time></trkpt>
   <trkpt lat="51.23660" lon="3.20666"><ele>81.2</ele><time>2030-06-16T09:45:51Z</time></trkpt>
   <trkpt lat="51.23685" lon="3.20662"><ele>81.7</ele><time>2030-06-16T09:46:01Z</time></trkpt>
   <trkpt lat="51.23710" lon="3.20657"><ele>82.2</ele><time>2030-06-16T09:46:11Z</time></trkpt>
   <trkpt lat="51.23735" lon="3.20653"><ele>82.7</ele><time>2030-06-16T09:46:21Z</time></trkpt>
   <trkpt lat="51.23760" lon="3.20648"><ele>83.2</ele><time>2030-06-16T09:46:31Z</time></trkpt>
   <trkpt lat="51.23785" lon="3.20644"><ele>83.7</ele><time>2030-06-16T09:46:41Z</time></trkpt>
   <trkpt lat="51.23810" lon="3.20639"><ele>84.2</ele><time>2030-06-16T09:46:51Z</time></trkpt>
   <trkpt lat="51.23835" lon="3.20635"><ele>84.7</ele><time>2030-06-16T09:47:01Z</time></trkpt>
   <trkpt lat="51.23860" lon="3.20630"><ele>85.2</ele><time>2030-06-16T09:47:11Z</time></trkpt>
   <trkpt lat="51.23885" lon="3.20625"><ele>85.7</ele><time>2030-06-16T09:47:21Z</time></trkpt>
   <trkpt lat="51.23909" lon="3.20620"><ele>86.2</ele><time>2030-06-16T09:47:31Z</time></trkpt>
   <trkpt lat="51.23934" lon="3.20616"><ele>86.7</ele><time>2030-06-16T09:47:41Z</time></trkpt>
   <trkpt lat="51.23959" lon="3.20611"><ele>87.2</ele><time>2030-06-16T09:47:51Z</time></trkpt>
   <trkpt lat="51.23984" lon="3.20606"><ele>87.7</ele><time>2030-06-16T09:48:01Z</time></trkpt>
   <trkpt lat="51.24009" lon="3.20601"><ele>88.2</ele><time>2030-06-16T09:48:11Z</time></trkpt>
   <trkpt lat="51.24034" lon="3.20596"><ele>88.7</ele><time>2030-06-16T09:48:21Z</time></trkpt>
   <trkpt lat="51.24059" lon="3.20591"><ele>89.2</ele><time>2030-06-16T09:48:31Z</time></trkpt>
   <trkpt lat="51.24084" lon="3.20586"><ele>89.7</ele><time>2030-06-16T09:48:41Z</time></trkpt>
   <trkpt lat="51.24109" lon="3.20581"><ele>90.2</ele><time>2030-06-16T09:48:51Z</time></trkpt>
   <trkpt lat="51.24134" lon="3.20576"><ele>90.7</ele><time>2030-06-16T09:49:01Z</time></trkpt>
   <trkpt lat="51.24158" lon="3.20571"><ele>91.2</ele><time>2030-06-16T09:49:11Z</time></trkpt>
   <trkpt lat="51.24183" lon="3.20566"><ele>91.7</ele><time>2030-06-16T09:49:21Z</time></trkpt>
   <trkpt lat="51.24208" lon="3.20561"><ele>92.2</ele><time>2030-06-16T09:49:31Z</time></trkpt>
   <trkpt lat="51.24233" lon="3.20556"><ele>92.7</ele><time>2030-06-16T09:49:41Z</time></trkpt>
   <trkpt lat="51.24258" lon="3.20551"><ele>93.2</ele><time>2030-06-16T09:49:51Z</time></trkpt>
   <trkpt lat="51.24283" lon="3.20546"><ele>93.7</ele><time>2030-06-16T09:50:01Z</time></trkpt>
   <trkpt lat="51.24308" lon="3.20541"><ele>94.2</ele><time>2030-06-16T09:50:11Z</time></trkpt>
   <trkpt lat="51.24333" lon="3.20536"><ele>94.7</ele><time>2030-06-16T09:50:21Z</time></trkpt>
   <trkpt lat="51.24358" lon="3.20531"><ele>95.2</ele><time>2030-06-16T09:50:31Z</time></trkpt>
   <trkpt lat="51.24383" lon="3.20526"><ele>95.7</ele><time>2030-06-16T09:50:41Z</time></trkpt>
   <trkpt lat="51.24408" lon="3.20521"><ele>96.2</ele><time>2030-06-16T09:50:51Z</time></trkpt>
   <trkpt lat="51.24432" lon="3.20515"><ele>96.6</ele><time>2030-06-16T09:51:01Z</time></trkpt>
   <trkpt lat="51.24457" lon="3.20510"><ele>97.1</ele><time>2030-06-16T09:51:11Z</time></trkpt>
   <trkpt lat="51.24482" lon="3.20505"><ele>97.6</ele><time>2030-06-16T09:51:21Z</time></trkpt>
   <trkpt lat="51.24482" lon="3.20505"><ele>97.6</ele><time>2030-06-16T09:51:32Z</time></trkpt>
   <trkpt lat="51.24457" lon="3.20510"><ele>97.1</ele><time>2030-06-16T09:51:42Z</time></trkpt>
   <trkpt lat="51.24432" lon="3.20515"><ele>96.6</ele><time>2030-06-16T09:51:52Z</time></trkpt>
   <trkpt lat="51.24408" lon="3.20521"><ele>96.2</ele><time>2030-06-16T09:52:02Z</time></trkpt>
   <trkpt lat="51.24383" lon="3.20526"><ele>95.7</ele><time>2030-06-16T09:52:12Z</time></trkpt>
   <trkpt lat="51.24358" lon="3.20531"><ele>95.2</ele><time>2030-06-16T09:52:22Z</time></trkpt>
   <trkpt lat="51.24333" lon="3.20536"><ele>94.7</ele><time>2030-06-16T09:52:32Z</time></trkpt>
   <trkpt lat="51.24308" lon="3.20541"><ele>94.2</ele><time>2030-06-16T09:52:42Z</time></trkpt>
   <trkpt lat="51.24283" lon="3.20546"><ele>93.7</ele><time>2030-06-16T09:52:52Z</time></trkpt>
   <trkpt lat="51.24258" lon="3.20551"><ele>93.2</ele><time>2030-06-16T09:53:02Z</time></trkpt>
   <trkpt lat="51.24233" lon="3.20556"><ele>92.7</ele><time>2030-06-16T09:53:12Z</time></trkpt>
   <trkpt lat="51.24208" lon="3.20561"><ele>92.2</ele><time>2030-06-16T09:53:22Z</time></trkpt>
   <trkpt lat="51.24183" lon="3.20566"><ele>91.7</ele><time>2030-06-16T09:53:32Z</time></trkpt>
   <trkpt lat="51.24158" lon="3.20571"><ele>91.2</ele><time>2030-06-16T09:53:42Z</time></trkpt>
   <trkpt lat="51.24134" lon="3.20576"><ele>90.7</ele><time>2030-06-16T09:53:52Z</time></trkpt>
   <trkpt lat="51.24109" lon="3.20581"><ele>90.2</ele><time>2030-06-16T09:54:02Z</time></trkpt>
   <trkpt lat="51.24084" lon="3.20586"><ele>89.7</ele><time>2030-06-16T09:54:12Z</time></trkpt>
   <trkpt lat="51.24059" lon="3.20591"><ele>89.2</ele><time>2030-06-16T09:54:22Z</time></trkpt>
   <trkpt lat="51.24034" lon="3.20596"><ele>88.7</ele><time>2030-06-16T09:54:32Z</time></trkpt>
   <trkpt lat="51.24009" lon="3.20601"><ele>88.2</ele><time>2030-06-16T09:54:42Z</time></trkpt>
   <trkpt lat="51.23984" lon="3.20606"><ele>87.7</ele><time>2030-06-16T09:54:52Z</time></trkpt>
   <trkpt lat="51.23959" lon="3.20611"><ele>87.2</ele><time>2030-06-16T09:55:02Z</time></trkpt>
   <trkpt lat="51.23934" lon="3.20616"><ele>86.7</ele><time>2030-06-16T09:55:12Z</time></trkpt>
   <trkpt lat="51.23909" lon="3.20620"><ele>86.2</ele><time>2030-06-16T09:55:22Z</time></trkpt>
   <trkpt lat="51.23885" lon="3.20625"><ele>85.7</ele><time>2030-06-16T09:55:32Z</time></trkpt>
   <trkpt lat="51.23860" lon="3.20630"><ele>85.2</ele><time>2030-06-16T09:55:42Z</time></trkpt>
   <trkpt lat="51.23835" lon="3.20635"><ele>84.7</ele><time>2030-06-16T09:55:52Z</time></trkpt>
   <trkpt lat="51.23810" lon="3.20639"><ele>84.2</ele><time>2030-06-16T09:56:02Z</time></trkpt>
   <trkpt lat="51.23785" lon="3.20644"><ele>83.7</ele><time>2030-06-16T09:56:12Z</time></trkpt>
   <trkpt lat="51.23760" lon="3.20648"><ele>83.2</ele><time>2030-06-16T09:56:22Z</time></trkpt>
   <trkpt lat="51.23735" lon="3.20653"><ele>82.7</ele><time>2030-06-16T09:56:32Z</time></trkpt>
   <trkpt lat="51.23710" lon="3.20657"><ele>82.2</ele><time>2030-06-16T09:56:42Z</time></trkpt>
   <trkpt lat="51.23685" lon="3.20662"><ele>81.7</ele><time>2030-06-16T09:56:52Z</time></trkpt>
   <trkpt lat="51.23660" lon="3.20666"><ele>81.2</ele><time>2030-06-16T09:57:02Z</time></trkpt>
   <trkpt lat="51.23635" lon="3.20670"><ele>80.7</ele><time>2030-06-16T09:57:12Z</time></trkpt>
   <trkpt lat="51.23611" lon="3.20675"><ele>80.2</ele><time>2030-06-16T09:57:22Z</time></trkpt>
   <trkpt lat="51.23586" lon="3.20679"><ele>79.7</ele><time>2030-06-16T09:57:32Z</time></trkpt>
   <trkpt lat="51.23561" lon="3.20683"><ele>79.2</ele><time>2030-06-16T09:57:42Z</time></trkpt>
   <trkpt lat="51.23536" lon="3.20687"><ele>78.7</ele><time>2030-06-16T09:57:52Z</time></trkpt>
   <trkpt lat="51.23511" lon="3.20691"><ele>78.2</ele><time>2030-06-16T09:58:02Z</time></trkpt>
   <trkpt lat="51.23486" lon="3.20695"><ele>77.7</ele><time>2030-06-16T09:58:12Z</time></trkpt>
   <trkpt lat="51.23461" lon="3.20699"><ele>77.2</ele><time>2030-06-16T09:58:22Z</time></trkpt>
   <trkpt lat="51.23436" lon="3.20703"><ele>76.7</ele><time>2030-06-16T09:58:32Z</time></trkpt>
   <trkpt lat="51.23411" lon="3.20707"><ele>76.2</ele><time>2030-06-16T09:58:42Z</time></trkpt>
   <trkpt lat="51.23386" lon="3.20711"><ele>75.7</ele><time>2030-06-16T09:58:52Z</time></trkpt>
   <trkpt lat="51.23361" lon="3.20715"><ele>75.2</ele><time>2030-06-16T09:59:02Z</time></trkpt>
   <trkpt lat="51.23337" lon="3.20718"><ele>74.7</ele><time>2030-06-16T09:59:12Z</time></trkpt>
   <trkpt lat="51.23312" lon="3.20722"><ele>74.2</ele><time>2030-06-16T09:59:22Z</time></trkpt>
   <trkpt lat="51.23287" lon="3.20725"><ele>73.7</ele><time>2030-06-16T09:59:32Z</time></trkpt>
   <trkpt lat="51.23262" lon="3.20729"><ele>73.2</ele><time>2030-06-16T09:59:42Z</time></trkpt>
   <trkpt lat="51.23237" lon="3.20732"><ele>72.7</ele><time>2030-06-16T09:59:52Z</time></trkpt>
   <trkpt lat="51.23212" lon="3.20736"><ele>72.2</ele><time>2030-06-16T10:00:02Z</time></trkpt>
   <trkpt lat="51.23187" lon="3.20739"><ele>71.7</ele><time>2030-06-16T10:00:12Z</time></trkpt>
   <trkpt lat="51.23162" lon="3.20742"><ele>71.2</ele><time>2030-06-16T10:00:22Z</time></trkpt>
   <trkpt lat="51.23137" lon="3.20746"><ele>70.7</ele><time>2030-06-16T10:00:32Z</time></trkpt>
   <trkpt lat="51.23112" lon="3.20749"><ele>70.2</ele><time>2030-06-16T10:00:42Z</time></trkpt>
   <trkpt lat="51.23088" lon="3.20752"><ele>69.8</ele><time>2030-06-16T10:00:52Z</time></trkpt>
   <trkpt lat="51.23063" lon="3.20755"><ele>69.3</ele><time>2030-06-16T10:01:02Z</time></trkpt>
   <trkpt lat="51.23038" lon="3.20758"><ele>68.8</ele><time>2030-06-16T10:01:12Z</time></trkpt>
   <trkpt lat="51.23013" lon="3.20760"><ele>68.3</ele><time>2030-06-16T10:01:22Z</time></trkpt>
   <trkpt lat="51.22988" lon="3.20763"><ele>67.8</ele><time>2030-06-16T10:01:32Z</time></trkpt>
   <trkpt lat="51.22963" lon="3.20766"><ele>67.3</ele><time>2030-06-16T10:01:42Z</time></trkpt>
   <trkpt lat="51.22938" lon="3.20768"><ele>66.8</ele><time>2030-06-16T10:01:52Z</time></trkpt>
   <trkpt lat="51.22913" lon="3.20771"><ele>66.3</ele><time>2030-06-16T10:02:02Z</time></trkpt>
   <trkpt lat="51.22888" lon="3.20773"><ele>65.8</ele><time>2030-06-16T10:02:12Z</time></trkpt>
   <trkpt lat="51.22863" lon="3.20776"><ele>65.3</ele><time>2030-06-16T10:02:22Z</time></trkpt>
   <trkpt lat="51.22838" lon="3.20778"><ele>64.8</ele><time>2030-06-16T10:02:32Z</time></trkpt>
   <trkpt lat="51.22814" lon="3.20780"><ele>64.3</ele><time>2030-06-16T10:02:42Z</time></trkpt>
   <trkpt lat="51.22789" lon="3.20783"><ele>63.8</ele><time>2030-06-16T10:02:52Z</time></trkpt>
   <trkpt lat="51.22764" lon="3.20785"><ele>63.3</ele><time>2030-06-16T10:03:02Z</time></trkpt>
   <trkpt lat="51.22739" lon="3.20787"><ele>62.8</ele><time>2030-06-16T10:03:12Z</time></trkpt>
   <trkpt lat="51.22714" lon="3.20789"><ele>62.3</ele><time>2030-06-16T10:03:22Z</time></trkpt>
   <trkpt lat="51.22689" lon="3.20790"><ele>61.8</ele><time>2030-06-16T10:03:32Z</time></trkpt>
   <trkpt lat="51.22664" lon="3.20792"><ele>61.3</ele><time>2030-06-16T10:03:42Z</time></trkpt>
   <trkpt lat="51.22639" lon="3.20794"><ele>60.8</ele><time>2030-06-16T10:03:52Z</time></trkpt>
   <trkpt lat="51.22614" lon="3.20795"><ele>60.3</ele><time>2030-06-16T10:04:02Z</time></trkpt>
   <trkpt lat="51.22589" lon="3.20797"><ele>59.8</ele><time>2030-06-16T10:04:12Z</time></trkpt>
   <trkpt lat="51.22565" lon="3.20798"><ele>59.3</ele><time>2030-06-16T10:04:22Z</time></trkpt>
   <trkpt lat="51.22540" lon="3.20800"><ele>58.8</ele><time>2030-06-16T10:04:32Z</time></trkpt>
   <trkpt lat="51.22515" lon="3.20801"><ele>58.3</ele><time>2030-06-16T10:04:42Z</time></trkpt>
   <trkpt lat="51.22490" lon="3.20802"><ele>57.8</ele><time>2030-06-16T10:04:52Z</time></trkpt>
   <trkpt lat="51.22465" lon="3.20803"><ele>57.3</ele><time>2030-06-16T10:05:02Z</time></trkpt>
   <trkpt lat="51.22440" lon="3.20804"><ele>56.8</ele><time>2030-06-16T10:05:12Z</time></trkpt>
   <trkpt lat="51.22415" lon="3.20805"><ele>56.3</ele><time>2030-06-16T10:05:22Z</time></trkpt>
   <trkpt lat="51.22390" lon="3.20806"><ele>55.8</ele><time>2030-06-16T10:05:32Z</time></trkpt>
   <trkpt lat="51.22365" lon="3.20807"><ele>55.3</ele><time>2030-06-16T10:05:42Z</time></trkpt>
   <trkpt lat="51.22340" lon="3.20808"><ele>54.8</ele><time>2030-06-16T10:05:52Z</time></trkpt>
   <trkpt lat="51.22315" lon="3.20808"><ele>54.3</ele><time>2030-06-16T10:06:02Z</time></trkpt>
   <trkpt lat="51.22291" lon="3.20809"><ele>53.8</ele><time>2030-06-16T10:06:12Z</time></trkpt>
   <trkpt lat="51.22266" lon="3.20809"><ele>53.3</ele><time>2030-06-16T10:06:22Z</time></trkpt>
   <trkpt lat="51.22241" lon="3.20809"><ele>52.8</ele><time>2030-06-16T10:06:32Z</time></trkpt>
   <trkpt lat="51.22216" lon="3.20810"><ele>52.3</ele><time>2030-06-16T10:06:42Z</time></trkpt>
   <trkpt lat="51.22191" lon="3.20810"><ele>51.8</ele><time>2030-06-16T10:06:52Z</time></trkpt>
   <trkpt lat="51.22166" lon="3.20810"><ele>51.3</ele><time>2030-06-16T10:07:02Z</time></trkpt>
   <trkpt lat="51.22141" lon="3.20810"><ele>50.8</ele><time>2030-06-16T10:07:12Z</time></trkpt>
   <trkpt lat="51.22116" lon="3.20810"><ele>50.3</ele><time>2030-06-16T10:07:22Z</time></trkpt>
   <trkpt lat="51.22091" lon="3.20810"><ele>49.8</ele><time>2030-06-16T10:07:32Z</time></trkpt>
   <trkpt lat="51.22066" lon="3.20809"><ele>49.3</ele><time>2030-06-16T10:07:42Z</time></trkpt>
   <trkpt lat="51.22042" lon="3.20809"><ele>48.8</ele><time>2030-06-16T10:07:52Z</time></trkpt>
   <trkpt lat="51.22017" lon="3.20809"><ele>48.3</ele><time>2030-06-16T10:08:02Z</time></trkpt>
   <trkpt lat="51.21992" lon="3.20808"><ele>47.8</ele><time>2030-06-16T10:08:12Z</time></trkpt>
   <trkpt lat="51.21967" lon="3.20808"><ele>47.3</ele><time>2030-06-16T10:08:22Z</time></trkpt>
   <trkpt lat="51.21942" lon="3.20807"><ele>46.8</ele><time>2030-06-16T10:08:32Z</time></trkpt>
   <trkpt lat="51.21917" lon="3.20806"><ele>46.3</ele><time>2030-06-16T10:08:42Z</time></trkpt>
   <trkpt lat="51.21892" lon="3.20805"><ele>45.8</ele><time>2030-06-16T10:08:52Z</time></trkpt>
   <trkpt lat="51.21867" lon="3.20804"><ele>45.3</ele><time>2030-06-16T10:09:02Z</time></trkpt>
   <trkpt lat="51.21842" lon="3.20803"><ele>44.8</ele><time>2030-06-16T10:09:12Z</time></trkpt>
   <trkpt lat="51.21817" lon="3.20802"><ele>44.3</ele><time>2030-06-16T10:09:22Z</time></trkpt>
   <trkpt lat="51.21792" lon="3.20801"><ele>43.8</ele><time>2030-06-16T10:09:32Z</time></trkpt>
   <trkpt lat="51.21768" lon="3.20800"><ele>43.4</ele><time>2030-06-16T10:09:42Z</time></trkpt>
   <trkpt lat="51.21743" lon="3.20798"><ele>42.9</ele><time>2030-06-16T10:09:52Z</time></trkpt>
   <trkpt lat="51.21718" lon="3.20797"><ele>42.4</ele><time>2030-06-16T10:10:02Z</time></trkpt>
   <trkpt lat="51.21693" lon="3.20795"><ele>41.9</ele><time>2030-06-16T10:10:12Z</time></trkpt>
   <trkpt lat="51.21668" lon="3.20794"><ele>41.4</ele><time>2030-06-16T10:10:22Z</time></trkpt>
   <trkpt lat="51.21643" lon="3.20792"><ele>40.9</ele><time>2030-06-16T10:10:32Z</time></trkpt>
   <trkpt lat="51.21618" lon="3.20790"><ele>40.4</ele><time>2030-06-16T10:10:42Z</time></trkpt>
   <trkpt lat="51.21593" lon="3.20789"><ele>39.9</ele><time>2030-06-16T10:10:52Z</time></trkpt>
   <trkpt lat="51.21568" lon="3.20787"><ele>39.4</ele><time>2030-06-16T10:11:02Z</time></trkpt>
   <trkpt lat="51.21543" lon="3.20785"><ele>38.9</ele><time>2030-06-16T10:11:12Z</time></trkpt>
   <trkpt lat="51.21518" lon="3.20783"><ele>38.4</ele><time>2030-06-16T10:11:22Z</time></trkpt>
   <trkpt lat="51.21494" lon="3.20780"><ele>37.9</ele><time>2030-06-16T10:11:32Z</time></trkpt>
   <trkpt lat="51.21469" lon="3.20778"><ele>37.4</ele><time>2030-06-16T10:11:42Z</time></trkpt>
   <trkpt lat="51.21444" lon="3.20776"><ele>36.9</ele><time>2030-06-16T10:11:52Z</time></trkpt>
   <trkpt lat="51.21419" lon="3.20773"><ele>36.4</ele><time>2030-06-16T10:12:02Z</time></trkpt>
   <trkpt lat="51.21394" lon="3.20771"><ele>35.9</ele><time>2030-06-16T10:12:12Z</time></trkpt>
   <trkpt lat="51.21369" lon="3.20768"><ele>35.4</ele><time>2030-06-16T10:12:22Z</time></trkpt>
   <trkpt lat="51.21344" lon="3.20766"><ele>34.9</ele><time>2030-06-16T10:12:32Z</time></trkpt>
   <trkpt lat="51.21319" lon="3.20763"><ele>34.4</ele><time>2030-06-16T10:12:43Z</time></trkpt>
   <trkpt lat="51.21294" lon="3.20760"><ele>33.9</ele><time>2030-06-16T10:12:53Z</time></trkpt>
   <trkpt lat="51.21269" lon="3.20758"><ele>33.4</ele><time>2030-06-16T10:13:03Z</time></trkpt>
   <trkpt lat="51.21245" lon="3.20755"><ele>32.9</ele><time>2030-06-16T10:13:13Z</time></trkpt>
   <trkpt lat="51.21220" lon="3.20752"><ele>32.4</ele><time>2030-06-16T10:13:23Z</time></trkpt>
   <trkpt lat="51.21195" lon="3.20749"><ele>31.9</ele><time>2030-06-16T10:13:33Z</time></trkpt>
   <trkpt lat="51.21170" lon="3.20746"><ele>31.4</ele><time>2030-06-16T10:13:43Z</time></trkpt>
   <trkpt lat="51.21145" lon="3.20742"><ele>30.9</ele><time>2030-06-16T10:13:53Z</time></trkpt>
   <trkpt lat="51.21120" lon="3.20739"><ele>30.4</ele><time>2030-06-16T10:14:03Z</time></trkpt>
   <trkpt lat="51.21095" lon="3.20736"><ele>29.9</ele><time>2030-06-16T10:14:13Z</time></trkpt>
   <trkpt lat="51.21070" lon="3.20732"><ele>29.4</ele><time>2030-06-16T10:14:23Z</time></trkpt>
   <trkpt lat="51.21045" lon="3.20729"><ele>28.9</ele><time>2030-06-16T10:14:33Z</time></trkpt>
   <trkpt lat="51.21020" lon="3.20725"><ele>28.4</ele><time>2030-06-16T10:14:43Z</time></trkpt>
   <trkpt lat="51.20995" lon="3.20722"><ele>27.9</ele><time>2030-06-16T10:14:53Z</time></trkpt>
   <trkpt lat="51.20971" lon="3.20718"><ele>27.4</ele><time>2030-06-16T10:15:03Z</time></trkpt>
   <trkpt lat="51.20946" lon="3.20715"><ele>26.9</ele><time>2030-06-16T10:15:13Z</time></trkpt>
   <trkpt lat="51.20921" lon="3.20711"><ele>26.4</ele><time>2030-06-16T10:15:23Z</time></trkpt>
   <trkpt lat="51.20896" lon="3.20707"><ele>25.9</ele><time>2030-06-16T10:15:33Z</time></trkpt>
   <trkpt lat="51.20871" lon="3.20703"><ele>25.4</ele><time>2030-06-16T10:15:43Z</time></trkpt>
   <trkpt lat="51.20846" lon="3.20699"><ele>24.9</ele><time>2030-06-16T10:15:53Z</time></trkpt>
   <trkpt lat="51.20821" lon="3.20695"><ele>24.4</ele><time>2030-06-16T10:16:03Z</time></trkpt>
   <trkpt lat="51.20796" lon="3.20691"><ele>23.9</ele><time>2030-06-16T10:16:13Z</time></trkpt>
   <trkpt lat="51.20771" lon="3.20687"><ele>23.4</ele><time>2030-06-16T10:16:23Z</time></trkpt>
   <trkpt lat="51.20746" lon="3.20683"><ele>22.9</ele><time>2030-06-16T10:16:33Z</time></trkpt>
   <trkpt lat="51.20722" lon="3.20679"><ele>22.4</ele><time>2030-06-16T10:16:43Z</time></trkpt>
   <trkpt lat="51.20697" lon="3.20675"><ele>21.9</ele><time>2030-06-16T10:16:53Z</time></trkpt>
   <trkpt lat="51.20672" lon="3.20670"><ele>21.4</ele><time>2030-06-16T10:17:03Z</time></trkpt>
   <trkpt lat="51.20647" lon="3.20666"><ele>20.9</ele><time>2030-06-16T10:17:13Z</time></trkpt>
   <trkpt lat="51.20622" lon="3.20662"><ele>20.4</ele><time>2030-06-16T10:17:23Z</time></trkpt>
   <trkpt lat="51.20597" lon="3.20657"><ele>19.9</ele><time>2030-06-16T10:17:33Z</time></trkpt>
   <trkpt lat="51.20572" lon="3.20653"><ele>19.4</ele><time>2030-06-16T10:17:43Z</time></trkpt>
   <trkpt lat="51.20547" lon="3.20648"><ele>18.9</ele><time>2030-06-16T10:17:53Z</time></trkpt>
   <trkpt lat="51.20522" lon="3.20644"><ele>18.4</ele><time>2030-06-16T10:18:03Z</time></trkpt>
   <trkpt lat="51.20497" lon="3.20639"><ele>17.9</ele><time>2030-06-16T10:18:13Z</time></trkpt>
   <trkpt lat="51.20472" lon="3.20635"><ele>17.4</ele><time>2030-06-16T10:18:23Z</time></trkpt>
   <trkpt lat="51.20448" lon="3.20630"><ele>17.0</ele><time>2030-06-16T10:18:33Z</time></trkpt>
   <trkpt lat="51.20423" lon="3.20625"><ele>16.5</ele><time>2030-06-16T10:18:43Z</time></trkpt>
   <trkpt lat="51.20398" lon="3.20620"><ele>16.0</ele><time>2030-06-16T10:18:53Z</time></trkpt>
   <trkpt lat="51.20373" lon="3.20616"><ele>15.5</ele><time>2030-06-16T10:19:03Z</time></trkpt>
   <trkpt lat="51.20348" lon="3.20611"><ele>15.0</ele><time>2030-06-16T10:19:13Z</time></trkpt>
   <trkpt lat="51.20323" lon="3.20606"><ele>14.5</ele><time>2030-06-16T10:19:23Z</time></trkpt>
   <trkpt lat="51.20298" lon="3.20601"><ele>14.0</ele><time>2030-06-16T10:19:33Z</time></trkpt>
   <trkpt lat="51.20273" lon="3.20596"><ele>13.5</ele><time>2030-06-16T10:19:43Z</time></trkpt>
   <trkpt lat="51.20248" lon="3.20591"><ele>13.0</ele><time>2030-06-16T10:19:53Z</time></trkpt>
   <trkpt lat="51.20223" lon="3.20586"><ele>12.5</ele><time>2030-06-16T10:20:03Z</time></trkpt>
   <trkpt lat="51.20198" lon="3.20581"><ele>12.0</ele><time>2030-06-16T10:20:13Z</time></trkpt>
   <trkpt lat="51.20174" lon="3.20576"><ele>11.5</ele><time>2030-06-16T10:20:23Z</time></trkpt>
   <trkpt lat="51.20149" lon="3.20571"><ele>11.0</ele><time>2030-06-16T10:20:33Z</time></trkpt>
   <trkpt lat="51.20124" lon="3.20566"><ele>10.5</ele><time>2030-06-16T10:20:43Z</time></trkpt>
   <trkpt lat="51.20099" lon="3.20561"><ele>10.0</ele><time>2030-06-16T10:20:53Z</time></trkpt>
   <trkpt lat="51.20074" lon="3.20556"><ele>9.5</ele><time>2030-06-16T10:21:03Z</time></trkpt>
   <trkpt lat="51.20049" lon="3.20551"><ele>9.0</ele><time>2030-06-16T10:21:13Z</time></trkpt>
   <trkpt lat="51.20024" lon="3.20546"><ele>8.5</ele><time>2030-06-16T10:21:23Z</time></trkpt>
   <trkpt lat="51.19999" lon="3.20541"><ele>8.0</ele><time>2030-06-16T10:21:33Z</time></trkpt>
   <trkpt lat="51.19974" lon="3.20536"><ele>7.5</ele><time>2030-06-16T10:21:43Z</time></trkpt>
   <trkpt lat="51.19949" lon="3.20531"><ele>7.0</ele><time>2030-06-16T10:21:53Z</time></trkpt>
   <trkpt lat="51.19925" lon="3.20526"><ele>6.5</ele><time>2030-06-16T10:22:03Z</time></trkpt>
   <trkpt lat="51.19900" lon="3.20521"><ele>6.0</ele><time>2030-06-16T10:22:13Z</time></trkpt>
   <trkpt lat="51.19875" lon="3.20515"><ele>5.5</ele><time>2030-06-16T10:22:23Z</time></trkpt>
   <trkpt lat="51.19850" lon="3.20510"><ele>5.0</ele><time>2030-06-16T10:22:33Z</time></trkpt>
   <trkpt lat="51.19825" lon="3.20505"><ele>4.5</ele><time>2030-06-16T10:22:43Z</time></trkpt>
   <trkpt lat="51.19800" lon="3.20500"><ele>4.0</ele><time>2030-06-16T10:22:53Z</time></trkpt>
 </trkseg></trk>
</gpx>
